{"type":"FeatureCollection","features":[{"type":"Feature","properties":[{"highway":"residential"},{"motor_vehicle":"no"},{"surface":"unpaved"}],"geometry":{"type":"LineString","coordinates":[["84.2929945","28.2720723"],["84.293008","28.2719976"],["84.2925011","28.2717118"],["84.2922838","28.2716598"],["84.2922597","28.2714826"],["84.2922597","28.2714496"],["84.2922409","28.2714188"],["84.2920692","28.2713787"]]}},{"type":"Feature","properties":[{"landuse":"residential"}],"geometry":{"type":"Point","coordinates":["84.2929945","28.2720723"]}},{"type":"Feature","properties":[{"landuse":"residential"}],"geometry":{"type":"LineString","coordinates":[["84.2914872","28.2713043"],["84.2917044","28.2715169"],["84.2921738","28.2714838"],["84.2918064","28.2712003"],["84.2914872","28.2713043"]]}},{"type":"Feature","properties":[{"highway":"residential"},{"motor_vehicle":"no"}],"geometry":{"type":"LineString","coordinates":[["84.2899932","28.2714342"],["84.2900442","28.2713421"],["84.2901863","28.2713137"],["84.290484","28.2713279"],["84.2906798","28.2712783"]]}},{"type":"Feature","properties":[{"landuse":"residential"}],"geometry":{"type":"LineString","coordinates":[["84.2898618","28.2720602"],["84.2899342","28.2714295"],["84.2900307","28.2714484"],["84.2899422","28.272072"],["84.2898618","28.2720602"]]}},{"type":"Feature","properties":[{"highway":"residential"},{"motor_vehicle":"no"}],"geometry":{"type":"LineString","coordinates":[["84.2972752","28.2841607"],["84.297369","28.2840308"],["84.2975635","28.2839788"],["84.2977848","28.2839965"],["84.2978371","28.2840532"],["84.2979269","28.2840509"],["84.2980959","28.2840119"],["84.2982019","28.2839493"],["84.2983373","28.2839351"],["84.2983454","28.2839021"]]}},{"type":"Feature","properties":[{"highway":"residential"},{"motor_vehicle":"no"}],"geometry":{"type":"LineString","coordinates":[["84.2980358","28.2849768"],["84.2978762","28.2849059"],["84.297785","28.284815"],["84.2977059","28.2846862"],["84.2976509","28.2846154"]]}},{"type":"Feature","properties":[{"highway":"residential"},{"motor_vehicle":"no"}],"geometry":{"type":"LineString","coordinates":[["84.2978816","28.2843556"],["84.2977609","28.2844831"],["84.2977327","28.2845977"]]}},{"type":"Feature","properties":[{"building":"house"}],"geometry":{"type":"Point","coordinates":[84.2925788,28.2716657]}},{"type":"Feature","properties":[{"building":"house"}],"geometry":{"type":"Point","coordinates":[84.2924555,28.2716421]}},{"type":"Feature","properties":[{"building":"house"}],"geometry":{"type":"Point","coordinates":[84.2920934,28.2715807]}},{"type":"Feature","properties":[{"building":"house"}],"geometry":{"type":"Point","coordinates":[84.2940514,28.2697688]}},{"type":"Feature","properties":[{"building":"house"}],"geometry":{"type":"Point","coordinates":[84.2933567,28.2702767]}},{"type":"Feature","properties":[{"building":"house"}],"geometry":{"type":"Point","coordinates":[84.2984368,28.2837851]}},{"type":"Feature","properties":[{"building":"house"}],"geometry":{"type":"Point","coordinates":[84.2972499,28.2841276]}},{"type":"Feature","properties":[{"building":"house"}],"geometry":{"type":"Point","coordinates":[84.297376,28.2839245]}},{"type":"Feature","properties":[{"building":"house"}],"geometry":{"type":"Point","coordinates":[84.2979381,28.2843278]}}]}