{"type":"FeatureCollection","features":[{"type":"Feature","properties":[{"building":"yes"},{"landuse":"residential"}],"geometry":{"type":"LineString","coordinates":[["84.3587169","28.5160731"],["84.3588483","28.5160683"],["84.3588564","28.5158586"],["84.3587169","28.5158539"],["84.3587169","28.5160731"]]}},{"type":"Feature","properties":[{"addr:street":"F36"},{"building":"yes"},{"landuse":"residential"},{"name":"Unknown"}],"geometry":{"type":"LineString","coordinates":[["84.3587973","28.5166246"],["84.3589502","28.5166246"],["84.3589797","28.5162757"],["84.3588295","28.5162545"],["84.3588295","28.5163205"],["84.3588832","28.5163205"],["84.3588698","28.5164407"],["84.3587625","28.5164313"],["84.3587705","28.5164855"],["84.3588537","28.5164973"],["84.3588564","28.5165538"],["84.3587893","28.5165562"],["84.3587973","28.5166246"]]}},{"type":"Feature","properties":[{"building":"yes"},{"landuse":"farm"},{"name":"Storage?"}],"geometry":{"type":"LineString","coordinates":[["84.3589127","28.5170723"],["84.3589958","28.5170747"],["84.3590146","28.5169569"],["84.3589315","28.5169474"],["84.3589127","28.5170723"]]}},{"type":"Feature","properties":[{"building":"yes"},{"landuse":"farm"},{"name":"Unknown"}],"geometry":{"type":"LineString","coordinates":[["84.3588845","28.516938"],["84.3588872","28.5168708"],["84.3591004","28.5168626"],["84.3590924","28.5169309"],["84.3588845","28.516938"]]}},{"type":"Feature","properties":[{"building":"residential"},{"landuse":"residential"},{"name":"Unknown"}],"geometry":{"type":"LineString","coordinates":[["84.3587652","28.5173858"],["84.3587611","28.5174459"],["84.3589167","28.5174353"],["84.3590642","28.5174082"],["84.3590522","28.5173622"],["84.3589167","28.5173846"],["84.3588322","28.5173999"],["84.3587652","28.5173858"]]}},{"type":"Feature","properties":[{"addr:street":"F36"},{"building":"yes"},{"landuse":"residential"},{"name":"Unknown"}],"geometry":{"type":"LineString","coordinates":[["84.3584648","28.5173846"],["84.3584876","28.5174942"],["84.3586002","28.5174895"],["84.3585935","28.5174105"],["84.3585331","28.5174129"],["84.3585331","28.517374"],["84.3584648","28.5173846"]]}},{"type":"Feature","properties":[{"addr:street":"F36"},{"building":"yes"},{"landuse":"residential"},{"name":"Unknown"}],"geometry":{"type":"LineString","coordinates":[["84.3586069","28.5174094"],["84.3586592","28.5174082"],["84.3586565","28.5174483"],["84.3586109","28.5174483"],["84.3586069","28.5174094"]]}},{"type":"Feature","properties":[{"addr:street":"F36"},{"building":"yes"},{"landuse":"residential"},{"name":"Unknown"}],"geometry":{"type":"LineString","coordinates":[["84.3587182","28.5174553"],["84.3586565","28.5174483"],["84.358627","28.5176085"],["84.3587008","28.5176215"],["84.3587182","28.5174553"]]}},{"type":"Feature","properties":[{"addr:street":"F36"},{"building":"yes"},{"landuse":"residential"},{"name":"Unknown"}],"geometry":{"type":"LineString","coordinates":[["84.3585747","28.5177016"],["84.3586311","28.5177275"],["84.358678","28.5177287"],["84.3586981","28.5176392"],["84.3586056","28.5176109"],["84.3585828","28.5176062"],["84.3585667","28.517645"],["84.3585881","28.5176462"],["84.3585747","28.5177016"]]}},{"type":"Feature","properties":[{"addr:street":"F36"},{"landuse":"residential"}],"geometry":{"type":"LineString","coordinates":[["84.3587665","28.5174718"],["84.3587611","28.5175755"],["84.3589395","28.5175897"],["84.3589341","28.5175048"],["84.3589154","28.5174589"],["84.3587665","28.5174718"]]}},{"type":"Feature","properties":[{"addr:street":"F36"},{"building":"yes"},{"landuse":"residential"}],"geometry":{"type":"LineString","coordinates":[["84.3587839","28.5175779"],["84.3587692","28.5176698"],["84.3588684","28.5176863"],["84.3588631","28.517711"],["84.3588966","28.5177134"],["84.3588952","28.5177299"],["84.3589449","28.5177358"],["84.3589797","28.5176132"],["84.3589797","28.5175826"],["84.3587839","28.5175779"]]}},{"type":"Feature","properties":[{"addr:street":"F36"},{"building":"yes"},{"landuse":"residential"},{"name":"Unknown"}],"geometry":{"type":"LineString","coordinates":[["84.3587772","28.5176792"],["84.3587437","28.5177711"],["84.3588108","28.5177853"],["84.3588443","28.5176934"],["84.3587772","28.5176792"]]}},{"type":"Feature","properties":[{"addr:street":"F36"},{"building":"yes"},{"landuse":"residential"},{"name":"Unknown"}],"geometry":{"type":"LineString","coordinates":[["84.358788","28.5177982"],["84.3586994","28.5179809"],["84.3587933","28.5180139"],["84.3588993","28.51783"],["84.358788","28.5177982"]]}},{"type":"Feature","properties":[{"addr:street":"F36"},{"building":"yes"},{"landuse":"residential"},{"name":"Unknown"}],"geometry":{"type":"LineString","coordinates":[["84.3588845","28.5180304"],["84.3589462","28.5179526"],["84.3589918","28.5179938"],["84.3589274","28.5180645"],["84.3588845","28.5180304"]]}},{"type":"Feature","properties":[{"addr:street":"F36"},{"building":"yes"},{"landuse":"residential"},{"name":"Unknown"}],"geometry":{"type":"LineString","coordinates":[["84.3587504","28.5180645"],["84.3587933","28.5180139"],["84.3588751","28.5180775"],["84.3588389","28.5181246"],["84.3587504","28.5180645"]]}},{"type":"Feature","properties":[{"addr:street":"F36"},{"building":"yes"},{"landuse":"residential"},{"name":"Unknown"}],"geometry":{"type":"LineString","coordinates":[["84.3584728","28.5180445"],["84.3585224","28.518061"],["84.3585881","28.5179632"],["84.3585975","28.5179314"],["84.3585399","28.5179125"],["84.3584728","28.5180445"]]}},{"type":"Feature","properties":[{"addr:street":"F36"},{"building":"yes"},{"landuse":"residential"},{"name":"Unknown"}],"geometry":{"type":"LineString","coordinates":[["84.3586284","28.5180339"],["84.3585895","28.5181164"],["84.3586015","28.5181235"],["84.3585787","28.5181541"],["84.3586525","28.5181789"],["84.358682","28.5181789"],["84.3587035","28.5181411"],["84.3586713","28.5181282"],["84.3587048","28.5180622"],["84.3586284","28.5180339"]]}},{"type":"Feature","properties":[{"addr:street":"F36"},{"building":"yes"},{"landuse":"residential"},{"name":"Unknown"}],"geometry":{"type":"LineString","coordinates":[["84.3584594","28.5180704"],["84.3585331","28.5180952"],["84.358509","28.5181329"],["84.3585238","28.5181447"],["84.3584956","28.5182071"],["84.3584071","28.5181824"],["84.3584138","28.5181635"],["84.3583897","28.5181576"],["84.3584057","28.5181223"],["84.3584285","28.5181294"],["84.3584594","28.5180704"]]}},{"type":"Feature","properties":[{"addr:street":"F36"},{"building":"yes"},{"landuse":"residential"},{"name":"Unknown"},{"source":"Bing"}],"geometry":{"type":"LineString","coordinates":[["84.3585381","28.5182447"],["84.3584979","28.5183313"],["84.3585663","28.5183719"],["84.3585984","28.5183224"],["84.3586387","28.5183313"],["84.3586588","28.5182959"],["84.3586186","28.5182783"],["84.3586045","28.5182871"],["84.3585381","28.5182447"]]}},{"type":"Feature","properties":[{"addr:street":"F36"},{"building":"yes"},{"landuse":"residential"},{"name":"Unknown"},{"source":"Bing"}],"geometry":{"type":"Point","coordinates":["84.3587933","28.5180139"]}},{"type":"Feature","properties":[{"addr:street":"F36"},{"building":"yes"},{"landuse":"residential"},{"name":"Unknown"},{"source":"Bing"}],"geometry":{"type":"LineString","coordinates":[["84.3588845","28.5180304"],["84.3589462","28.5179526"],["84.3589918","28.5179938"],["84.3589274","28.5180645"],["84.3588845","28.5180304"]]}},{"type":"Feature","properties":[{"addr:street":"F36"},{"building":"yes"},{"landuse":"residential"},{"name":"Unknown"},{"source":"Bing"}],"geometry":{"type":"LineString","coordinates":[["84.3584728","28.5180445"],["84.3585224","28.518061"],["84.3585881","28.5179632"],["84.3585975","28.5179314"],["84.3585399","28.5179125"],["84.3584728","28.5180445"]]}},{"type":"Feature","properties":[{"addr:street":"F36"},{"building":"yes"},{"landuse":"residential"},{"name":"Unknown"},{"source":"Bing"}],"geometry":{"type":"LineString","coordinates":[["84.3587504","28.5180645"],["84.3587933","28.5180139"],["84.3588751","28.5180775"],["84.3588389","28.5181246"],["84.3587504","28.5180645"]]}},{"type":"Feature","properties":[{"addr:street":"F36"},{"building":"yes"},{"landuse":"residential"},{"name":"Unknown"},{"source":"Bing"}],"geometry":{"type":"LineString","coordinates":[["84.3586284","28.5180339"],["84.3585895","28.5181164"],["84.3586015","28.5181235"],["84.3585787","28.5181541"],["84.3586525","28.5181789"],["84.358682","28.5181789"],["84.3587035","28.5181411"],["84.3586713","28.5181282"],["84.3587048","28.5180622"],["84.3586284","28.5180339"]]}},{"type":"Feature","properties":[{"addr:street":"F36"},{"building":"yes"},{"landuse":"residential"},{"name":"Unknown"},{"source":"Bing"}],"geometry":{"type":"LineString","coordinates":[["84.3583692","28.5182853"],["84.3584577","28.5183136"],["84.3584878","28.5182164"],["84.3584054","28.5181935"],["84.3583692","28.5182853"]]}},{"type":"Feature","properties":[{"addr:street":"F36"},{"building":"yes"},{"landuse":"residential"},{"name":"Health clinic?"},{"source":"Bing"}],"geometry":{"type":"LineString","coordinates":[["84.3583992","28.5184379"],["84.3584281","28.518382"],["84.3583798","28.5183619"],["84.3583583","28.5183849"],["84.3583355","28.5183725"],["84.3583442","28.5183401"],["84.3583248","28.5183348"],["84.3582859","28.518392"],["84.3583992","28.5184379"]]}},{"type":"Feature","properties":[{"addr:street":"F36"},{"building":"yes"},{"landuse":"residential"},{"name":"Hotel"},{"source":"Bing"}],"geometry":{"type":"LineString","coordinates":[["84.357899","28.518919"],["84.3579848","28.5189402"],["84.3580492","28.5188294"],["84.3580948","28.518747"],["84.3580948","28.5186386"],["84.3579768","28.5186362"],["84.3579687","28.5187375"],["84.357899","28.518919"]]}},{"type":"Feature","properties":[{"addr:street":"F36"},{"building":"yes"},{"landuse":"residential"},{"name":"Unknown"},{"source":"Bing"}],"geometry":{"type":"LineString","coordinates":[["84.3577756","28.5191123"],["84.3579097","28.5191476"],["84.3579875","28.5189732"],["84.3578534","28.5189284"],["84.3577756","28.5191123"]]}},{"type":"Feature","properties":[{"building":"yes"},{"landuse":"residential"},{"name":"Unknown"},{"source":"Bing"}],"geometry":{"type":"LineString","coordinates":[["84.3582048","28.5185419"],["84.3582879","28.5185678"],["84.3583281","28.5185089"],["84.3582396","28.5184712"],["84.3582048","28.5185419"]]}},{"type":"Feature","properties":[{"addr:street":"F36"},{"building":"yes"},{"landuse":"residential"},{"name":"Unknown"},{"source":"Bing"}],"geometry":{"type":"LineString","coordinates":[["84.3574785","28.5199104"],["84.3575563","28.519941"],["84.3576099","28.5198303"],["84.3575294","28.5197808"],["84.3574785","28.5199104"]]}},{"type":"Feature","properties":[{"addr:street":"F36"},{"building":"yes"},{"landuse":"residential"},{"name":"hamlet-multiple buildings"},{"source":"Bing"}],"geometry":{"type":"LineString","coordinates":[["84.3573739","28.5202939"],["84.3571957","28.52051"],["84.3568589","28.5206498"],["84.3565853","28.5207865"],["84.3565236","28.5207276"],["84.3565719","28.520671"],["84.3566094","28.5205885"],["84.3565397","28.5205626"],["84.3565826","28.5204778"],["84.3566255","28.5204212"],["84.3567999","28.5205225"],["84.3568482","28.520539"],["84.3571191","28.5202609"],["84.3572022","28.5201808"],["84.3573739","28.5202939"]]}},{"type":"Feature","properties":[{"highway":"track"},{"ref":"F36"},{"source":"survey"},{"tracktype":"grade4"}],"geometry":{"type":"LineString","coordinates":[["84.3586960","28.5177511"],["84.3586601","28.5178764"],["84.3584968","28.5183244"],["84.3583459","28.5186169"],["84.3581265","28.5187351"],["84.3580168","28.5189776"],["84.3577372","28.5195467"],["84.3575744","28.5201500"],["84.3572169","28.5204983"],["84.3571957","28.52051"],["84.3569289","28.5206573"],["84.3564772","28.5209088"],["84.3562295","28.5212446"],["84.3558429","28.5218807"],["84.3556809","28.5222646"],["84.3554756","28.5226160"],["84.3547990","28.5231535"],["84.3546161","28.5234714"],["84.3543434","28.5237488"],["84.3541558","28.5241808"],["84.3539226","28.5242827"]]}},{"type":"Feature","properties":[{"addr:street":"F36"},{"building":"yes"},{"landuse":"residential"},{"name":"Unknown"},{"source":"Bing"}],"geometry":{"type":"LineString","coordinates":[["84.3567194","28.5207739"],["84.3567757","28.5209043"],["84.3568616","28.5208666"],["84.3568535","28.5208431"],["84.3569715","28.5207959"],["84.3570118","28.5207582"],["84.3569876","28.5206639"],["84.3567194","28.5207739"]]}},{"type":"Feature","properties":[{"highway":"track"},{"ref":"F36"},{"source":"survey"},{"tracktype":"grade4"}],"geometry":{"type":"LineString","coordinates":[["84.3586960","28.5177511"],["84.3586601","28.5178764"],["84.3584968","28.5183244"],["84.3583459","28.5186169"],["84.3581265","28.5187351"],["84.3580168","28.5189776"],["84.3577372","28.5195467"],["84.3575744","28.5201500"],["84.3572169","28.5204983"],["84.3571957","28.52051"],["84.3569289","28.5206573"],["84.3567194","28.5207739"],["84.3564772","28.5209088"],["84.3562295","28.5212446"],["84.3558429","28.5218807"],["84.3556809","28.5222646"],["84.3554756","28.5226160"],["84.3547990","28.5231535"],["84.3546161","28.5234714"],["84.3543434","28.5237488"],["84.3541558","28.5241808"],["84.3539226","28.5242827"]]}},{"type":"Feature","properties":[{"addr:street":"F36"},{"building":"yes"},{"landuse":"residential"},{"source":"Bing"}],"geometry":{"type":"LineString","coordinates":[["84.3564324","28.5211259"],["84.3564861","28.5210457"],["84.3566148","28.5211447"],["84.3565638","28.5211966"],["84.3564324","28.5211259"]]}},{"type":"Feature","properties":[{"building":"yes"},{"landuse":"residential"},{"name":"Unknown-multiple"},{"source":"Bing"}],"geometry":{"type":"LineString","coordinates":[["84.3472969","28.5286254"],["84.3473479","28.5286349"],["84.3473693","28.5285618"],["84.3473774","28.5283969"],["84.3473425","28.528246"],["84.3472942","28.5281518"],["84.347321","28.5281329"],["84.3472218","28.5280057"],["84.3471547","28.5280316"],["84.3472164","28.528173"],["84.3470582","28.5282484"],["84.3472486","28.52855"],["84.3472969","28.5286254"]]}},{"type":"Feature","properties":[{"building":"yes"},{"landuse":"residential"},{"name":"Unknown"},{"source":"Bing"}],"geometry":{"type":"LineString","coordinates":[["84.3465861","28.5286148"],["84.346688","28.5287044"],["84.3468007","28.5286667"],["84.3466237","28.5285441"],["84.3465861","28.5286148"]]}},{"type":"Feature","properties":[{"building":"yes"},{"landuse":"residential"},{"name":"Odar"},{"source":"Bing"}],"geometry":{"type":"LineString","coordinates":[["84.3471226","28.5290249"],["84.347034","28.5291568"],["84.3469536","28.5292511"],["84.3470394","28.5294113"],["84.3470743","28.5294915"],["84.3471387","28.529508"],["84.3471199","28.5295645"],["84.3471682","28.5295928"],["84.3471655","28.5296399"],["84.347203","28.5297577"],["84.3473049","28.5298143"],["84.3474069","28.5296635"],["84.3475249","28.5297365"],["84.3476644","28.5295904"],["84.3476966","28.5296234"],["84.3477421","28.5295975"],["84.3477234","28.5295409"],["84.347836","28.5294019"],["84.3477341","28.5293312"],["84.3475973","28.5295103"],["84.3475088","28.529442"],["84.3474954","28.5292464"],["84.3476802","28.5290886"],["84.3476054","28.5290249"],["84.3474498","28.5288741"],["84.3472889","28.5290013"],["84.3471574","28.528966"],["84.3471226","28.5290249"]]}},{"type":"Feature","properties":[{"highway":"path"},{"sac_scale":"mountain_hiking"}],"geometry":{"type":"LineString","coordinates":[["84.3519316","28.5270155"],["84.3510411","28.5275912"],["84.3507071","28.5278396"],["84.3500000","28.5285177"],["84.3498799","28.5286822"],["84.3497647","28.5286063"],["84.3498271","28.5285388"],["84.3492702","28.5285978"],["84.3491405","28.5286780"],["84.3490541","28.5288889"],["84.3490397","28.5287877"],["84.3489341","28.5289269"],["84.3489005","28.5288045"],["84.3488332","28.5289522"],["84.3487852","28.5288636"],["84.3486844","28.5289733"],["84.3486988","28.5287750"],["84.3485500","28.5288214"],["84.3485164","28.5290070"],["84.3480074","28.5291673"],["84.3476802","28.5290886"],["84.3476041","28.5290703"],["84.3474313","28.5292179"],["84.3472296","28.5290618"],["84.3471864","28.5286527"],["84.3472200","28.5285430"],["84.3471192","28.5283363"],["84.3472584","28.5280115"],["84.3471432","28.5278638"],["84.3474025","28.5275348"],["84.3474937","28.5275517"],["84.3477193","28.5273576"],["84.3476569","28.5271045"],["84.3477770","28.5266869"],["84.3479546","28.5265351"],["84.3480410","28.5264001"],["84.3479882","28.5263621"],["84.3480122","28.5262440"],["84.3489725","28.5253412"],["84.3492174","28.5249911"],["84.3494766","28.5248308"],["84.3498319","28.5246030"],["84.3500480","28.5243162"],["84.3503361","28.5239027"],["84.3505041","28.5234893"]]}},{"type":"Feature","properties":[{"building":"yes"},{"landuse":"residential"},{"name":"Unknown"},{"source":"Bing"}],"geometry":{"type":"LineString","coordinates":[["84.344891","28.528312"],["84.3449956","28.5282578"],["84.3450278","28.5283521"],["84.3449473","28.5284063"],["84.344891","28.528312"]]}},{"type":"Feature","properties":[{"building":"yes"},{"landuse":"residential"},{"name":"Unknown"},{"source":"Bing"}],"geometry":{"type":"LineString","coordinates":[["84.3449741","28.5284181"],["84.3450385","28.5283733"],["84.3450921","28.5284793"],["84.3450304","28.528517"],["84.3449741","28.5284181"]]}},{"type":"Feature","properties":[{"building":"yes"},{"landuse":"residential"},{"name":"Unknown"},{"source":"Bing"}],"geometry":{"type":"LineString","coordinates":[["84.3452209","28.5286325"],["84.3452343","28.52851"],["84.3453925","28.5285335"],["84.3455106","28.5286113"],["84.3454623","28.528748"],["84.3453764","28.5286914"],["84.345296","28.5286608"],["84.3452209","28.5286325"]]}},{"type":"Feature","properties":[{"building":"yes"},{"landuse":"residential"},{"name":"Unknown"},{"source":"Bing"}],"geometry":{"type":"LineString","coordinates":[["84.3450009","28.5285712"],["84.3450438","28.5285595"],["84.345068","28.5286184"],["84.3450358","28.5286419"],["84.3450009","28.5285712"]]}},{"type":"Feature","properties":[{"building":"yes"},{"landuse":"residential"},{"name":"Unknown"},{"source":"Bing"}],"geometry":{"type":"LineString","coordinates":[["84.3450921","28.5288598"],["84.3451659","28.5288398"],["84.3451444","28.5287432"],["84.345072","28.5287502"],["84.3450921","28.5288598"]]}},{"type":"Feature","properties":[{"building":"yes"},{"landuse":"residential"},{"name":"Unknown"},{"source":"Bing"}],"geometry":{"type":"LineString","coordinates":[["84.3493247","28.5251394"],["84.3493488","28.5250805"],["84.3494507","28.5251582"],["84.3494185","28.5252289"],["84.3493247","28.5251394"]]}},{"type":"Feature","properties":[{"building":"yes"},{"landuse":"residential"},{"name":"Unknown"},{"source":"BIng"}],"geometry":{"type":"LineString","coordinates":[["84.3490323","28.5253821"],["84.3491074","28.5253303"],["84.3491449","28.5253727"],["84.3490591","28.5254269"],["84.3490323","28.5253821"]]}},{"type":"Feature","properties":[{"building":"yes"},{"landuse":"residential"},{"name":"Unknown"},{"source":"Bing"}],"geometry":{"type":"LineString","coordinates":[["84.348115","28.526313"],["84.3481552","28.5263412"],["84.3481901","28.5262823"],["84.3481498","28.5262493"],["84.348115","28.526313"]]}},{"type":"Feature","properties":[{"addr:street":"F36"},{"building":"yes"},{"landuse":"residential"},{"name":"Unknown"},{"source":"Bing"}],"geometry":{"type":"LineString","coordinates":[["84.3577361","28.5052854"],["84.3578407","28.5053066"],["84.3578568","28.5052571"],["84.3577951","28.5052383"],["84.3578031","28.505177"],["84.3577522","28.5051723"],["84.3577361","28.5052854"]]}},{"type":"Feature","properties":[{"building":"yes"},{"landuse":"residential"},{"name":"Unknown"},{"source":"Bing"}],"geometry":{"type":"LineString","coordinates":[["84.358983","28.5058867"],["84.3589428","28.5059173"],["84.3590206","28.505981"],["84.3590984","28.5059244"],["84.3590608","28.5058914"],["84.3590259","28.5059173"],["84.358983","28.5058867"]]}},{"type":"Feature","properties":[{"building":"yes"},{"landuse":"residential"},{"name":"Hamlet-unknown"},{"source":"Bing"}],"geometry":{"type":"LineString","coordinates":[["84.3590823","28.505618"],["84.3592352","28.5057028"],["84.3592969","28.5056581"],["84.3592673","28.5056345"],["84.3593049","28.5055991"],["84.3592405","28.5055543"],["84.3593478","28.5053351"],["84.3594497","28.5053776"],["84.3594873","28.5052951"],["84.3594095","28.5052691"],["84.3593612","28.5052644"],["84.3592849","28.5051848"],["84.3592405","28.5052244"],["84.3592265","28.5052034"],["84.3591533","28.5052662"],["84.3590581","28.5052008"],["84.358975","28.5052361"],["84.3590474","28.5053116"],["84.3591145","28.5053587"],["84.3590313","28.5054247"],["84.3590742","28.5054624"],["84.3590045","28.5055166"],["84.359085","28.5055779"],["84.3590823","28.505618"]]}},{"type":"Feature","properties":[{"highway":"pedestrian"}],"geometry":{"type":"LineString","coordinates":[["84.3591243","28.5052267"],["84.3592265","28.5052034"],["84.3592611","28.5051955"],["84.3592849","28.5051848"],["84.3594867","28.5050941"],["84.3598960","28.5052923"],["84.3606200","28.5056981"],["84.3612959","28.5064423"],["84.3613553","28.5068477"],["84.3617116","28.5068758"],["84.3616659","28.5071005"],["84.3619445","28.5070162"],["84.3622231","28.5065908"],["84.3627347","28.5068196"],["84.3626571","28.5070724"],["84.3623784","28.5072330"],["84.3622460","28.5073975"],["84.3622505","28.5076424"],["84.3620130","28.5077708"],["84.3619217","28.5079755"],["84.3617664","28.5081963"],["84.3618395","28.5083649"],["84.3617801","28.5085134"],["84.3619811","28.5085575"],["84.3619856","28.5086579"],["84.3618166","28.5088184"],["84.3619125","28.5089027"],["84.3619400","28.5092760"],["84.3619902","28.5096934"],["84.3620633","28.5097697"],["84.3620633","28.5100627"],["84.3617070","28.5104319"],["84.3616065","28.5105363"],["84.3615883","28.5106366"],["84.3614741","28.5107169"],["84.3613279","28.5108654"],["84.3613096","28.5112989"],["84.3611224","28.5116400"],["84.3611132","28.5118367"],["84.3610721","28.5119812"],["84.3611132","28.5121578"],["84.3610676","28.5123905"],["84.3612046","28.5125029"],["84.3612366","28.5127598"]]}},{"type":"Feature","properties":[{"highway":"path"},{"layer":"1"},{"ref":"F36"},{"source":"survey"}],"geometry":{"type":"LineString","coordinates":[["84.3589643","28.5050091"],["84.3591243","28.5052267"],["84.3591533","28.5052662"],["84.3592608","28.5054123"]]}},{"type":"Feature","properties":[{"building":"yes"},{"landuse":"residential"},{"name":"Unknown"},{"source":"Bing"}],"geometry":{"type":"LineString","coordinates":[["84.3592995","28.5048967"],["84.3593532","28.5048449"],["84.3594819","28.5049627"],["84.3595356","28.5049392"],["84.3595758","28.5049698"],["84.3594792","28.5050664"],["84.359431","28.5050311"],["84.3594524","28.5050004"],["84.3592995","28.5048967"]]}},{"type":"Feature","properties":[{"building":"yes"},{"landuse":"residential"},{"name":"Unknown"},{"source":"Bing"}],"geometry":{"type":"LineString","coordinates":[["84.3594632","28.5037877"],["84.3594927","28.5038325"],["84.3595758","28.5038019"],["84.3596089","28.5038322"],["84.3596455","28.5037972"],["84.3596134","28.5037642"],["84.3595785","28.5037477"],["84.3594632","28.5037877"]]}},{"type":"Feature","properties":[{"addr:street":"F36"},{"building":"yes"},{"landuse":"residential"},{"name":"Unknown"},{"source":"BIng"}],"geometry":{"type":"LineString","coordinates":[["84.3610725","28.5021448"],["84.3611959","28.502126"],["84.3611959","28.5020647"],["84.3610725","28.5020788"],["84.3610725","28.5021448"]]}},{"type":"Feature","properties":[{"highway":"track"},{"ref":"F36"},{"source":"survey"},{"tracktype":"grade4"}],"geometry":{"type":"LineString","coordinates":[["84.3588584","28.5169992"],["84.3586564","28.5161402"],["84.3586154","28.5158259"],["84.3585216","28.5149142"],["84.3581992","28.5143270"],["84.3578133","28.5139775"],["84.3579119","28.5133226"],["84.3581113","28.5129053"],["84.3580175","28.5122511"],["84.3577302","28.5115712"],["84.3577009","28.5109530"],["84.3578064","28.5101237"],["84.3580644","28.5094334"],["84.3579764","28.5087947"],["84.3579119","28.5080992"],["84.3579061","28.5075841"],["84.3580819","28.5072287"],["84.3579764","28.5067084"],["84.3577009","28.5061314"],["84.3578650","28.5059769"],["84.3578181","28.5056729"],["84.3579295","28.5052299"],["84.3581322","28.5047553"],["84.3582161","28.5042462"],["84.3589231","28.5040360"],["84.3592825","28.5039323"],["84.3596089","28.5038322"],["84.3597438","28.5037909"],["84.3602463","28.5034200"],["84.3607251","28.5028935"],["84.3611872","28.5023977"],["84.3612112","28.5022289"],["84.3608691","28.5021128"],["84.3606350","28.5018649"],["84.3604790","28.5016329"],["84.3604550","28.5013797"],["84.3603248","28.5010052"],["84.3603078","28.5006652"],["84.3603229","28.5003986"],["84.3604070","28.5000716"],["84.3608391","28.4996813"],["84.3611313","28.4993583"],["84.3614813","28.4990114"],["84.3615953","28.4988373"],["84.3613132","28.4984523"],["84.3612592","28.4981622"],["84.3611895","28.4977749"],["84.3611769","28.4977051"]]}},{"type":"Feature","properties":[{"building":"yes"},{"landuse":"residential"},{"name":"Unknown"},{"source":"Bing"}],"geometry":{"type":"LineString","coordinates":[["84.3607104","28.5014283"],["84.3607372","28.5015178"],["84.3608177","28.5015037"],["84.3607935","28.5014047"],["84.3607104","28.5014283"]]}},{"type":"Feature","properties":[{"addr:street":"F36"},{"building":"yes"},{"landuse":"residential"},{"name":"Unknown"},{"source":"Bing"}],"geometry":{"type":"LineString","coordinates":[["84.3604931","28.501367"],["84.3605655","28.5013575"],["84.3605387","28.5012585"],["84.360477","28.501268"],["84.3604931","28.501367"]]}},{"type":"Feature","properties":[{"highway":"footway"},{"source":"Bing"}],"geometry":{"type":"LineString","coordinates":[["84.3608451","28.5020874"],["84.3608284","28.501994"],["84.3608606","28.501829"],["84.3608552","28.5016946"],["84.3608391","28.5015273"],["84.3607935","28.5014047"],["84.360756","28.501367"],["84.3607426","28.5012633"],["84.3606943","28.5011313"],["84.3606567","28.5009615"],["84.3606004","28.5008908"],["84.3606031","28.5007918"],["84.3605709","28.500681"],["84.3605494","28.5005703"]]}},{"type":"Feature","properties":[{"highway":"track"},{"ref":"F36"},{"source":"survey"},{"tracktype":"grade4"}],"geometry":{"type":"LineString","coordinates":[["84.3588584","28.5169992"],["84.3586564","28.5161402"],["84.3586154","28.5158259"],["84.3585216","28.5149142"],["84.3581992","28.5143270"],["84.3578133","28.5139775"],["84.3579119","28.5133226"],["84.3581113","28.5129053"],["84.3580175","28.5122511"],["84.3577302","28.5115712"],["84.3577009","28.5109530"],["84.3578064","28.5101237"],["84.3580644","28.5094334"],["84.3579764","28.5087947"],["84.3579119","28.5080992"],["84.3579061","28.5075841"],["84.3580819","28.5072287"],["84.3579764","28.5067084"],["84.3577009","28.5061314"],["84.3578650","28.5059769"],["84.3578181","28.5056729"],["84.3579295","28.5052299"],["84.3581322","28.5047553"],["84.3582161","28.5042462"],["84.3589231","28.5040360"],["84.3592825","28.5039323"],["84.3596089","28.5038322"],["84.3597438","28.5037909"],["84.3602463","28.5034200"],["84.3607251","28.5028935"],["84.3611872","28.5023977"],["84.3612112","28.5022289"],["84.3608691","28.5021128"],["84.3608451","28.5020874"],["84.3606350","28.5018649"],["84.3604790","28.5016329"],["84.3604550","28.5013797"],["84.3603248","28.5010052"],["84.3603078","28.5006652"],["84.3603229","28.5003986"],["84.3604070","28.5000716"],["84.3608391","28.4996813"],["84.3611313","28.4993583"],["84.3614813","28.4990114"],["84.3615953","28.4988373"],["84.3613132","28.4984523"],["84.3612592","28.4981622"],["84.3611895","28.4977749"],["84.3611769","28.4977051"]]}},{"type":"Feature","properties":[{"building":"yes"},{"landuse":"residential"},{"name":"Unknown"},{"source":"Bing"}],"geometry":{"type":"LineString","coordinates":[["84.3606284","28.5012298"],["84.3606831","28.5012218"],["84.3606497","28.5011204"],["84.360595","28.5011257"],["84.3606284","28.5012298"]]}},{"type":"Feature","properties":[{"building":"yes"},{"landuse":"residential"},{"source":"Bing"}],"geometry":{"type":"LineString","coordinates":[["84.3605343","28.5010936"],["84.360595","28.5011257"],["84.3606315","28.5010643"],["84.3605616","28.5010322"],["84.3605343","28.5010936"]]}},{"type":"Feature","properties":[{"building":"yes"},{"landuse":"residential"},{"name":"Unknown"},{"source":"Bing"}],"geometry":{"type":"LineString","coordinates":[["84.3566321","28.4987006"],["84.3566723","28.4987666"],["84.3567555","28.4987289"],["84.3568547","28.4986581"],["84.3568198","28.4986039"],["84.3566321","28.4987006"]]}},{"type":"Feature","properties":[{"building":"yes"},{"source":"Bing"}],"geometry":null},{"type":"Feature","properties":[{"building":"yes"},{"landuse":"residential"},{"name":"Unknown"},{"source":"Bing"}],"geometry":{"type":"LineString","coordinates":[["84.3576889","28.498644"],["84.3577291","28.4986935"],["84.3577908","28.4986605"],["84.3578042","28.4986864"],["84.3578337","28.4986652"],["84.3578149","28.4986393"],["84.3577908","28.4986605"],["84.3577479","28.4986086"],["84.3576889","28.498644"]]}},{"type":"Feature","properties":[{"building":"yes"},{"landuse":"residential"},{"name":"unknown"},{"source":"Bing"}],"geometry":{"type":"LineString","coordinates":[["84.3520455","28.5291801"],["84.352067","28.5291306"],["84.3520053","28.5290834"],["84.3520214","28.5290198"],["84.3519892","28.5290057"],["84.3519543","28.5290599"],["84.3519865","28.5290976"],["84.3519758","28.5291212"],["84.3520455","28.5291801"]]}},{"type":"Feature","properties":[{"building":"yes"},{"landuse":"residential"},{"name":"unknown"},{"source":"Bing"}],"geometry":{"type":"LineString","coordinates":[["84.3525042","28.5287253"],["84.3525823","28.5287594"],["84.3525993","28.5287378"],["84.3526275","28.5286569"],["84.3525444","28.5286381"],["84.3525042","28.5287253"]]}},{"type":"Feature","properties":[{"highway":"path"},{"sac_scale":"mountain_hiking"},{"source":"survey"}],"geometry":{"type":"LineString","coordinates":[["84.3550293","28.5264358"],["84.3544262","28.5268089"],["84.3538744","28.5273790"],["84.3533933","28.5278289"],["84.3529165","28.5281430"],["84.3526649","28.5283137"],["84.3526738","28.5286433"],["84.3525993","28.5287378"],["84.3525823","28.5287594"],["84.3523957","28.5289963"],["84.3519366","28.5293259"],["84.3514819","28.5297331"],["84.3513627","28.5303110"],["84.3512833","28.5307880"],["84.3513098","28.5310129"],["84.3511067","28.5314279"],["84.3508242","28.5316373"],["84.3505755","28.5317561"],["84.3503524","28.5318249"],["84.3501118","28.5317837"]]}},{"type":"Feature","properties":[{"building":"yes"},{"landuse":"residential"},{"name":"unknown"},{"source":"Bing"}],"geometry":{"type":"LineString","coordinates":[["84.3533236","28.5278392"],["84.3533705","28.5278745"],["84.3534027","28.5278463"],["84.3533584","28.5278086"],["84.3533236","28.5278392"]]}},{"type":"Feature","properties":[{"building":"yes"},{"landuse":"residential"},{"name":"Thoche"},{"source":"Bing"}],"geometry":{"type":"LineString","coordinates":[["84.3532967","28.52724"],["84.3533504","28.5272966"],["84.3534845","28.5272495"],["84.3535972","28.5271128"],["84.3536669","28.5269714"],["84.3537366","28.526863"],["84.3539405","28.5267499"],["84.3540853","28.5268583"],["84.3542409","28.5267122"],["84.3544072","28.5267734"],["84.3545556","28.5267288"],["84.3546039","28.526699"],["84.3547827","28.5265142"],["84.354729","28.5264577"],["84.3547666","28.5264247"],["84.3547022","28.5263681"],["84.3546432","28.5262974"],["84.3547934","28.526189"],["84.3547934","28.5260618"],["84.3548578","28.5260146"],["84.3550563","28.5260995"],["84.3551421","28.5259911"],["84.3550831","28.5259251"],["84.3551206","28.5257083"],["84.355008","28.5256658"],["84.3549275","28.5258638"],["84.3547773","28.5258874"],["84.3545306","28.5260665"],["84.3544555","28.5260382"],["84.3540907","28.5262833"],["84.3538278","28.5264435"],["84.3536615","28.5265095"],["84.3535435","28.5265708"],["84.3533933","28.5267357"],["84.3534523","28.5268253"],["84.3535167","28.5269196"],["84.3532967","28.52724"]]}},{"type":"Feature","properties":[{"highway":"path"},{"sac_scale":"mountain_hiking"},{"source":"survey"}],"geometry":{"type":"LineString","coordinates":[["84.3550293","28.5264358"],["84.3546039","28.526699"],["84.3545556","28.5267288"],["84.3544262","28.5268089"],["84.3538744","28.5273790"],["84.3533933","28.5278289"],["84.3529165","28.5281430"],["84.3526649","28.5283137"],["84.3526738","28.5286433"],["84.3525993","28.5287378"],["84.3525823","28.5287594"],["84.3523957","28.5289963"],["84.3519366","28.5293259"],["84.3514819","28.5297331"],["84.3513627","28.5303110"],["84.3512833","28.5307880"],["84.3513098","28.5310129"],["84.3511067","28.5314279"],["84.3508242","28.5316373"],["84.3505755","28.5317561"],["84.3503524","28.5318249"],["84.3501118","28.5317837"]]}},{"type":"Feature","properties":[{"amenity":"place_of_worship"},{"building":"yes"},{"landuse":"residential"},{"source":"Bing"}],"geometry":{"type":"LineString","coordinates":[["84.355405","28.525138"],["84.3556142","28.5252605"],["84.355523","28.525416"],["84.3559736","28.5257036"],["84.3562096","28.5254915"],["84.3561292","28.5254066"],["84.3560916","28.5253831"],["84.3561506","28.5253029"],["84.3562096","28.5253171"],["84.3562257","28.5252134"],["84.356392","28.5244545"],["84.3562579","28.5244734"],["84.3561453","28.5246855"],["84.3560004","28.5249683"],["84.3559092","28.5249353"],["84.3558127","28.5250296"],["84.3555766","28.5248457"],["84.355405","28.525138"]]}},{"type":"Feature","properties":[{"building":"yes"},{"landuse":"residential"},{"name":"Thoche-adjacent"},{"source":"Bing"}],"geometry":{"type":"LineString","coordinates":[["84.3553728","28.5259911"],["84.3555015","28.5260523"],["84.3554693","28.5260947"],["84.3555874","28.5261277"],["84.3556464","28.5261136"],["84.3557107","28.5261466"],["84.3558073","28.526057"],["84.355877","28.5259675"],["84.3559414","28.5259156"],["84.3559843","28.5259439"],["84.3561184","28.5258214"],["84.3560487","28.5257743"],["84.3559468","28.5258308"],["84.3556517","28.5256564"],["84.3555552","28.5257743"],["84.3554264","28.5257743"],["84.355405","28.5258921"],["84.3553728","28.5259911"]]}},{"type":"Feature","properties":[{"building":"yes"},{"landuse":"residential"},{"name":"Unknown"},{"source":"Bing"}],"geometry":{"type":"LineString","coordinates":[["84.3613407","28.5278537"],["84.3613541","28.5279173"],["84.3614238","28.5279055"],["84.3614238","28.5278796"],["84.3614453","28.5278985"],["84.3615579","28.5278419"],["84.3616464","28.5278207"],["84.3617564","28.5278278"],["84.3617832","28.5277571"],["84.3616947","28.5277571"],["84.3615365","28.527816"],["84.361507","28.5277618"],["84.3615794","28.5276628"],["84.361515","28.5276251"],["84.3614319","28.5277241"],["84.361456","28.5277547"],["84.3613889","28.5278231"],["84.3613407","28.5278537"]]}},{"type":"Feature","properties":[{"building":"yes"},{"landuse":"residential"},{"name":"unknown"},{"source":"Bing"}],"geometry":{"type":"LineString","coordinates":[["84.375669","28.5408434"],["84.3757441","28.5407868"],["84.3758407","28.5408387"],["84.3757602","28.5409141"],["84.375669","28.5408434"]]}},{"type":"Feature","properties":[{"building":"yes"},{"landuse":"residential"},{"name":"unknown"},{"source":"Bing"}],"geometry":{"type":"LineString","coordinates":[["84.3792846","28.5430865"],["84.3793919","28.5429357"],["84.3794724","28.5428179"],["84.3795314","28.5427566"],["84.3794188","28.5426812"],["84.3793597","28.5427519"],["84.3793115","28.5428038"],["84.3790701","28.5426435"],["84.378952","28.5427472"],["84.3789426","28.5428684"],["84.379106","28.5430254"],["84.3792846","28.5430865"]]}},{"type":"Feature","properties":[{"highway":"path"},{"name":"Manaslu Circuit"},{"sac_scale":"mountain_hiking"},{"surface":"ground"}],"geometry":{"type":"LineString","coordinates":[["84.3808210","28.5440328"],["84.3808336","28.5439350"],["84.3791548","28.5430761"],["84.379106","28.5430254"],["84.3790275","28.5429437"],["84.3789426","28.5428684"],["84.3788231","28.5427623"],["84.3777794","28.5423756"],["84.3770316","28.5414895"],["84.3765447","28.5411076"],["84.3754490","28.5398090"],["84.3756925","28.5395951"],["84.3753273","28.5393354"],["84.3748055","28.5392437"],["84.3740577","28.5389687"],["84.3725099","28.5376395"],["84.3720403","28.5375478"],["84.3707882","28.5369825"],["84.3702664","28.5363103"],["84.3697099","28.5357908"],["84.3688756","28.5351210"],["84.3682067","28.5343466"],["84.3664628","28.5329509"],["84.3655009","28.5322186"],["84.3643967","28.5310608"],["84.3638481","28.5303411"],["84.3636059","28.5301471"],["84.3635774","28.5299155"],["84.3632141","28.5297090"],["84.3627012","28.5294211"],["84.3625589","28.5292896"],["84.3623593","28.5288328"],["84.3621527","28.5284135"],["84.3616398","28.5282695"],["84.3612338","28.5284135"],["84.3608634","28.5282508"],["84.3604858","28.5283196"],["84.3594814","28.5276437"],["84.3588436","28.5272306"]]}},{"type":"Feature","properties":[{"building":"yes"},{"landuse":"residential"},{"name":"Unknown"},{"source":"Bing"}],"geometry":{"type":"LineString","coordinates":[["84.1416612","28.0420242"],["84.1417149","28.0420432"],["84.1417497","28.0419816"],["84.1416907","28.041965"],["84.1416612","28.0420242"]]}},{"type":"Feature","properties":[{"building":"yes"},{"landuse":"residential"},{"name":"Unknown"},{"source":"Bing"}],"geometry":{"type":"LineString","coordinates":[["84.1417014","28.0419461"],["84.1417551","28.0419603"],["84.1417846","28.0418893"],["84.1417283","28.0418703"],["84.1417014","28.0419461"]]}},{"type":"Feature","properties":[{"building":"yes"},{"landuse":"residential"},{"source":"Bing"}],"geometry":{"type":"LineString","coordinates":[["84.1418463","28.0416312"],["84.1419455","28.0416383"],["84.1419509","28.0415365"],["84.141857","28.0415247"],["84.1418463","28.0416312"]]}},{"type":"Feature","properties":[{"building":"yes"},{"landuse":"residential"},{"name":"Unknown-multiple"},{"source":"Bing"}],"geometry":{"type":"LineString","coordinates":[["84.1401944","28.0415418"],["84.1400841","28.0415626"],["84.1400626","28.0414845"],["84.140017","28.0414916"],["84.1400143","28.0414182"],["84.1399875","28.0413732"],["84.1400036","28.0413211"],["84.13984","28.0413211"],["84.1398132","28.041269"],["84.1399339","28.0412454"],["84.1399902","28.0412122"],["84.1400707","28.0411956"],["84.1400868","28.041288"],["84.140186","28.0412596"],["84.140186","28.0411909"],["84.1402879","28.0411625"],["84.1402879","28.0412075"],["84.1402128","28.0412288"],["84.140186","28.0412596"],["84.1402048","28.0413235"],["84.1401163","28.0413495"],["84.1401431","28.0414632"],["84.1401949","28.0415267"],["84.1401944","28.0415418"]]}},{"type":"Feature","properties":[{"highway":"road"}],"geometry":{"type":"LineString","coordinates":[["84.1401896","28.0416806"],["84.1401944","28.0415418"],["84.1401949","28.0415267"],["84.1401623","28.0414150"],["84.1401520","28.0413800"]]}},{"type":"Feature","properties":[{"building":"yes"},{"landuse":"residential"},{"name":"Unknown"},{"source":"Bing"}],"geometry":{"type":"LineString","coordinates":[["84.1409102","28.039735"],["84.1409424","28.03978"],["84.140996","28.0397468"],["84.1410041","28.0397776"],["84.1411301","28.0397468"],["84.1411087","28.039664"],["84.1409907","28.0397231"],["84.1409102","28.039735"]]}},{"type":"Feature","properties":[{"building":"yes"},{"landuse":"residential"},{"name":"unknown"},{"source":"Bing"}],"geometry":{"type":"LineString","coordinates":[["84.1413259","28.0391455"],["84.1413501","28.0391739"],["84.141503","28.0390129"],["84.1414681","28.0389822"],["84.1414118","28.0390437"],["84.1413957","28.0390674"],["84.1413259","28.0391455"]]}},{"type":"Feature","properties":[{"building":"yes"},{"landuse":"residential"},{"source":"Bing"}],"geometry":{"type":"LineString","coordinates":[["84.1414279","28.0393799"],["84.1414896","28.0393799"],["84.1414896","28.0392757"],["84.1414252","28.0392828"],["84.1414279","28.0393799"]]}},{"type":"Feature","properties":[{"building":"yes"},{"landuse":"residential"},{"name":"Unknown-temple?"},{"source":"Bing"}],"geometry":{"type":"LineString","coordinates":[["84.1437316","28.0376683"],["84.1437316","28.037605"],["84.143816","28.0376199"],["84.1437907","28.0376757"],["84.1437316","28.0376683"]]}},{"type":"Feature","properties":[{"foot":"yes"},{"highway":"path"}],"geometry":{"type":"LineString","coordinates":[["84.1419393","28.0381532"],["84.1420483","28.0380891"],["84.1421074","28.0380481"],["84.1422888","28.0380407"],["84.1424154","28.0380444"],["84.1425757","28.0380481"],["84.1426263","28.0380444"],["84.1426769","28.0380109"],["84.1427149","28.0379811"],["84.1427908","28.0379587"],["84.1428246","28.0379103"],["84.1429427","28.0378992"],["84.1429787","28.0378801"],["84.1430271","28.0378545"],["84.1431579","28.0378359"],["84.1432676","28.0378284"],["84.1433224","28.0378172"],["84.1433772","28.0377763"],["84.1434447","28.0377577"],["84.1434954","28.0377353"],["84.1435924","28.0377428"],["84.1436262","28.0377055"],["84.1436937","28.0376757"],["84.1437316","28.0376683"]]}},{"type":"Feature","properties":[{"building":"yes"},{"landuse":"residential"},{"name":"Unknown"},{"source":"Bing"}],"geometry":{"type":"LineString","coordinates":[["84.1384155","28.0404724"],["84.1383565","28.0404014"],["84.1381848","28.0404961"],["84.1380668","28.0405529"],["84.1379005","28.0406381"],["84.1379595","28.0406902"],["84.1380936","28.0406097"],["84.1381741","28.0405577"],["84.1382492","28.0405103"],["84.1383297","28.0405008"],["84.1384155","28.0404724"]]}},{"type":"Feature","properties":[{"building":"yes"},{"landuse":"residential"},{"name":"Unknown"},{"source":"Bing"}],"geometry":{"type":"LineString","coordinates":[["84.1378951","28.040747"],["84.1378415","28.0407494"],["84.1378147","28.0407991"],["84.13782","28.0408512"],["84.137863","28.0408583"],["84.1378925","28.0408157"],["84.1378951","28.040747"]]}},{"type":"Feature","properties":[{"building":"yes"},{"landuse":"residential"},{"name":"Unknown"},{"source":"Bing"}],"geometry":{"type":"LineString","coordinates":[["84.1381392","28.040373"],["84.1381124","28.0403138"],["84.1379595","28.040373"],["84.1378683","28.0404085"],["84.1378442","28.0403896"],["84.1377691","28.0404346"],["84.1378174","28.0405079"],["84.1379086","28.0404724"],["84.1378951","28.0404559"],["84.1380158","28.0404085"],["84.1381392","28.040373"]]}},{"type":"Feature","properties":[{"building":"yes"},{"landuse":"residential"},{"name":"Unknown"},{"source":"Bing"}],"geometry":{"type":"LineString","coordinates":[["84.1376779","28.0405056"],["84.1376403","28.0404606"],["84.1375304","28.0405434"],["84.137576","28.0405861"],["84.1376779","28.0405056"]]}},{"type":"Feature","properties":[{"building":"yes"},{"landuse":"residential"},{"name":"Unknown-multiple"},{"source":"Bing"}],"geometry":{"type":"LineString","coordinates":[["84.1378764","28.0402428"],["84.1378576","28.0401907"],["84.1376886","28.0402452"],["84.137576","28.0402807"],["84.1374821","28.0403304"],["84.137517","28.0403801"],["84.1376055","28.040347"],["84.1378764","28.0402428"]]}},{"type":"Feature","properties":[{"building":"yes"},{"landuse":"residential"},{"source":"Bing"}],"geometry":{"type":"LineString","coordinates":[["84.1372273","28.0408394"],["84.1372595","28.0408512"],["84.1373024","28.0407991"],["84.1373614","28.0407044"],["84.137289","28.0406689"],["84.1372568","28.0407612"],["84.1372273","28.0408394"]]}},{"type":"Feature","properties":[{"building":"yes"},{"landuse":"residential"},{"source":"BIng"}],"geometry":{"type":"LineString","coordinates":[["84.1373831","28.0404886"],["84.1374371","28.0405029"],["84.1374858","28.0404361"],["84.1374128","28.0404123"],["84.1373831","28.0404886"]]}},{"type":"Feature","properties":[{"building":"yes"},{"landuse":"residential"},{"source":"Bing"}],"geometry":{"type":"LineString","coordinates":[["84.1373828","28.0402641"],["84.137474","28.040231"],["84.1374445","28.0401789"],["84.137348","28.0402215"],["84.1373828","28.0402641"]]}},{"type":"Feature","properties":[{"building":"yes"},{"landuse":"residential"},{"source":"Bing"}],"geometry":{"type":"LineString","coordinates":[["84.1372858","28.0411515"],["84.1372237","28.0411276"],["84.1372048","28.0412039"],["84.1372669","28.0412254"],["84.1372858","28.0411515"]]}},{"type":"Feature","properties":[{"building":"yes"},{"landuse":"residential"},{"source":"Bing"}],"geometry":{"type":"LineString","coordinates":[["84.1376965","28.0415974"],["84.1377694","28.0415974"],["84.1377694","28.0415163"],["84.1377776","28.0414567"],["84.1377478","28.0414686"],["84.1377451","28.0415068"],["84.13771","28.0415116"],["84.1376965","28.0415974"]]}},{"type":"Feature","properties":[{"building":"yes"},{"landuse":"residential"},{"source":"Bing"}],"geometry":{"type":"LineString","coordinates":[["84.1380883","28.0415402"],["84.1381369","28.0415521"],["84.1381666","28.0415044"],["84.138118","28.0414782"],["84.1380883","28.0415402"]]}},{"type":"Feature","properties":[{"building":"yes"},{"landuse":"residential"},{"source":"Bing"}],"geometry":{"type":"LineString","coordinates":[["84.1385881","28.0412183"],["84.1386367","28.0412349"],["84.1386664","28.0411729"],["84.1386151","28.0411539"],["84.1385881","28.0412183"]]}},{"type":"Feature","properties":[{"building":"yes"},{"landuse":"residential"},{"source":"Bing"}],"geometry":{"type":"LineString","coordinates":[["84.1386989","28.041099"],["84.1387502","28.0411253"],["84.1388069","28.0410323"],["84.1387475","28.041006"],["84.1386989","28.041099"]]}},{"type":"Feature","properties":[{"building":"yes"},{"landuse":"residential"},{"source":"Bing"}],"geometry":{"type":"LineString","coordinates":[["84.1397028","28.0522429"],["84.1397993","28.0522145"],["84.1397564","28.0521482"],["84.1396813","28.0521766"],["84.1397028","28.0522429"]]}},{"type":"Feature","properties":[{"highway":"path"}],"geometry":{"type":"LineString","coordinates":[["84.1421672","28.0441989"],["84.1419678","28.0441010"],["84.1417554","28.0440260"],["84.1415006","28.0440292"],["84.1413024","28.0439698"],["84.1411467","28.0439792"],["84.1409804","28.0440135"],["84.1408140","28.0440354"],["84.1407751","28.0440604"],["84.1407928","28.0441354"],["84.1407715","28.0441947"],["84.1406795","28.0443259"],["84.1406229","28.0444071"],["84.1406371","28.0444758"],["84.1406087","28.0445570"],["84.1404955","28.0447351"],["84.1405223","28.0448589"],["84.1405083","28.0449702"],["84.1404803","28.0450773"],["84.1405036","28.0451433"]]}},{"type":"Feature","properties":[{"building":"yes"},{"landuse":"residential"},{"source":"Bing"}],"geometry":{"type":"LineString","coordinates":[["84.1407757","28.0523849"],["84.1408937","28.0524086"],["84.1408669","28.0524654"],["84.14084","28.0525743"],["84.1407435","28.0525411"],["84.1407488","28.0524843"],["84.1407757","28.0523849"]]}},{"type":"Feature","properties":[{"building":"yes"},{"landuse":"residential"},{"source":"Bing"}],"geometry":{"type":"LineString","coordinates":[["84.1387264","28.0533909"],["84.138772","28.0533507"],["84.1388471","28.0534288"],["84.1388096","28.0534643"],["84.1387264","28.0533909"]]}},{"type":"Feature","properties":[{"building":"yes"},{"landuse":"residential"},{"source":"Bing"}],"geometry":{"type":"LineString","coordinates":[["84.1387345","28.0531424"],["84.1387399","28.0530785"],["84.1388847","28.0530643"],["84.1388847","28.0531187"],["84.1389383","28.0531518"],["84.1389169","28.0531755"],["84.1388686","28.05314"],["84.1387345","28.0531424"]]}},{"type":"Feature","properties":[{"building":"yes"},{"landuse":"residential"},{"source":"Bing"}],"geometry":{"type":"LineString","coordinates":[["84.137506","28.0535471"],["84.1376267","28.05354"],["84.1376267","28.053469"],["84.1375087","28.0534714"],["84.137506","28.0535471"]]}},{"type":"Feature","properties":[{"building":"yes"},{"landuse":"residential"},{"source":"BIng"}],"geometry":{"type":"LineString","coordinates":[["84.1638319","28.0677131"],["84.1638641","28.0677486"]]}},{"type":"Feature","properties":[{"building":"yes"},{"landuse":"residential"},{"source":"Bing"}],"geometry":{"type":"LineString","coordinates":[["84.163738","28.0678267"],["84.1637836","28.0678575"],["84.1638373","28.0678031"],["84.1637917","28.0677628"],["84.163738","28.0678267"]]}},{"type":"Feature","properties":[{"building":"yes"},{"landuse":"residential"},{"source":"BIng"}],"geometry":{"type":"LineString","coordinates":[["84.1633867","28.0676327"],["84.1634135","28.0675877"],["84.1632821","28.0675238"],["84.1632633","28.0675782"],["84.1633867","28.0676327"]]}},{"type":"Feature","properties":[{"building":"yes"},{"landuse":"residential"},{"source":"Bing"}],"geometry":{"type":"LineString","coordinates":[["84.1630729","28.0675546"],["84.1630863","28.0674859"],["84.1632016","28.0674978"],["84.1631828","28.0675664"],["84.1630729","28.0675546"]]}},{"type":"Feature","properties":[{"building":"yes"},{"landuse":"residential"},{"souce":"Bing"}],"geometry":{"type":"LineString","coordinates":[["84.1637649","28.0673344"],["84.1637005","28.0672729"],["84.163789","28.067183"],["84.1638373","28.0671735"],["84.16384","28.0671948"],["84.1637649","28.0672563"],["84.1638051","28.0672942"],["84.1637649","28.0673344"]]}},{"type":"Feature","properties":[{"building":"yes"},{"landuse":"residential"},{"source":"Bing"}],"geometry":{"type":"LineString","coordinates":[["84.1634413","28.0671254"],["84.1634937","28.0671347"],["84.163478","28.067174"],["84.1635225","28.0671901"],["84.1635461","28.0671046"],["84.1635566","28.0670353"],["84.1635252","28.0670214"],["84.1635121","28.0670653"],["84.1634597","28.0670468"],["84.1634413","28.0671254"]]}},{"type":"Feature","properties":[{"highway":"path"}],"geometry":{"type":"LineString","coordinates":[["84.1610653","28.0667278"],["84.161136","28.0667163"],["84.161246","28.0667093"],["84.1613534","28.0667579"],["84.1614635","28.0667972"],["84.1615447","28.0668365"],["84.1615787","28.0668711"],["84.1616128","28.0668688"],["84.1616416","28.0669151"],["84.1616128","28.0669174"],["84.1615971","28.0669359"],["84.1616338","28.0669474"],["84.1616809","28.0669821"],["84.1617647","28.0670283"],["84.1618066","28.0670329"],["84.1618564","28.0670468"],["84.1619036","28.0670977"],["84.1619691","28.0671531"],["84.1620241","28.0671832"],["84.1620005","28.0671948"],["84.1620188","28.0672156"],["84.1620581","28.0672317"],["84.1621105","28.0672525"],["84.162121","28.0672734"],["84.1620791","28.067308"],["84.162066","28.0673311"],["84.1620712","28.0673496"],["84.1620896","28.0673704"],["84.1620896","28.0673936"],["84.162087","28.0674305"],["84.1621236","28.0674537"],["84.1621708","28.0674352"],["84.1622258","28.0674213"],["84.1622468","28.0674421"],["84.1622363","28.0674721"]]}},{"type":"Feature","properties":[{"highway":"path"}],"geometry":{"type":"LineString","coordinates":[["84.1622468","28.0674883"],["84.1622913","28.0674814"],["84.1623542","28.067493"],["84.1624223","28.067493"],["84.1624563","28.0675207"],["84.1625009","28.0675299"],["84.162603","28.0675392"],["84.1626711","28.0675207"],["84.1626921","28.0675415"],["84.1627","28.0675692"],["84.162755","28.0675369"],["84.1627969","28.067523"],["84.1628991","28.0674999"],["84.1629645","28.0674953"],["84.1629855","28.0675091"],["84.1630065","28.0675531"],["84.1630772","28.0675785"],["84.163182","28.0675808"],["84.1632633","28.0675782"]]}},{"type":"Feature","properties":[{"building":"yes"},{"landuse":"residential"},{"source":"Bing"}],"geometry":{"type":"LineString","coordinates":[["84.1667759","28.0596438"],["84.1668081","28.0596912"],["84.1668671","28.0596628"],["84.1668402","28.0596202"],["84.1667759","28.0596438"]]}},{"type":"Feature","properties":[{"building":"yes"},{"landuse":"residential"},{"source":"BIng"}],"geometry":{"type":"LineString","coordinates":[["84.173578","28.0657646"],["84.173519","28.065748"],["84.1735055","28.0657906"],["84.1734465","28.0657717"],["84.1734412","28.0658521"],["84.1734921","28.065845"],["84.1735538","28.0658687"],["84.173578","28.0657646"]]}},{"type":"Feature","properties":[{"building":"yes"},{"landuse":"residential"},{"source":"Bing"}],"geometry":{"type":"LineString","coordinates":[["84.1738381","28.0660083"],["84.1738757","28.0660036"],["84.1738864","28.0658995"],["84.1738408","28.0659018"],["84.1738113","28.0658876"],["84.1738033","28.0659468"],["84.1738381","28.0659444"],["84.1738381","28.0660083"]]}},{"type":"Feature","properties":[{"building":"yes"},{"landuse":"residential"},{"source":"Bing"}],"geometry":{"type":"LineString","coordinates":[["84.1752584","28.0657066"],["84.1753013","28.0657054"],["84.1752973","28.065632"],["84.1752557","28.0656344"],["84.1752584","28.0657066"]]}},{"type":"Feature","properties":[{"building":"yes"},{"landuse":"residential"},{"source":"Bing"}],"geometry":{"type":"LineString","coordinates":[["84.1964049","28.0643078"],["84.1964264","28.0643741"],["84.1964961","28.0643599"],["84.19648","28.0642936"],["84.1964049","28.0643078"]]}},{"type":"Feature","properties":[{"building":"yes"},{"landuse":"residential"},{"name":"Unknown-multiple"},{"source":"Bing"}],"geometry":{"type":"LineString","coordinates":[["84.1973061","28.0627457"],["84.1973329","28.062696"],["84.1973678","28.0627149"],["84.197518","28.062696"],["84.1975314","28.0626226"],["84.1975824","28.0626226"],["84.1975743","28.0626463"],["84.1976548","28.0626463"],["84.1976494","28.0627149"],["84.1977755","28.0627433"],["84.1978613","28.0627859"],["84.1979499","28.0628593"],["84.1979794","28.0628995"],["84.1979633","28.0629184"],["84.1979203","28.0628782"],["84.1978667","28.0628332"],["84.1978479","28.0628474"],["84.1977675","28.0628048"],["84.1976843","28.062793"],["84.1975314","28.0627622"],["84.1975395","28.0627433"],["84.197451","28.0627433"],["84.1973705","28.0627622"],["84.1973061","28.0627457"]]}},{"type":"Feature","properties":[{"building":"yes"},{"landuse":"residential"},{"name":"Unknown-multiple"},{"source":"Bing"}],"geometry":{"type":"LineString","coordinates":[["84.1969226","28.0625563"],["84.1969387","28.0624924"],["84.1971023","28.0625279"],["84.1971962","28.0624664"],["84.1974429","28.0623835"],["84.1974563","28.0624593"],["84.1972793","28.0625137"],["84.1972686","28.06249"],["84.1971962","28.0625208"],["84.1971076","28.0625492"],["84.1970889","28.0625847"],["84.1969226","28.0625563"]]}},{"type":"Feature","properties":[{"building":"yes"},{"landuse":"residential"},{"source":"Bing"}],"geometry":{"type":"LineString","coordinates":[["84.1972793","28.0630013"],["84.1972659","28.0629516"],["84.1973973","28.0629137"],["84.1974268","28.0629729"],["84.1972793","28.0630013"]]}},{"type":"Feature","properties":[{"building":"yes"},{"landuse":"residential"},{"source":"Bing"}],"geometry":{"type":"LineString","coordinates":[["84.1974161","28.0628545"],["84.1974134","28.0628119"],["84.1974966","28.0628072"],["84.1975046","28.0628498"],["84.1974161","28.0628545"]]}},{"type":"Feature","properties":[{"building":"yes"},{"landuse":"residential"},{"source":"Bing"}],"geometry":{"type":"LineString","coordinates":[["84.1967134","28.0616332"],["84.1967724","28.0616119"],["84.1967992","28.0616474"],["84.1968287","28.061638"],["84.1968689","28.0616806"],["84.1968421","28.0616995"],["84.1969306","28.0617989"],["84.1970138","28.0618486"],["84.1969467","28.0619315"],["84.1968743","28.0618463"],["84.1967885","28.0617445"],["84.1967375","28.0616995"],["84.1966946","28.0616451"],["84.1967134","28.0616332"]]}},{"type":"Feature","properties":[{"building":"yes"},{"landuse":"residential"},{"source":"Bing"}],"geometry":{"type":"LineString","coordinates":[["84.1971157","28.0619433"],["84.1972552","28.0619386"],["84.1972632","28.0618699"],["84.1971076","28.0618865"],["84.1971157","28.0619433"]]}},{"type":"Feature","properties":[{"building":"yes"},{"landuse":"residential"},{"source":"Bing"}],"geometry":{"type":"LineString","coordinates":[["84.1971854","28.0618415"],["84.1973356","28.0618202"],["84.197392","28.0617823"],["84.1974","28.0617397"],["84.1972927","28.0617468"],["84.1972954","28.06169"],["84.1972096","28.0616948"],["84.1972096","28.0617492"],["84.1971774","28.0617681"],["84.1971854","28.0618415"]]}},{"type":"Feature","properties":[{"building":"yes"},{"landuse":"residential"},{"source":"Bing"}],"geometry":{"type":"LineString","coordinates":[["84.1974","28.0615906"],["84.1974456","28.0614912"],["84.1974831","28.0614936"],["84.1974858","28.0614699"],["84.1975717","28.0614983"],["84.1976494","28.0615717"],["84.1976199","28.0616048"],["84.1975475","28.0615575"],["84.1975153","28.0615528"],["84.1975046","28.0615906"],["84.1975958","28.0616309"],["84.1975556","28.0616758"],["84.1974402","28.0616214"],["84.1974483","28.0616048"],["84.1974","28.0615906"]]}},{"type":"Feature","properties":[{"building":"yes"},{"landuse":"residential"},{"source":"Bing"}],"geometry":{"type":"LineString","coordinates":[["84.1973598","28.061406"],["84.1973544","28.0613729"],["84.1974188","28.0613326"],["84.1975368","28.0613563"],["84.1975743","28.0613894"],["84.1976307","28.0614084"],["84.1977245","28.0614391"],["84.1977111","28.0614794"],["84.1975287","28.0614486"],["84.1975368","28.0614273"],["84.1975073","28.0614344"],["84.1974161","28.0613871"],["84.1973598","28.061406"]]}},{"type":"Feature","properties":[{"building":"yes"},{"landuse":"residential"},{"source":"Bing"}],"geometry":{"type":"LineString","coordinates":[["84.1974107","28.0618226"],["84.1974322","28.0617989"],["84.1974644","28.0618084"],["84.1974805","28.0617871"],["84.1975448","28.0618084"],["84.1975207","28.0618699"],["84.197459","28.061851"],["84.197451","28.0618344"],["84.1974107","28.0618226"]]}},{"type":"Feature","properties":[{"building":"yes"},{"landuse":"residential"},{"source":"Bing"}],"geometry":{"type":"LineString","coordinates":[["84.1977299","28.0616403"],["84.1977701","28.0616001"],["84.1978265","28.0616403"],["84.1978828","28.061593"],["84.1979284","28.0616214"],["84.1979606","28.0615788"],["84.1978855","28.0615338"],["84.1978908","28.0615102"],["84.1978479","28.0614747"],["84.1978023","28.0615054"],["84.1978292","28.0615315"],["84.1977648","28.0615717"],["84.1977192","28.0615267"],["84.1976682","28.0615788"],["84.1977299","28.0616403"]]}},{"type":"Feature","properties":[],"geometry":{"type":"LineString","coordinates":[["84.198041","28.0616593"],["84.1980062","28.0616853"],["84.1980571","28.0617255"]]}},{"type":"Feature","properties":[],"geometry":{"type":"LineString","coordinates":[["84.1980571","28.0617255"],["84.1981617","28.0617539"],["84.1981752","28.0617255"],["84.198041","28.0616593"]]}},{"type":"Feature","properties":[{"building":"yes"},{"landuse":"residential"},{"source":"BIng"}],"geometry":{"type":"LineString","coordinates":[["84.198328","28.0613942"],["84.1983897","28.0613161"],["84.1984863","28.0613516"],["84.1985721","28.0613776"],["84.1986419","28.0613823"],["84.1986204","28.0614107"],["84.1985668","28.0613989"],["84.1985453","28.0614178"],["84.1984863","28.0613989"],["84.1984622","28.0614249"],["84.198328","28.0613942"]]}},{"type":"Feature","properties":[{"building":"yes"},{"landuse":"residential"},{"source":"Bing"}],"geometry":{"type":"LineString","coordinates":[["84.2123508","27.9735074"],["84.2123213","27.9734506"],["84.2124018","27.9734198"],["84.2124259","27.9734837"],["84.2123508","27.9735074"]]}},{"type":"Feature","properties":[{"building":"yes"},{"landuse":"residential"},{"source":"Bing"}],"geometry":{"type":"LineString","coordinates":[["84.2125788","27.9736069"],["84.2126566","27.9736093"],["84.2126566","27.9735429"],["84.2125895","27.9735429"],["84.2125788","27.9736069"]]}},{"type":"Feature","properties":[{"building":"yes"},{"landuse":"residential"},{"source":"Bing"}],"geometry":{"type":"LineString","coordinates":[["84.2124528","27.9734316"],["84.2124018","27.9734198"],["84.2123964","27.9733866"],["84.2124688","27.9733937"],["84.2124528","27.9734316"]]}},{"type":"Feature","properties":[{"building":"yes"},{"landuse":"residential"},{"source":"Bing"}],"geometry":{"type":"LineString","coordinates":[["84.2128417","27.9736401"],["84.2129087","27.9736614"],["84.212922","27.9735953"],["84.2128604","27.9735809"],["84.2128417","27.9736401"]]}},{"type":"Feature","properties":[{"building":"yes"},{"landuse":"residential"},{"source":"Bing"}],"geometry":{"type":"LineString","coordinates":[["84.2153469","27.975939"],["84.2153013","27.9758845"],["84.215363","27.9758419"],["84.2154085","27.9758916"],["84.2153469","27.975939"]]}},{"type":"Feature","properties":[{"building":"yes"},{"landuse":"residential"},{"source":"Bing"}],"geometry":{"type":"LineString","coordinates":[["84.2152664","27.9758016"],["84.2153281","27.9757755"],["84.215312","27.9757447"],["84.2152932","27.9757068"],["84.215261","27.9757163"],["84.2152744","27.9757566"],["84.2152503","27.9757732"],["84.2152664","27.9758016"]]}},{"type":"Feature","properties":[{"building":"yes"},{"landuse":"residential"},{"source":"Bing"}],"geometry":{"type":"LineString","coordinates":[["84.2155212","27.9762564"],["84.2155427","27.9761924"],["84.2157733","27.9762185"],["84.2158511","27.9762588"],["84.2158082","27.976344"],["84.215725","27.976318"],["84.2157492","27.9762706"],["84.2157197","27.9762753"],["84.2155212","27.9762564"]]}},{"type":"Feature","properties":[{"highway":"path"}],"geometry":{"type":"LineString","coordinates":[["84.2126433","27.9734851"],["84.2128604","27.9735809"],["84.2128746","27.9735872"],["84.212922","27.9735953"],["84.2130020","27.9736091"],["84.2132710","27.9736591"],["84.2134055","27.9737247"],["84.2135329","27.9738873"],["84.2135612","27.9739779"],["84.2136639","27.9743686"],["84.2137877","27.9746093"],["84.2139258","27.9748218"],["84.2140544","27.9750390"]]}},{"type":"Feature","properties":[{"building":"yes"},{"landuse":"residential"},{"source":"Bing"}],"geometry":{"type":"LineString","coordinates":[["84.2168891","27.9770594"],["84.2169428","27.9769907"],["84.2168677","27.9769268"],["84.216806","27.976967"],["84.2168301","27.9769978"],["84.2168087","27.9770049"],["84.2168891","27.9770594"]]}},{"type":"Feature","properties":[{"building":"yes"},{"landuse":"residential"},{"source":"Bing"}],"geometry":{"type":"LineString","coordinates":[["84.2168784","27.9773034"],["84.216932","27.9772892"],["84.216916","27.9772276"],["84.2168623","27.9772418"],["84.2168784","27.9773034"]]}},{"type":"Feature","properties":[{"building":"yes"},{"landuse":"residential"},{"source":"Bing"}],"geometry":{"type":"LineString","coordinates":[["84.218941","27.9763358"],["84.2189786","27.9763002"],["84.2189517","27.9762884"],["84.2189652","27.9762623"],["84.2189169","27.976222"],["84.218882","27.9762126"],["84.2188659","27.9761889"],["84.2188471","27.9761581"],["84.2188203","27.976132"],["84.2187372","27.976151"],["84.2187238","27.976177"],["84.2187452","27.9762149"],["84.218823","27.9761818"],["84.2188391","27.9762102"],["84.2188525","27.9762363"],["84.218874","27.9762647"],["84.2189222","27.9762979"],["84.2189169","27.9763192"],["84.218941","27.9763358"]]}},{"type":"Feature","properties":[{"building":"yes"},{"landuse":"residential"},{"source":"Bing"}],"geometry":{"type":"LineString","coordinates":[["84.2197162","27.9766318"],["84.2197805","27.9765537"],["84.2198717","27.9765845"],["84.2198074","27.9766603"],["84.2197162","27.9766318"]]}},{"type":"Feature","properties":[{"building":"yes"},{"landuse":"residential"},{"source":"Bing"}],"geometry":{"type":"LineString","coordinates":[["84.2180519","27.9756453"],["84.2180841","27.9756322"],["84.2180626","27.9756038"],["84.2180331","27.9756168"],["84.2180519","27.9756453"]]}},{"type":"Feature","properties":[{"building":"yes"},{"landuse":"residential"},{"source":"Bing"}],"geometry":{"type":"LineString","coordinates":[["84.214632","27.9776628"],["84.2146616","27.977587"],["84.214734","27.9776013"],["84.214734","27.9776202"],["84.2148198","27.9776202"],["84.2148198","27.9776913"],["84.2147072","27.9776889"],["84.214632","27.9776628"]]}},{"type":"Feature","properties":[{"building":"yes"},{"landuse":"residential"},{"source":"Bing"}],"geometry":{"type":"LineString","coordinates":[["84.2149982","27.9775278"],["84.2150666","27.9775136"],["84.2150572","27.9774485"],["84.2151444","27.9774378"],["84.2151403","27.9773952"],["84.2151014","27.9773999"],["84.2150988","27.9773845"],["84.2150491","27.9773928"],["84.2150478","27.9773786"],["84.2149794","27.9773786"],["84.2149982","27.9775278"]]}},{"type":"Feature","properties":[{"building":"yes"},{"landuse":"residential"},{"source":"Bing"}],"geometry":{"type":"LineString","coordinates":[["84.2147769","27.9772471"],["84.2148198","27.9772341"],["84.2149137","27.9772104"],["84.2150116","27.9771796"],["84.2149566","27.9770754"],["84.2148641","27.977092"],["84.2147702","27.9771074"],["84.2147299","27.9771097"],["84.2147192","27.977169"],["84.2147648","27.9771666"],["84.2147769","27.9772471"]]}},{"type":"Feature","properties":[{"building":"yes"},{"landuse":"residential"},{"source":"Bing"}],"geometry":{"type":"LineString","coordinates":[["84.2122677","27.9777416"],["84.2123186","27.9776824"],["84.2122516","27.9776492"],["84.212214","27.9777037"],["84.2122677","27.9777416"]]}},{"type":"Feature","properties":[{"building":"yes"},{"landuse":"residential"},{"source":"Bing"}],"geometry":{"type":"LineString","coordinates":[["84.2109158","27.9781964"],["84.2110044","27.9782201"],["84.2110258","27.9781656"],["84.2109534","27.9781443"],["84.210948","27.9781017"],["84.2108354","27.9780566"],["84.2108273","27.9780827"],["84.2108542","27.9780945"],["84.2108461","27.9781182"],["84.2109293","27.9781467"],["84.2109158","27.9781964"]]}},{"type":"Feature","properties":[{"building":"yes"},{"landuse":"residential"},{"source":"Bing"}],"geometry":{"type":"LineString","coordinates":[["84.2102792","27.9787807"],["84.2103773","27.9787531"],["84.2103639","27.9786783"],["84.2103595","27.9786231"],["84.2104085","27.9786153"],["84.2103773","27.9785483"],["84.2103327","27.9785562"],["84.2103193","27.9785207"],["84.2102034","27.9785325"],["84.2102792","27.9787807"]]}},{"type":"Feature","properties":[{"building":"yes"},{"landuse":"residential"},{"source":"Bing"}],"geometry":{"type":"LineString","coordinates":[["84.2096325","27.9798598"],["84.2102078","27.9793124"],["84.2103104","27.9793636"],["84.2103684","27.9795487"],["84.2103283","27.979655"],["84.2102881","27.9797574"],["84.2101855","27.9798362"],["84.2100562","27.9798677"],["84.2099001","27.979915"],["84.209802","27.9799859"],["84.2096816","27.9800174"],["84.2095879","27.9800253"],["84.2095612","27.9799741"],["84.2096325","27.9798598"]]}},{"type":"Feature","properties":[{"highway":"road"},{"surface":"unpaved"}],"geometry":{"type":"LineString","coordinates":[["84.2126218","27.9780923"],["84.2127222","27.9779936"],["84.2127434","27.9778529"],["84.2128602","27.9776435"],["84.2131292","27.9772497"],["84.2131964","27.9770841"],["84.2132637","27.9770184"],["84.2133840","27.9769528"],["84.2134902","27.9769997"],["84.2135397","27.9770590"],["84.2138830","27.9769528"],["84.2142759","27.9766902"],["84.2144634","27.9767215"],["84.2145271","27.9766871"],["84.2146262","27.9765996"],["84.2148103","27.9761745"]]}},{"type":"Feature","properties":[{"highway":"road"},{"surface":"unpaved"}],"geometry":{"type":"LineString","coordinates":[["84.2145177","27.9778578"],["84.2146208","27.9776017"],["84.2147001","27.9773089"]]}},{"type":"Feature","properties":[{"building":"yes"},{"landuse":"residential"},{"source":"Bing"}],"geometry":{"type":"LineString","coordinates":[["84.2095835","27.9794305"],["84.2096414","27.9793754"],["84.2096994","27.9794699"],["84.2096459","27.9795251"],["84.2095835","27.9794305"]]}},{"type":"Feature","properties":[{"building":"yes"},{"landuse":"residential"},{"source":"Bing"}],"geometry":{"type":"LineString","coordinates":[["84.2100384","27.9782687"],["84.2101499","27.9781978"],["84.2102034","27.978249"],["84.210132","27.9783002"],["84.2100607","27.9783317"],["84.2100384","27.9782687"]]}},{"type":"Feature","properties":[{"building":"yes"},{"landuse":"residential"},{"source":"Bing"}],"geometry":{"type":"LineString","coordinates":[["84.2094817","27.9785402"],["84.2095192","27.9784904"],["84.2095729","27.9785094"],["84.2095326","27.9785686"],["84.2094817","27.9785402"]]}},{"type":"Feature","properties":[{"building":"yes"},{"landuse":"residential"},{"source":"Bing"}],"geometry":{"type":"LineString","coordinates":[["84.2090177","27.978263"],["84.2091008","27.9783175"],["84.2091571","27.9782607"],["84.209082","27.9781967"],["84.2090177","27.978263"]]}},{"type":"Feature","properties":[{"building":"yes"},{"landuse":"residential"},{"source":"Bing"}],"geometry":{"type":"LineString","coordinates":[["84.2100584","27.9771628"],["84.2102354","27.977068"],["84.2101978","27.9770112"],["84.2101174","27.9770443"],["84.2100637","27.9769922"],["84.2099779","27.9770585"],["84.2100584","27.9771628"]]}},{"type":"Feature","properties":[{"building":"yes"},{"landuse":"residential"},{"source":"Bing"}],"geometry":{"type":"LineString","coordinates":[["84.2104017","27.977338"],["84.2104982","27.977338"],["84.2104982","27.9772623"],["84.2104017","27.9772575"],["84.2104017","27.977338"]]}},{"type":"Feature","properties":[{"building":"yes"},{"landuse":"residential"},{"source":"Bing"}],"geometry":{"type":"LineString","coordinates":[["84.2093181","27.9767595"],["84.2093181","27.9767121"],["84.209361","27.9767121"],["84.2093663","27.9767642"],["84.2093181","27.9767595"]]}},{"type":"Feature","properties":[{"building":"yes"},{"landuse":"residential"},{"source":"Bing"}],"geometry":{"type":"LineString","coordinates":[["84.2088514","27.9768933"],["84.2088728","27.9768459"],["84.2089077","27.9768483"],["84.2088916","27.9769052"],["84.2088514","27.9768933"]]}},{"type":"Feature","properties":[{"building":"yes"},{"landuse":"residential"},{"source":"Bing"}],"geometry":{"type":"LineString","coordinates":[["84.2082505","27.9767962"],["84.2083391","27.9767962"],["84.2083391","27.9768862"],["84.208264","27.9769028"],["84.2082505","27.9767962"]]}},{"type":"Feature","properties":[{"building":"yes"},{"landuse":"residential"},{"source":"Bing"}],"geometry":{"type":"LineString","coordinates":[["84.2107102","27.9751981"],["84.2108282","27.975307"],["84.2108872","27.975262"],["84.2107799","27.9751436"],["84.2107102","27.9751981"]]}},{"type":"Feature","properties":[{"building":"yes"},{"landuse":"residential"},{"source":"Bing"}],"geometry":{"type":"LineString","coordinates":[["84.213328","27.976116"],["84.2133414","27.9760402"],["84.213438","27.9760283"],["84.2134353","27.9761089"],["84.213328","27.976116"]]}},{"type":"Feature","properties":[{"building":"yes"},{"landuse":"residential"},{"source":"Bing"}],"geometry":{"type":"LineString","coordinates":[["84.2135667","27.9763244"],["84.2135989","27.9762723"],["84.2136606","27.9762889"],["84.2136338","27.9763457"],["84.2135667","27.9763244"]]}},{"type":"Feature","properties":[{"building":"yes"},{"landuse":"residential"},{"source":"Bing"}],"geometry":{"type":"LineString","coordinates":[["84.2085832","27.9794891"],["84.2086744","27.9794464"],["84.2086342","27.9793422"],["84.2085778","27.9793612"],["84.2085269","27.9792711"],["84.2084786","27.9792925"],["84.2085832","27.9794891"]]}},{"type":"Feature","properties":[{"building":"yes"},{"landuse":"residential"},{"source":"Bing"}],"geometry":{"type":"LineString","coordinates":[["84.2081058","27.9798396"],["84.2082291","27.9798159"],["84.2082157","27.9797354"],["84.2080816","27.9797496"],["84.2081058","27.9798396"]]}},{"type":"Feature","properties":[{"building":"yes"},{"landuse":"residential"},{"source":"Bing"}],"geometry":{"type":"LineString","coordinates":[["84.2093262","27.9793209"],["84.2093986","27.9793683"],["84.209479","27.9793067"],["84.2094951","27.9793304"],["84.2095327","27.979309"],["84.2094951","27.9792309"],["84.20942","27.9792688"],["84.2093262","27.9793209"]]}},{"type":"Feature","properties":[{"building":"yes"},{"landuse":"residential"},{"source":"Bing"}],"geometry":{"type":"LineString","coordinates":[["84.2080843","27.979707"],["84.2081379","27.9796762"],["84.2081326","27.9796478"],["84.2081031","27.979662"],["84.2080119","27.9796336"],["84.2079877","27.9796667"],["84.2080843","27.979707"]]}},{"type":"Feature","properties":[{"building":"yes"},{"landuse":"residential"},{"source":"Bing"}],"geometry":{"type":"LineString","coordinates":[["84.2094549","27.9797686"],["84.2095542","27.9796809"],["84.2095086","27.9796383"],["84.209471","27.9795388"],["84.2093664","27.9795743"],["84.2094066","27.9796478"],["84.2094817","27.9796241"],["84.2094951","27.979662"],["84.2094147","27.979707"],["84.2094549","27.9797686"]]}},{"type":"Feature","properties":[{"building":"yes"},{"landuse":"residential"},{"source":"Bing"}],"geometry":{"type":"LineString","coordinates":[["84.2089372","27.9798681"],["84.2090097","27.9798681"],["84.2090284","27.9797449"],["84.208948","27.9797472"],["84.2089372","27.9798681"]]}},{"type":"Feature","properties":[{"building":"yes"},{"landuse":"residential"},{"source":"Bing"}],"geometry":{"type":"LineString","coordinates":[["84.2092672","27.9798609"],["84.2091974","27.9798065"],["84.2091679","27.9798302"],["84.209184","27.9798657"],["84.2091599","27.979887"],["84.2092242","27.9799273"],["84.2092672","27.9798609"]]}},{"type":"Feature","properties":[{"building":"yes"},{"landuse":"residential"},{"source":"Bing"}],"geometry":{"type":"LineString","coordinates":[["84.20872","27.9804057"],["84.208779","27.9804507"],["84.208846","27.980375"],["84.2088648","27.9803157"],["84.2088943","27.9803205"],["84.2089292","27.9802826"],["84.2088943","27.9802518"],["84.208787","27.9803442"],["84.20872","27.9804057"]]}},{"type":"Feature","properties":[{"building":"yes"},{"landuse":"residential"},{"source":"Bing"}],"geometry":{"type":"LineString","coordinates":[["84.2085698","27.9809304"],["84.2086261","27.9809825"],["84.208846","27.9808286"],["84.2088836","27.9808357"],["84.2089453","27.9807456"],["84.2089882","27.9806912"],["84.2090606","27.9807006"],["84.2091143","27.9806533"],["84.2092055","27.9805869"],["84.209302","27.9805348"],["84.2092377","27.9804733"],["84.2091867","27.9804188"],["84.2091411","27.9803667"],["84.2089399","27.9805869"],["84.2087146","27.9807978"],["84.2085698","27.9809304"]]}},{"type":"Feature","properties":[{"building":"yes"},{"landuse":"residential"},{"source":"Bing"}],"geometry":{"type":"LineString","coordinates":[["84.2085081","27.9807504"],["84.2084732","27.9806888"],["84.2085698","27.980632"],["84.2086395","27.980613"],["84.2086529","27.9806367"],["84.2085966","27.9806651"],["84.2086073","27.9806935"],["84.2085081","27.9807504"]]}},{"type":"Feature","properties":[{"building":"yes"},{"landuse":"residential"},{"source":"Bing"}],"geometry":{"type":"LineString","coordinates":[["84.2080736","27.9809659"],["84.2081889","27.9810062"],["84.2082318","27.9808854"],["84.2081621","27.9808593"],["84.2081594","27.9807859"],["84.2081192","27.9807859"],["84.2081245","27.9808428"],["84.2081004","27.9808475"],["84.2080736","27.9809659"]]}},{"type":"Feature","properties":[{"building":"yes"},{"landuse":"residential"},{"source":"Bing"}],"geometry":{"type":"LineString","coordinates":[["84.2077088","27.9809565"],["84.2077624","27.9809849"],["84.2078","27.9809351"],["84.207859","27.9808167"],["84.2078054","27.9807907"],["84.2077544","27.9808736"],["84.2077544","27.9808996"],["84.2077088","27.9809565"]]}},{"type":"Feature","properties":[{"building":"yes"},{"landuse":"residential"},{"source":"Bing"}],"geometry":{"type":"LineString","coordinates":[["84.2077007","27.9812146"],["84.2077732","27.9812502"],["84.2077329","27.9813544"],["84.2078697","27.9814136"],["84.2078992","27.9813639"],["84.2078214","27.9813189"],["84.2078536","27.9812644"],["84.2078134","27.981236"],["84.2078509","27.9811815"],["84.2077437","27.9811294"],["84.2077007","27.9812146"]]}},{"type":"Feature","properties":[{"building":"yes"},{"landuse":"residential"},{"source":"Bing"}],"geometry":{"type":"LineString","coordinates":[["84.2075613","27.9815901"],["84.2076042","27.9815095"],["84.2077598","27.9815427"],["84.2077168","27.9816232"],["84.2075613","27.9815901"]]}},{"type":"Feature","properties":[{"building":"yes"},{"landuse":"residential"},{"source":"Bing"}],"geometry":{"type":"LineString","coordinates":[["84.2069605","27.9820685"],["84.2070785","27.9820496"],["84.2070248","27.9818554"],["84.2069122","27.9818743"],["84.2069605","27.9820685"]]}},{"type":"Feature","properties":[{"building":"yes"},{"landuse":"residential"},{"source":"Bing"}],"geometry":{"type":"LineString","coordinates":[["84.2063435","27.9822865"],["84.2064294","27.9823101"],["84.2065206","27.9822343"],["84.2064186","27.9821775"],["84.2063435","27.9822865"]]}},{"type":"Feature","properties":[{"building":"yes"},{"landuse":"residential"},{"source":"Bing"}],"geometry":{"type":"LineString","coordinates":[["84.206188","27.9827223"],["84.206188","27.9826702"],["84.2062416","27.982656"],["84.2063328","27.9826607"],["84.2063543","27.9827128"],["84.2062684","27.9827507"],["84.206247","27.9827081"],["84.206188","27.9827223"]]}},{"type":"Feature","properties":[{"building":"yes"},{"landuse":"residential"},{"source":"Bing"}],"geometry":{"type":"LineString","coordinates":[["84.2063704","27.9819501"],["84.2064079","27.9818743"],["84.2066386","27.9819975"],["84.2066064","27.9820354"],["84.2063704","27.9819501"]]}},{"type":"Feature","properties":[{"building":"yes"},{"landuse":"residential"},{"source":"Bing"}],"geometry":{"type":"LineString","coordinates":[["84.2056837","27.9823291"],["84.2058178","27.9823054"],["84.2057964","27.9822296"],["84.2056623","27.9822343"],["84.2056837","27.9823291"]]}},{"type":"Feature","properties":[{"building":"yes"},{"landuse":"residential"},{"source":"Bing"}],"geometry":{"type":"LineString","coordinates":[["84.2069739","27.9820496"],["84.2070516","27.9820212"],["84.20699","27.9818435"],["84.2069095","27.9818672"],["84.2069739","27.9820496"]]}},{"type":"Feature","properties":[{"building":"yes"},{"landuse":"residential"},{"source":"Bing"}],"geometry":{"type":"LineString","coordinates":[["84.2063543","27.9819335"],["84.2064052","27.9818648"],["84.2065206","27.9819027"],["84.2066413","27.981988"],["84.2066171","27.9820306"],["84.2065393","27.9819833"],["84.2064938","27.9819714"],["84.2064723","27.9819904"],["84.2063543","27.9819335"]]}},{"type":"Feature","properties":[{"building":"yes"},{"landuse":"residential"},{"source":"Bing"}],"geometry":{"type":"LineString","coordinates":[["84.2075827","27.9815877"],["84.2077142","27.9816209"],["84.2077651","27.9815356"],["84.2076283","27.9814882"],["84.2075827","27.9815877"]]}},{"type":"Feature","properties":[{"building":"yes"},{"landuse":"residential"},{"source":"Bing"}],"geometry":{"type":"LineString","coordinates":[["84.2028915","27.9851845"],["84.2028647","27.9850921"],["84.2029827","27.9850565"],["84.2030015","27.9851537"],["84.2028915","27.9851845"]]}},{"type":"Feature","properties":[{"building":"yes"},{"landuse":"residential"},{"source":"Bing"}],"geometry":{"type":"LineString","coordinates":[["84.2029345","27.9853337"],["84.2030149","27.9853029"],["84.2029827","27.9852531"],["84.2029103","27.9852626"],["84.2029345","27.9853337"]]}},{"type":"Feature","properties":[{"building":"yes"},{"landuse":"residential"},{"source":"Bing"}],"geometry":{"type":"LineString","coordinates":[["84.2031785","27.9841731"],["84.2031732","27.9840783"],["84.2031249","27.9840783"],["84.2030793","27.9840499"],["84.2030927","27.9840262"],["84.2030525","27.9840073"],["84.2030257","27.9840333"],["84.2030498","27.9840452"],["84.2030739","27.984076"],["84.2031008","27.9840925"]]}},{"type":"Feature","properties":[{"building":"yes"},{"landuse":"residential"},{"source":"Bing"}],"geometry":{"type":"LineString","coordinates":[["84.2026716","27.9840902"],["84.2028299","27.9841115"],["84.2028218","27.9841423"],["84.202905","27.9842015"],["84.2029452","27.9841636"],["84.2028728","27.9841067"],["84.2028352","27.9840783"],["84.2028299","27.9840617"],["84.202685","27.9840286"],["84.2026716","27.9840902"]]}},{"type":"Feature","properties":[{"building":"yes"},{"landuse":"residential"},{"source":"Bing"}],"geometry":{"type":"LineString","coordinates":[["84.2014968","27.9839196"],["84.2015075","27.9838415"],["84.2016416","27.983858"],["84.2016202","27.9839362"],["84.2014968","27.9839196"]]}},{"type":"Feature","properties":[{"building":"yes"},{"landuse":"residential"},{"source":"Bing"}],"geometry":{"type":"LineString","coordinates":[["84.2030686","27.9928193"],["84.2031598","27.9927293"],["84.203192","27.9926203"],["84.2030847","27.9925872"],["84.2030525","27.992554"],["84.2029613","27.9925777"],["84.2030203","27.9926535"],["84.2030686","27.9926724"],["84.2029935","27.9927482"],["84.2030686","27.9928193"]]}},{"type":"Feature","properties":[{"building":"yes"},{"landuse":"residential"},{"source":"Bing"}],"geometry":{"type":"LineString","coordinates":[["84.2026099","27.9923918"],["84.2027226","27.9924226"],["84.2027333","27.9923492"],["84.2026367","27.9923255"],["84.2026099","27.9923918"]]}},{"type":"Feature","properties":[{"building":"yes"},{"landuse":"residential"},{"source":"Bing"}],"geometry":{"type":"LineString","coordinates":[["84.2025268","27.992252"],["84.2025885","27.9922781"],["84.2026555","27.9921999"],["84.2025831","27.9921644"],["84.2025268","27.992252"]]}},{"type":"Feature","properties":[{"building":"yes"},{"landuse":"residential"},{"source":"Bing"}],"geometry":{"type":"LineString","coordinates":[["84.2027118","27.9925292"],["84.2027762","27.9925363"],["84.2027762","27.9924226"],["84.2027226","27.9924226"],["84.2027118","27.9925292"]]}},{"type":"Feature","properties":[{"building":"yes"},{"landuse":"residential"},{"source":"Bing"}],"geometry":{"type":"LineString","coordinates":[["84.2051312","27.9923042"],["84.2051714","27.992316"],["84.2053163","27.9921952"],["84.2054021","27.9921431"],["84.2053297","27.9920792"],["84.2053028","27.9920531"],["84.2052894","27.991982"],["84.2051822","27.991937"],["84.2051258","27.9920247"],["84.2051875","27.9920697"],["84.2051607","27.9921147"],["84.2051231","27.9920957"],["84.2050534","27.992162"],["84.2051366","27.9921928"],["84.2051902","27.9922213"],["84.2051312","27.9923042"]]}},{"type":"Feature","properties":[{"building":"yes"},{"landuse":"residential"},{"source":"Bing"}],"geometry":{"type":"LineString","coordinates":[["84.205555","27.9925126"],["84.2056033","27.992567"],["84.2057481","27.992496"],["84.2057696","27.9925268"],["84.2058393","27.9924984"],["84.2058125","27.9924439"],["84.2057293","27.9924723"],["84.2056891","27.9924344"],["84.205555","27.9925126"]]}},{"type":"Feature","properties":[{"building":"yes"},{"landuse":"residential"},{"source":"Bing"}],"geometry":{"type":"LineString","coordinates":[["84.2052358","27.9917594"],["84.2053511","27.9917807"],["84.2053619","27.9917168"],["84.2052438","27.9916978"],["84.2052358","27.9917594"]]}},{"type":"Feature","properties":[{"building":"yes"},{"landuse":"residential"},{"source":"Bing"}],"geometry":{"type":"LineString","coordinates":[["84.2061504","27.9928524"],["84.2061933","27.9928856"],["84.2063006","27.9928193"],["84.206247","27.9927743"],["84.2061504","27.9928524"]]}},{"type":"Feature","properties":[{"building":"yes"},{"landuse":"residential"},{"source":"Bing"}],"geometry":{"type":"LineString","coordinates":[["84.2070463","27.9911401"],["84.2071268","27.9910927"],["84.2070812","27.9910051"],["84.2069926","27.9910453"],["84.2070463","27.9911401"]]}},{"type":"Feature","properties":[{"building":"yes"},{"landuse":"residential"},{"source":"Bing"}],"geometry":{"type":"LineString","coordinates":[["84.2075988","27.9910998"],["84.2076873","27.9911235"],["84.2077195","27.991043"],["84.2077598","27.9909577"],["84.20769","27.990934"],["84.2076444","27.9910122"],["84.2075988","27.9910998"]]}},{"type":"Feature","properties":[{"building":"yes"},{"landuse":"residential"},{"source":"Bing"}],"geometry":{"type":"LineString","coordinates":[["84.2079395","27.9910738"],["84.2079824","27.9909766"],["84.2079073","27.9909624"],["84.2078912","27.9910169"],["84.2078509","27.9910169"],["84.2077893","27.991088"],["84.2078188","27.991114"],["84.2078831","27.9910548"],["84.2078188","27.991114"],["84.2078831","27.9910548"],["84.2079395","27.9910738"]]}},{"type":"Feature","properties":[{"building":"yes"},{"landuse":"residential"},{"source":"Bing"}],"geometry":{"type":"LineString","coordinates":[["84.2159209","27.9906545"],["84.2160577","27.9907895"],["84.2160952","27.9907658"],["84.2160308","27.9907066"],["84.2160737","27.9906758"],["84.2160174","27.9905858"],["84.2159209","27.9906545"]]}},{"type":"Feature","properties":[{"building":"yes"},{"landuse":"residential"},{"source":"Bing"}],"geometry":{"type":"LineString","coordinates":[["84.2156231","27.9910358"],["84.215709","27.9910287"],["84.2156714","27.9909221"],["84.2156205","27.9908605"],["84.2155775","27.9908605"],["84.215607","27.9909268"],["84.215607","27.9909505"],["84.2156231","27.9910358"]]}},{"type":"Feature","properties":[{"building":"yes"},{"landuse":"residential"},{"source":"Bing"}],"geometry":{"type":"LineString","coordinates":[["84.2167202","27.9906639"],["84.2167953","27.9906947"],["84.2168435","27.9906095"],["84.2167631","27.9905882"],["84.2167202","27.9906639"]]}},{"type":"Feature","properties":[{"building":"yes"},{"landuse":"residential"},{"source":"Bing"}],"geometry":{"type":"LineString","coordinates":[["84.2165378","27.9901666"],["84.2165646","27.9902021"],["84.2166236","27.9901547"],["84.2165995","27.9901287"],["84.2165378","27.9901666"]]}},{"type":"Feature","properties":[{"building":"yes"},{"landuse":"residential"},{"source":"Bing"}],"geometry":{"type":"LineString","coordinates":[["84.2162481","27.990825"],["84.2162293","27.9908889"],["84.2163366","27.9909197"],["84.2163634","27.9908534"],["84.2162481","27.990825"]]}},{"type":"Feature","properties":[{"building":"yes"},{"landuse":"residential"},{"source":"Bing"}],"geometry":{"type":"LineString","coordinates":[["84.2161918","27.9907871"],["84.216232","27.9907705"],["84.216181","27.9906805"],["84.2161086","27.9907089"],["84.2161301","27.9907539"],["84.2161623","27.9907421"],["84.2161918","27.9907871"]]}},{"type":"Feature","properties":[{"foot":"yes"},{"highway":"road"},{"surface":"unpaved"}],"geometry":{"type":"LineString","coordinates":[["84.2198603","27.9806800"],["84.2198762","27.9807519"],["84.2198654","27.9808052"],["84.2198520","27.9809367"],["84.2198553","27.9811404"],["84.2198411","27.9811853"],["84.2198370","27.9812445"],["84.2198472","27.9812912"],["84.2198553","27.9813289"],["84.2198716","27.9814671"],["84.2198879","27.9816664"],["84.2198960","27.9817328"],["84.2199346","27.9817812"],["84.2200139","27.9818728"],["84.2200891","27.9819661"],["84.2201115","27.9820074"],["84.2201419","27.9820433"],["84.2202355","27.9822049"],["84.2203290","27.9823718"],["84.2203330","27.9824347"],["84.2203452","27.9825334"],["84.2203310","27.9826142"],["84.2203046","27.9826806"],["84.2202639","27.9827398"],["84.2201867","27.9828906"],["84.2201521","27.9830037"],["84.2201176","27.9831330"],["84.2201013","27.9832784"],["84.2200871","27.9833071"],["84.2200342","27.9833645"],["84.2199570","27.9834345"],["84.2198940","27.9835027"],["84.2198492","27.9836266"],["84.2198187","27.9837128"],["84.2197943","27.9837540"],["84.2197496","27.9837828"],["84.2197049","27.9837989"],["84.2196338","27.9838402"],["84.2195707","27.9839497"],["84.2195220","27.9840664"],["84.2194833","27.9842046"],["84.2194563","27.9843283"],["84.2194456","27.9844349"],["84.2194831","27.9844846"],["84.2195663","27.9845580"],["84.2196119","27.9846220"],["84.2196494","27.9846954"],["84.2198721","27.9848328"],["84.2199686","27.9849133"],["84.2199874","27.9849820"],["84.2199767","27.9850246"],["84.2199418","27.9850720"],["84.2197835","27.9852378"],["84.2194510","27.9856334"],["84.2193973","27.9857210"],["84.2194054","27.9857731"],["84.2194510","27.9858749"],["84.2194644","27.9859460"],["84.2194590","27.9859981"],["84.2194536","27.9860360"],["84.2194322","27.9860621"],["84.2193571","27.9861852"],["84.2192283","27.9862871"],["84.2191632","27.9863182"],["84.2190287","27.9863807"],["84.2189509","27.9864151"],["84.2188836","27.9864651"],["84.2188235","27.9865276"],["84.2187527","27.9866088"],["84.2186430","27.9866995"],["84.2185439","27.9867557"],["84.2184731","27.9868307"],["84.2184200","27.9868932"],["84.2183244","27.9870120"],["84.2182430","27.9871120"],["84.2181652","27.9871651"],["84.2181156","27.9872120"],["84.2180059","27.9873902"],["84.2179104","27.9875777"],["84.2177849","27.9877532"],["84.2177569","27.9878274"],["84.2177569","27.9879058"],["84.2177989","27.9879759"],["84.2178363","27.9880872"],["84.2178690","27.9881944"],["84.2178223","27.9882975"],["84.2177896","27.9883841"],["84.2176822","27.9885285"],["84.2176588","27.9886316"],["84.2176261","27.9886975"],["84.2175421","27.9887594"],["84.2174580","27.9888048"],["84.2173412","27.9888707"],["84.2172852","27.9889408"],["84.2171871","27.9891017"],["84.2170610","27.9892666"],["84.2170003","27.9893285"],["84.2169256","27.9893656"],["84.2168929","27.9894316"],["84.2168509","27.9895058"],["84.2168229","27.9896213"],["84.2167388","27.9896831"],["84.2165473","27.9897986"],["84.2164200","27.9899568"],["84.2163988","27.9900412"],["84.2164094","27.9901693"],["84.2164271","27.9902912"],["84.2164024","27.9904131"],["84.2163599","27.9905256"],["84.2163493","27.9905943"],["84.2164024","27.9907412"]]}},{"type":"Feature","properties":[{"foot":"yes"},{"highway":"road"},{"surface":"unpaved"}],"geometry":{"type":"LineString","coordinates":[["84.2160320","27.9910836"],["84.2159806","27.9911620"],["84.2159853","27.9912321"],["84.2159899","27.9913599"],["84.2160039","27.9915125"],["84.2160179","27.9916280"],["84.2159946","27.9917187"],["84.2159152","27.9918341"],["84.2158592","27.9919001"],["84.2158545","27.9919661"],["84.2158311","27.9920280"],["84.2157471","27.9921063"],["84.2156677","27.9921640"],["84.2155556","27.9922465"],["84.2154622","27.9923785"],["84.2154155","27.9924444"],["84.2154015","27.9925475"],["84.2153782","27.9926836"],["84.2153174","27.9927908"],["84.2152707","27.9928692"],["84.2152474","27.9929434"],["84.2152521","27.9929805"],["84.2153128","27.9930630"],["84.2153292","27.9931036"],["84.2152867","27.9931255"],["84.2152584","27.9931598"],["84.2152301","27.9931755"],["84.2152796","27.9931973"],["84.2153150","27.9932161"],["84.2153292","27.9932442"],["84.2152898","27.9932966"],["84.2152738","27.9933700"],["84.2152979","27.9935429"],["84.2152818","27.9936755"],["84.2151557","27.9935808"],["84.2149841","27.9935997"],["84.2148392","27.9936471"],["84.2147507","27.9937465"],["84.2146032","27.9937063"],["84.2144968","27.9936945"],["84.2143193","27.9935543"],["84.2142913","27.9936863"],["84.2142026","27.9935708"],["84.2141699","27.9937110"],["84.2141092","27.9936574"],["84.2138337","27.9940863"],["84.2137776","27.9943461"],["84.2137589","27.9944491"],["84.2139271","27.9946430"],["84.2139153","27.9948891"]]}},{"type":"Feature","properties":[{"foot":"yes"},{"highway":"footway"}],"geometry":{"type":"LineString","coordinates":[["84.2160320","27.9910836"],["84.2161247","27.9909884"],["84.2161649","27.9908582"],["84.2161649","27.9908179"],["84.2162105","27.9908297"],["84.2162508","27.9908084"],["84.2163125","27.9907705"],["84.2163232","27.9907303"],["84.2164024","27.9907412"]]}},{"type":"Feature","properties":[{"building":"yes"},{"landuse":"residential"},{"source":"Bing"}],"geometry":{"type":"LineString","coordinates":[["84.2161837","27.9896147"],["84.2162454","27.9896076"],["84.2162454","27.9896573"],["84.2162669","27.9896976"],["84.2162374","27.989726"],["84.2162132","27.9896739"],["84.216181","27.9896692"],["84.2161837","27.9896147"]]}},{"type":"Feature","properties":[{"building":"yes"},{"landuse":"residential"},{"source":"Bing"}],"geometry":{"type":"LineString","coordinates":[["84.2163554","27.9896313"],["84.2164573","27.9897"],["84.2165002","27.9896431"],["84.2164171","27.9895768"],["84.2163554","27.9896313"]]}},{"type":"Feature","properties":[{"building":"yes"},{"landuse":"residential"},{"source":"Bing"}],"geometry":{"type":"LineString","coordinates":[["84.2173639","27.9893234"],["84.2174256","27.9893542"],["84.2174792","27.9892808"],["84.2175731","27.9891813"],["84.2175248","27.9891386"],["84.2174202","27.9892073"],["84.2174417","27.98925"],["84.2173988","27.9892429"],["84.2173639","27.9893234"]]}},{"type":"Feature","properties":[{"building":"yes"},{"landuse":"residential"},{"source":"Bing"}],"geometry":{"type":"LineString","coordinates":[["84.2178145","27.9899321"],["84.2178494","27.9899581"],["84.2179057","27.9899179"],["84.2179942","27.9898302"],["84.2179432","27.98979"],["84.2178628","27.9898681"],["84.2178842","27.98988"],["84.2178145","27.9899321"]]}},{"type":"Feature","properties":[{"building":"yes"},{"landuse":"residential"},{"source":"Bing"}],"geometry":{"type":"LineString","coordinates":[["84.2164925","27.9889491"],["84.216573","27.9889823"],["84.2165998","27.988916"],["84.2165327","27.9888781"],["84.2164925","27.9889491"]]}},{"type":"Feature","properties":[{"building":"yes"},{"landuse":"residential"},{"source":"Bing"}],"geometry":{"type":"LineString","coordinates":[["84.2169753","27.9887289"],["84.2170477","27.9887194"],["84.2171041","27.9887549"],["84.2171416","27.9887099"],["84.2170719","27.9886791"],["84.2169807","27.9886768"],["84.2169753","27.9887289"]]}},{"type":"Feature","properties":[{"building":"yes"},{"landuse":"residential"},{"source":"Bing"}],"geometry":{"type":"LineString","coordinates":[["84.217839","27.9885276"],["84.2178873","27.9885678"],["84.2179624","27.9885133"],["84.2179194","27.9884731"],["84.217839","27.9885276"]]}},{"type":"Feature","properties":[{"building":"yes"},{"landuse":"residential"},{"source":"Bing"}],"geometry":{"type":"LineString","coordinates":[["84.2175734","27.9885323"],["84.2176324","27.9885583"],["84.21767","27.9885062"],["84.2176727","27.9884873"],["84.2176164","27.9884636"],["84.2175734","27.9885323"]]}},{"type":"Feature","properties":[{"building":"yes"},{"landuse":"residential"},{"source":"Bing"}],"geometry":{"type":"LineString","coordinates":[["84.2175815","27.9882741"],["84.2176083","27.9883191"],["84.2176754","27.9882954"],["84.2177263","27.9883381"],["84.2178122","27.9882386"],["84.2178581","27.9882184"],["84.2178229","27.9881818"],["84.2177773","27.9882125"],["84.2177505","27.9882007"],["84.2177102","27.9882528"],["84.21767","27.9882362"],["84.2175815","27.9882741"]]}},{"type":"Feature","properties":[{"building":"yes"},{"landuse":"residential"},{"source":"Bing"}],"geometry":{"type":"LineString","coordinates":[["84.2171121","27.9883973"],["84.2171041","27.9884565"],["84.217155","27.9884612"],["84.2171604","27.9884375"],["84.2171952","27.9884423"],["84.2171952","27.9884139"],["84.2171121","27.9883973"]]}},{"type":"Feature","properties":[{"foot":"yes"},{"highway":"road"},{"surface":"unpaved"}],"geometry":{"type":"LineString","coordinates":[["84.2198603","27.9806800"],["84.2198762","27.9807519"],["84.2198654","27.9808052"],["84.2198520","27.9809367"],["84.2198553","27.9811404"],["84.2198411","27.9811853"],["84.2198370","27.9812445"],["84.2198472","27.9812912"],["84.2198553","27.9813289"],["84.2198716","27.9814671"],["84.2198879","27.9816664"],["84.2198960","27.9817328"],["84.2199346","27.9817812"],["84.2200139","27.9818728"],["84.2200891","27.9819661"],["84.2201115","27.9820074"],["84.2201419","27.9820433"],["84.2202355","27.9822049"],["84.2203290","27.9823718"],["84.2203330","27.9824347"],["84.2203452","27.9825334"],["84.2203310","27.9826142"],["84.2203046","27.9826806"],["84.2202639","27.9827398"],["84.2201867","27.9828906"],["84.2201521","27.9830037"],["84.2201176","27.9831330"],["84.2201013","27.9832784"],["84.2200871","27.9833071"],["84.2200342","27.9833645"],["84.2199570","27.9834345"],["84.2198940","27.9835027"],["84.2198492","27.9836266"],["84.2198187","27.9837128"],["84.2197943","27.9837540"],["84.2197496","27.9837828"],["84.2197049","27.9837989"],["84.2196338","27.9838402"],["84.2195707","27.9839497"],["84.2195220","27.9840664"],["84.2194833","27.9842046"],["84.2194563","27.9843283"],["84.2194456","27.9844349"],["84.2194831","27.9844846"],["84.2195663","27.9845580"],["84.2196119","27.9846220"],["84.2196494","27.9846954"],["84.2198721","27.9848328"],["84.2199686","27.9849133"],["84.2199874","27.9849820"],["84.2199767","27.9850246"],["84.2199418","27.9850720"],["84.2197835","27.9852378"],["84.2194510","27.9856334"],["84.2193973","27.9857210"],["84.2194054","27.9857731"],["84.2194510","27.9858749"],["84.2194644","27.9859460"],["84.2194590","27.9859981"],["84.2194536","27.9860360"],["84.2194322","27.9860621"],["84.2193571","27.9861852"],["84.2192283","27.9862871"],["84.2191632","27.9863182"],["84.2190287","27.9863807"],["84.2189509","27.9864151"],["84.2188836","27.9864651"],["84.2188235","27.9865276"],["84.2187527","27.9866088"],["84.2186430","27.9866995"],["84.2185439","27.9867557"],["84.2184731","27.9868307"],["84.2184200","27.9868932"],["84.2183244","27.9870120"],["84.2182430","27.9871120"],["84.2181652","27.9871651"],["84.2181156","27.9872120"],["84.2180059","27.9873902"],["84.2179104","27.9875777"],["84.2177849","27.9877532"],["84.2177569","27.9878274"],["84.2177569","27.9879058"],["84.2177989","27.9879759"],["84.2178363","27.9880872"],["84.2178690","27.9881944"],["84.2178581","27.9882184"],["84.2178223","27.9882975"],["84.2177896","27.9883841"],["84.2176822","27.9885285"],["84.2176588","27.9886316"],["84.2176261","27.9886975"],["84.2175421","27.9887594"],["84.2174580","27.9888048"],["84.2173412","27.9888707"],["84.2172852","27.9889408"],["84.2171871","27.9891017"],["84.2170610","27.9892666"],["84.2170003","27.9893285"],["84.2169256","27.9893656"],["84.2168929","27.9894316"],["84.2168509","27.9895058"],["84.2168229","27.9896213"],["84.2167388","27.9896831"],["84.2165473","27.9897986"],["84.2164200","27.9899568"],["84.2163988","27.9900412"],["84.2164094","27.9901693"],["84.2164271","27.9902912"],["84.2164024","27.9904131"],["84.2163599","27.9905256"],["84.2163493","27.9905943"],["84.2164024","27.9907412"]]}},{"type":"Feature","properties":[{"highway":"footway"}],"geometry":{"type":"LineString","coordinates":[["-122.2718218","37.7695408"],["-122.2714355","37.769528"]]}},{"type":"Feature","properties":[{"addr:street":"F36"},{"building":"residential"},{"name":"Unknown"}],"geometry":{"type":"Point","coordinates":[84.3587919,28.5159904]}},{"type":"Feature","properties":[{"addr:street":"F36"},{"building":"residential"},{"name":"Unknown"}],"geometry":{"type":"Point","coordinates":[84.35891,28.5164549]}}]}