{"type":"FeatureCollection","features":[{"type":"Feature","properties":[{"amenity":"fuel"},{"building":"yes"},{"name":"Chunnilal Harinarayan Oil Store"},{"operator":"Nepal Oil Corporation"}],"geometry":{"type":"LineString","coordinates":[["85.316737","27.7062929"],["85.3166967","27.7061884"],["85.3168121","27.7061219"],["85.3168577","27.7062572"],["85.316737","27.7062929"]]}},{"type":"Feature","properties":[{"building":"house"}],"geometry":{"type":"LineString","coordinates":[["85.3173163","27.7065375"],["85.3172117","27.7065493"],["85.317201","27.70649"],["85.3171232","27.7064947"],["85.3171635","27.7066087"],["85.3173217","27.7065897"],["85.3173163","27.7065375"]]}},{"type":"Feature","properties":[{"building":"house"}],"geometry":{"type":"LineString","coordinates":[["85.3173458","27.7065897"],["85.3173324","27.7065018"],["85.3174102","27.70649"],["85.3174236","27.7065778"],["85.3173458","27.7065897"]]}},{"type":"Feature","properties":[{"building":"house"}],"geometry":{"type":"LineString","coordinates":[["85.3176114","27.7065683"],["85.3176945","27.7065588"],["85.3176865","27.7064472"],["85.3175953","27.7064543"],["85.3176114","27.7065683"]]}},{"type":"Feature","properties":[{"galli":"yes"},{"highway":"service"},{"name":"Dharma Chakra Galli"},{"service":"alley"}],"geometry":{"type":"LineString","coordinates":[["85.3206716","27.7050132"],["85.3202647","27.7050204"],["85.3197441","27.7050295"],["85.3196293","27.7050316"],["85.3189667","27.7050885"],["85.3181479","27.7051888"],["85.3173699","27.7053676"],["85.3173855","27.7055031"],["85.3171495","27.7055719"],["85.3172718","27.7059869"]]}},{"type":"Feature","properties":[{"addr:street":"Bagbazar"},{"amenity":"bus_station"},{"area":"yes"},{"name":"Bhaktapur Bus Park"},{"public_transport":"station"}],"geometry":{"type":"LineString","coordinates":[["85.3171098","27.7059367"],["85.3170213","27.7057704"],["85.3169811","27.7056826"],["85.3168737","27.7054789"],["85.3171118","27.7053925"],["85.3171412","27.705456"],["85.3170402","27.7054926"],["85.3171963","27.70583"],["85.3172388","27.7059237"],["85.3171098","27.7059367"]]}},{"type":"Feature","properties":[{"name":"Ason"},{"name:new":"असं"},{"name:np":"असन"},{"place":"neighbourhood"}],"geometry":{"type":"Point","coordinates":[85.3122521,27.7075079]}},{"type":"Feature","properties":[{"bus":"yes"},{"highway":"bus_stop"},{"name":"Bagbazar Stop"},{"operator":"Bhaktapur Bus Operator"}],"geometry":{"type":"Point","coordinates":[85.3171963,27.70583]}}]}