{"type":"FeatureCollection","features":[{"type":"Feature","properties":[{"building":"house"}],"geometry":{"type":"LineString","coordinates":[["85.4214491","27.74692"],["85.4214892","27.7469786"],["85.4215464","27.746948"],["85.4215554","27.7469609"],["85.4215985","27.7469404"],["85.4215663","27.7468913"],["85.4215862","27.7468777"],["85.4215647","27.7468464"],["85.4215454","27.7468576"],["85.4215368","27.7468436"],["85.4214905","27.7468684"],["85.4215046","27.7468873"],["85.4214491","27.74692"]]}},{"type":"Feature","properties":[{"building":"house"}],"geometry":{"type":"LineString","coordinates":[["85.4211321","27.7466675"],["85.4212053","27.7466"],["85.4212738","27.7466579"],["85.4212022","27.7467274"],["85.4211321","27.7466675"]]}},{"type":"Feature","properties":[{"building":"house"}],"geometry":{"type":"LineString","coordinates":[["85.4211267","27.7467649"],["85.4211637","27.7468031"],["85.4210975","27.7468522"],["85.4210597","27.7468133"],["85.4211267","27.7467649"]]}},{"type":"Feature","properties":[{"addr:city":"Obermaiselstein"},{"addr:country":"DE"},{"addr:housenumber":"20A"},{"addr:postcode":"87538"},{"addr:street":"Am Goldbach"},{"building":"yes"},{"building:levels":"2"}],"geometry":null},{"type":"Feature","properties":[{"addr:city":"Obermaiselstein"},{"addr:country":"DE"},{"addr:housenumber":"17"},{"addr:postcode":"87538"},{"addr:street":"Am Goldbach"},{"building":"yes"},{"building:levels":"3"},{"name":"Ferienheim ENBW"}],"geometry":null},{"type":"Feature","properties":[{"building":"house"}],"geometry":{"type":"LineString","coordinates":[["85.421389","27.7467104"],["85.4213505","27.7467471"],["85.4213116","27.7467183"],["85.4212635","27.7466825"],["85.4213002","27.7466453"],["85.421389","27.7467104"]]}},{"type":"Feature","properties":[{"building":"house"}],"geometry":{"type":"LineString","coordinates":[["85.4212635","27.7466825"],["85.4212139","27.7467342"],["85.4212606","27.7467724"],["85.4213116","27.7467183"],["85.4212635","27.7466825"]]}},{"type":"Feature","properties":[{"building":"yes"}],"geometry":{"type":"LineString","coordinates":[["85.4238504","27.7436217"],["85.4236834","27.7436517"],["85.4236986","27.7437199"],["85.4238655","27.7436899"],["85.4238504","27.7436217"]]}},{"type":"Feature","properties":[{"building":"yes"}],"geometry":{"type":"LineString","coordinates":[["85.4239473","27.7437488"],["85.4239356","27.7436972"],["85.4240407","27.7436755"],["85.4240512","27.7437282"],["85.4239473","27.7437488"]]}},{"type":"Feature","properties":[{"building":"yes"}],"geometry":{"type":"LineString","coordinates":[["85.4240932","27.7437065"],["85.4240909","27.7436496"],["85.4241714","27.7436455"],["85.4241749","27.7437034"],["85.4240932","27.7437065"]]}},{"type":"Feature","properties":[{"building":"yes"}],"geometry":{"type":"LineString","coordinates":[["85.4242415","27.7436155"],["85.4241819","27.7435577"],["85.4242333","27.7435143"],["85.4242928","27.7435721"],["85.4242415","27.7436155"]]}},{"type":"Feature","properties":[{"building":"yes"}],"geometry":{"type":"LineString","coordinates":[["85.423994","27.743473"],["85.4239496","27.7435215"],["85.4238842","27.7434792"],["85.4239274","27.7434327"],["85.423994","27.743473"]]}},{"type":"Feature","properties":[{"building":"yes"}],"geometry":{"type":"LineString","coordinates":[["85.4238492","27.7431092"],["85.4238912","27.7431537"],["85.423841","27.7431847"],["85.4238025","27.7431423"],["85.4238492","27.7431092"]]}},{"type":"Feature","properties":[{"building":"yes"}],"geometry":{"type":"LineString","coordinates":[["85.4216688","27.7404378"],["85.4216655","27.740367"],["85.4217898","27.7403651"],["85.4217887","27.7404369"],["85.4216688","27.7404378"]]}},{"type":"Feature","properties":[{"building":"yes"}],"geometry":{"type":"LineString","coordinates":[["85.4215196","27.7404512"],["85.421499","27.7403967"],["85.4216244","27.7403689"],["85.4216428","27.7404273"],["85.4215196","27.7404512"]]}},{"type":"Feature","properties":[{"emergency":"fire_hydrant"}],"geometry":{"type":"Point","coordinates":[10.2450817,47.4435283]}}]}