{"type":"FeatureCollection","features":[{"type":"Feature","properties":[{"landuse":"residential"},{"name":"Pennsylvania Brownstones"}],"geometry":null},{"type":"Feature","properties":[{"landuse":"grass"}],"geometry":{"type":"LineString","coordinates":[["-104.9798253","39.7380486"],["-104.9798295","39.7383387"],["-104.9798532","39.7383385"],["-104.9798503","39.7381387"],["-104.9798442","39.7381387"],["-104.9798429","39.7380484"],["-104.9798253","39.7380486"]]}},{"type":"Feature","properties":[{"landuse":"grass"}],"geometry":{"type":"LineString","coordinates":[["-104.9797998","39.7381138"],["-104.9794892","39.738117"],["-104.9794867","39.7379717"],["-104.9796829","39.7379698"],["-104.9796825","39.7379461"],["-104.979797","39.737945"],["-104.9797998","39.7381138"]]}},{"type":"Feature","properties":[{"landuse":"grass"}],"geometry":{"type":"LineString","coordinates":[["-104.9797999","39.7381138"],["-104.9794889","39.7381173"],["-104.9794862","39.7379713"],["-104.9795403","39.7379707"],["-104.9795399","39.7379471"],["-104.9795939","39.7379465"],["-104.9795944","39.7379712"],["-104.9796834","39.7379702"],["-104.979683","39.7379465"],["-104.9797967","39.7379452"],["-104.9797999","39.7381138"]]}},{"type":"Feature","properties":[{"landuse":"grass"}],"geometry":{"type":"LineString","coordinates":[["-104.979823","39.738027"],["-104.9798197","39.7375068"],["-104.9798422","39.7375067"],["-104.9798454","39.738027"],["-104.979823","39.738027"]]}},{"type":"Feature","properties":[{"addr:city":"Denver"},{"addr:housenumber":"504"},{"addr:postcode":"80203"},{"addr:street":"East Colfax Avenue"},{"amenity":"pub"},{"name":"Prohibition"}],"geometry":{"type":"Point","coordinates":["-104.9809436","39.7399003"]}},{"type":"Feature","properties":[{"addr:city":"Denver"},{"addr:housenumber":"516"},{"addr:postcode":"80203"},{"addr:street":"East Colfax Avenue"},{"name":"Martha's Beauty Salon"},{"shop":"beauty"}],"geometry":{"type":"Point","coordinates":["-104.9806285","39.7398993"]}},{"type":"Feature","properties":[{"addr:city":"Denver"},{"addr:housenumber":"518"},{"addr:postcode":"80203"},{"addr:street":"East Colfax Avenue"},{"name":"Jack's Market"},{"shop":"convenience"}],"geometry":{"type":"Point","coordinates":["-104.9805373","39.7399013"]}}]}