{"type":"FeatureCollection","features":[{"type":"Feature","properties":[{"highway":"track"},{"surface":"unpaved"}],"geometry":{"type":"LineString","coordinates":[["112.2189316","-7.8722199"],["112.2172058","-7.8735223"],["112.2168994","-7.8736506"],["112.216111","-7.8742137"]]}},{"type":"Feature","properties":[{"highway":"track"}],"geometry":{"type":"LineString","coordinates":[["112.2189316","-7.8722199"],["112.2189748","-7.8721746"],["112.2190337","-7.872235"],["112.2195189","-7.8717437"],["112.2197492","-7.8715104"],["112.2198595","-7.8714424"]]}},{"type":"Feature","properties":[{"highway":"track"},{"surface":"unpaved"}],"geometry":{"type":"LineString","coordinates":[["112.2190337","-7.872235"],["112.2188078","-7.8720467"],["112.2185777","-7.8717978"],["112.2183194","-7.8715594"],["112.2178203","-7.8713386"]]}},{"type":"Feature","properties":[{"highway":"track"},{"surface":"unpaved"}],"geometry":{"type":"LineString","coordinates":[["112.2157168","-7.8693458"],["112.2156341","-7.8694212"],["112.2155831","-7.8695833"],["112.2155322","-7.869679"],["112.2154168","-7.8697746"],["112.2152988","-7.8698091"]]}},{"type":"Feature","properties":[{"highway":"track"},{"surface":"unpaved"}],"geometry":{"type":"LineString","coordinates":[["112.2152988","-7.8698091"],["112.2151443","-7.8699671"],["112.2150088","-7.8700861"],["112.2149656","-7.8701166"],["112.2145589","-7.8695459"],["112.2143617","-7.869375"]]}},{"type":"Feature","properties":[{"highway":"track"},{"surface":"unpaved"}],"geometry":{"type":"LineString","coordinates":[["112.2149656","-7.8701166"],["112.2146976","-7.8703242"],["112.2143587","-7.8704554"],["112.2141461","-7.8705226"],["112.2138996","-7.8706477"],["112.2137975","-7.8707104"]]}},{"type":"Feature","properties":[{"highway":"track"},{"surface":"unpaved"}],"geometry":{"type":"LineString","coordinates":[["112.2222409","-7.8714563"],["112.2227478","-7.8719293"],["112.2228175","-7.8720249"],["112.2228068","-7.8720887"],["112.2225922","-7.872365"],["112.2225574","-7.8723862"],["112.2220316","-7.8724553"],["112.2210929","-7.8731621"],["112.2198725","-7.874084"]]}},{"type":"Feature","properties":[{"highway":"track"}],"geometry":{"type":"LineString","coordinates":[["112.2190337","-7.872235"],["112.21982","-7.8729793"]]}},{"type":"Feature","properties":[{"highway":"track"}],"geometry":{"type":"LineString","coordinates":[["112.2178203","-7.8713386"],["112.2175372","-7.8710721"],["112.2172045","-7.8706795"],["112.2170842","-7.8706234"],["112.216914","-7.8707573"],["112.2167854","-7.8708782"],["112.2167351","-7.8709334"],["112.216664","-7.871017"],["112.2163374","-7.8714998"],["112.2162136","-7.8715875"]]}},{"type":"Feature","properties":[{"highway":"track"}],"geometry":{"type":"LineString","coordinates":[["112.2162136","-7.8715875"],["112.2158172","-7.8718013"],["112.2153748","-7.8720397"]]}},{"type":"Feature","properties":[{"highway":"track"}],"geometry":{"type":"LineString","coordinates":[["112.2170842","-7.8706234"],["112.216722","-7.8702082"],["112.2164318","-7.8699698"]]}},{"type":"Feature","properties":[{"highway":"track"},{"surface":"unpaved"}],"geometry":{"type":"LineString","coordinates":[["112.2164318","-7.8699698"],["112.2157168","-7.8693458"],["112.2162265","-7.8688339"]]}},{"type":"Feature","properties":[{"highway":"track"},{"surface":"unpaved"}],"geometry":{"type":"LineString","coordinates":[["112.2157168","-7.8693458"],["112.215132","-7.8688256"]]}},{"type":"Feature","properties":[{"highway":"track"}],"geometry":{"type":"LineString","coordinates":[["112.2162136","-7.8715875"],["112.2158172","-7.8718013"],["112.2154824","-7.8719817"],["112.2153748","-7.8720397"]]}},{"type":"Feature","properties":[{"highway":"track"},{"surface":"unpaved"}],"geometry":{"type":"LineString","coordinates":[["112.2220945","-7.871303"],["112.2221553","-7.8713631"],["112.222216","-7.8714279"],["112.2222673","-7.871488"],["112.2222907","-7.8715135"],["112.2223724","-7.8715828"],["112.2225335","-7.8717216"],["112.2226456","-7.8718095"],["112.222718","-7.8718812"],["112.2227507","-7.8719205"],["112.2227927","-7.871983"],["112.2228137","-7.8720246"],["112.2228161","-7.8720454"],["112.222802","-7.8720986"],["112.2227624","-7.8721565"],["112.22269","-7.8722444"],["112.2225872","-7.8723577"],["112.2225709","-7.8723739"],["112.2225289","-7.8723878"],["112.2224705","-7.8723993"],["112.2223771","-7.8724155"],["112.2222837","-7.8724248"],["112.2222393","-7.8724271"],["112.2221763","-7.872434"],["112.2221226","-7.8724433"],["112.2220572","-7.8724456"],["112.2220175","-7.8724618"],["112.2219895","-7.8724641"],["112.2219404","-7.8725104"],["112.22184","-7.8725913"],["112.2217443","-7.8726746"],["112.2215925","-7.8727856"],["112.2214384","-7.8729036"],["112.2211932","-7.8730863"]]}},{"type":"Feature","properties":[{"highway":"track"},{"surface":"unpaved"}],"geometry":{"type":"LineString","coordinates":[["112.2230865","-7.8688241"],["112.2230638","-7.8690226"],["112.2227783","-7.8690785"],["112.222358","-7.8690415"],["112.2216341","-7.8698465"],["112.2214566","-7.8702027"],["112.2213404","-7.8702905"],["112.2211017","-7.870693"],["112.2204713","-7.871003"],["112.2203172","-7.8710215"],["112.2198595","-7.8714424"]]}},{"type":"Feature","properties":[],"geometry":{"type":"Point","coordinates":["112.2213404","-7.8702905"]}},{"type":"Feature","properties":[{"highway":"track"},{"surface":"unpaved"}],"geometry":{"type":"LineString","coordinates":[["112.2230726","-7.8729628"],["112.2225201","-7.8735048"]]}},{"type":"Feature","properties":[{"highway":"path"},{"surface":"unpaved"}],"geometry":{"type":"LineString","coordinates":[["112.2253234","-7.8737764"],["112.2246689","-7.8739173"],["112.2244435","-7.8739345"],["112.224296","-7.8739823"],["112.224186","-7.8740408"]]}},{"type":"Feature","properties":[{"highway":"track"},{"surface":"unpaved"}],"geometry":{"type":"LineString","coordinates":[["112.2225728","-7.8723861"],["112.2230726","-7.8729628"],["112.2232883","-7.8727808"],["112.2233534","-7.8727698"],["112.2242337","-7.8734987"]]}},{"type":"Feature","properties":[{"highway":"track"},{"surface":"unpaved"}],"geometry":{"type":"LineString","coordinates":[["112.2242337","-7.8734987"],["112.2242741","-7.8735292"],["112.2244205","-7.8738163"]]}},{"type":"Feature","properties":[{"highway":"path"},{"surface":"unpaved"}],"geometry":{"type":"LineString","coordinates":[["112.2244205","-7.8738163"],["112.2244435","-7.8739345"]]}},{"type":"Feature","properties":[{"highway":"track"},{"surface":"unpaved"}],"geometry":{"type":"LineString","coordinates":[["112.2230865","-7.8688241"],["112.2230638","-7.8690226"],["112.2227783","-7.8690785"],["112.2223580","-7.8690415"],["112.2216341","-7.8698465"],["112.2214566","-7.8702027"],["112.2213404","-7.8702905"],["112.2211017","-7.8706930"],["112.2204713","-7.8710030"],["112.2203172","-7.8710215"],["112.2198595","-7.8714424"]]}},{"type":"Feature","properties":[{"highway":"track"},{"surface":"unpaved"}],"geometry":{"type":"LineString","coordinates":[["112.2167315","-7.8737705"],["112.216054","-7.8727887"],["112.2156684","-7.8722925"],["112.2154824","-7.8719817"]]}},{"type":"Feature","properties":[{"highway":"path"},{"surface":"unpaved"}],"geometry":{"type":"LineString","coordinates":[["112.2153748","-7.8720397"],["112.2152587","-7.872087"],["112.2150615","-7.8721655"],["112.2148562","-7.8722682"],["112.2148135","-7.8722863"],["112.214718","-7.872383"],["112.2145472","-7.8725723"],["112.2144805","-7.8726484"]]}},{"type":"Feature","properties":[{"highway":"track"},{"surface":"unpaved"}],"geometry":{"type":"LineString","coordinates":[["112.2189316","-7.8722199"],["112.2174971","-7.8732651"],["112.2172058","-7.8735223"],["112.2168994","-7.8736506"],["112.2167315","-7.8737705"],["112.2161110","-7.8742137"]]}},{"type":"Feature","properties":[{"embankment":"yes"},{"fixme":"check: embankment?"},{"highway":"track"}],"geometry":{"type":"LineString","coordinates":[["112.2147065","-7.8728705"],["112.2144805","-7.8726484"],["112.2132291","-7.8714181"],["112.2131122","-7.8712542"],["112.2120518","-7.8700316"],["112.2107975","-7.8686410"],["112.2105952","-7.8683396"],["112.2105495","-7.8681949"],["112.2105302","-7.8679806"],["112.2104721","-7.8664384"],["112.2104703","-7.8655618"],["112.2105090","-7.8654102"],["112.2105681","-7.8653169"],["112.2106005","-7.8652656"],["112.2108503","-7.8647933"],["112.2118823","-7.8631172"]]}},{"type":"Feature","properties":[{"highway":"track"},{"surface":"unpaved"}],"geometry":{"type":"LineString","coordinates":[["112.2218126","-7.8579627"],["112.2217861","-7.8580246"],["112.2207385","-7.8604701"],["112.2202715","-7.8614693"],["112.2201125","-7.8619949"],["112.2200447","-7.8622848"],["112.2198792","-7.8631347"]]}},{"type":"Feature","properties":[{"highway":"track"},{"surface":"unpaved"}],"geometry":{"type":"LineString","coordinates":[["112.2198477","-7.8582211"],["112.2253258","-7.86062"]]}},{"type":"Feature","properties":[{"highway":"track"},{"surface":"unpaved"}],"geometry":{"type":"LineString","coordinates":[["112.2216347","-7.8579586"],["112.2217861","-7.8580246"],["112.2218874","-7.8581051"],["112.2253381","-7.8595823"]]}},{"type":"Feature","properties":[{"highway":"track"},{"surface":"unpaved"}],"geometry":{"type":"LineString","coordinates":[["112.21986","-7.8592588"],["112.2241992","-7.8611563"],["112.225332","-7.8616516"]]}},{"type":"Feature","properties":[{"highway":"track"},{"surface":"unpaved"}],"geometry":{"type":"LineString","coordinates":[["112.2234024","-7.8579451"],["112.2239969","-7.8603502"],["112.2241992","-7.8611563"],["112.224365","-7.8621803"],["112.2244924","-7.8627903"],["112.2246694","-7.8633653"]]}},{"type":"Feature","properties":[{"highway":"track"},{"surface":"unpaved"}],"geometry":{"type":"LineString","coordinates":[["112.219849","-7.8600697"],["112.2205285","-7.8603782"]]}},{"type":"Feature","properties":[{"highway":"track"},{"surface":"unpaved"}],"geometry":{"type":"LineString","coordinates":[["112.2253065","-7.862615"],["112.2205285","-7.8603782"]]}},{"type":"Feature","properties":[{"highway":"track"},{"surface":"unpaved"}],"geometry":{"type":"LineString","coordinates":[["112.2198561","-7.8612547"],["112.2202715","-7.8614693"],["112.2215691","-7.86204"]]}},{"type":"Feature","properties":[{"highway":"track"},{"surface":"unpaved"}],"geometry":{"type":"LineString","coordinates":[["112.2215691","-7.86204"],["112.2231546","-7.8626781"],["112.2249101","-7.8633723"]]}},{"type":"Feature","properties":[{"highway":"track"},{"surface":"unpaved"}],"geometry":{"type":"LineString","coordinates":[["112.2198619","-7.8621309"],["112.2201113","-7.8622584"],["112.2204144","-7.8624019"],["112.2206075","-7.8625374"],["112.2206885","-7.86259"],["112.2206933","-7.8625932"]]}},{"type":"Feature","properties":[{"highway":"track"},{"surface":"unpaved"},{"width":"-1"}],"geometry":{"type":"LineString","coordinates":[["112.2222624","-7.8633717"],["112.2212089","-7.8628561"],["112.2211221","-7.8628361"]]}},{"type":"Feature","properties":[{"highway":"track"},{"surface":"unpaved"},{"width":"1"}],"geometry":{"type":"LineString","coordinates":[["112.2211221","-7.8628361"],["112.2209165","-7.8626674"],["112.2207502","-7.8626036"],["112.2207348","-7.8626136"],["112.2206885","-7.86259"]]}},{"type":"Feature","properties":[{"leisure":"swimming_pool"}],"geometry":{"type":"LineString","coordinates":[["112.1911479","-7.9834346"],["112.1912142","-7.983406"],["112.1912364","-7.9834449"],["112.191168","-7.9834744"],["112.1911479","-7.9834346"]]}},{"type":"Feature","properties":[{"building":"yes"}],"geometry":{"type":"LineString","coordinates":[["112.1910899","-7.9832494"],["112.1912032","-7.9832091"],["112.1911784","-7.9831723"],["112.1911802","-7.9831478"],["112.1910722","-7.9831881"],["112.1910598","-7.9832091"],["112.1910899","-7.9832494"]]}},{"type":"Feature","properties":[{"building":"yes"}],"geometry":{"type":"LineString","coordinates":[["112.1910085","-7.9831898"],["112.1910527","-7.9831635"],["112.1910722","-7.9831881"],["112.1911041","-7.9832775"],["112.1910474","-7.9832915"],["112.191016","-7.9832094"],["112.1910085","-7.9831898"]]}},{"type":"Feature","properties":[{"building":"yes"}],"geometry":{"type":"LineString","coordinates":[["112.1909536","-7.9832389"],["112.190982","-7.9832231"],["112.191016","-7.9832094"],["112.1910474","-7.9832915"],["112.191012","-7.9833055"],["112.1909767","-7.9833143"],["112.1909536","-7.9832389"]]}},{"type":"Feature","properties":[{"highway":"motorway"},{"oneway":"no"}],"geometry":{"type":"LineString","coordinates":[["112.1896428","-7.9852235"],["112.1899118","-7.9857983"]]}},{"type":"Feature","properties":[{"building":"yes"}],"geometry":{"type":"LineString","coordinates":[["112.1896234","-7.9850036"],["112.189676","-7.9849793"],["112.1897507","-7.9851111"],["112.18969","-7.9851446"],["112.1896234","-7.9850036"]]}},{"type":"Feature","properties":[{"building":"yes"}],"geometry":{"type":"LineString","coordinates":[["112.1897378","-7.9849862"],["112.1897647","-7.9850371"],["112.1898826","-7.9849805"],["112.1898534","-7.984925"],["112.189831","-7.9849368"],["112.1897759","-7.9849661"],["112.1897378","-7.9849862"]]}},{"type":"Feature","properties":[{"building":"yes"}],"geometry":{"type":"LineString","coordinates":[["112.1898896","-7.9850232"],["112.1899235","-7.9850799"],["112.1901114","-7.9849909"],["112.1900717","-7.9849377"],["112.1898896","-7.9850232"]]}},{"type":"Feature","properties":[{"building":"yes"}],"geometry":{"type":"LineString","coordinates":[["112.1895907","-7.9847481"],["112.1896047","-7.9847712"],["112.1895767","-7.9847839"],["112.1895942","-7.9848174"],["112.1896176","-7.984807"],["112.1896293","-7.984829"],["112.1897297","-7.9847816"],["112.1896876","-7.9847007"],["112.1895907","-7.9847481"]]}},{"type":"Feature","properties":[{"building":"yes"}],"geometry":{"type":"LineString","coordinates":[["112.1895732","-7.9849481"],["112.1895977","-7.9849978"],["112.1897121","-7.9849435"],["112.1896783","-7.9848914"],["112.1895732","-7.9849481"]]}},{"type":"Feature","properties":[{"building":"yes"}],"geometry":{"type":"LineString","coordinates":[["112.1897241","-7.9848522"],["112.1897729","-7.984824"],["112.189831","-7.9849368"],["112.1897759","-7.9849661"],["112.1897241","-7.9848522"]]}},{"type":"Feature","properties":[{"building":"yes"}],"geometry":{"type":"LineString","coordinates":[["112.1901246","-7.9851944"],["112.1901673","-7.985285"],["112.1902242","-7.9852588"],["112.1901835","-7.9851682"],["112.1901246","-7.9851944"]]}},{"type":"Feature","properties":[{"building":"yes"}],"geometry":{"type":"LineString","coordinates":[["112.1902018","-7.985287"],["112.1902465","-7.9852689"],["112.1902852","-7.9853272"],["112.1902343","-7.9853474"],["112.1902018","-7.985287"]]}},{"type":"Feature","properties":[{"building":"yes"}],"geometry":{"type":"LineString","coordinates":[["112.1900392","-7.9852326"],["112.1901246","-7.9851944"],["112.1901673","-7.985285"],["112.1900859","-7.9853152"],["112.1900392","-7.9852326"]]}},{"type":"Feature","properties":[{"building":"yes"}],"geometry":{"type":"LineString","coordinates":[["112.1901449","-7.9854178"],["112.1902038","-7.9853916"],["112.1902526","-7.9854722"],["112.1901896","-7.9855044"],["112.1901449","-7.9854178"]]}},{"type":"Feature","properties":[{"building":"yes"}],"geometry":{"type":"LineString","coordinates":[["112.1902343","-7.9853474"],["112.1902831","-7.985442"],["112.1903604","-7.9854218"],["112.1903014","-7.9853252"],["112.1902343","-7.9853474"]]}},{"type":"Feature","properties":[{"building":"yes"}],"geometry":{"type":"LineString","coordinates":[["112.190336","-7.9855648"],["112.1903522","-7.9856191"],["112.1902994","-7.9856453"],["112.1903136","-7.9856916"],["112.1903685","-7.9856795"],["112.1904417","-7.9856614"],["112.190401","-7.9855487"],["112.190336","-7.9855648"]]}},{"type":"Feature","properties":[{"building":"yes"}],"geometry":{"type":"LineString","coordinates":[["112.1916512","-7.9841516"],["112.1915576","-7.9841959"],["112.19158","-7.9842563"],["112.1916918","-7.984216"],["112.1916512","-7.9841516"]]}},{"type":"Feature","properties":[{"building":"yes"}],"geometry":{"type":"LineString","coordinates":[["112.1915742","-7.9844384"],["112.1916379","-7.9844156"],["112.1916273","-7.9843875"],["112.1917016","-7.9843578"],["112.1916786","-7.9842964"],["112.1915937","-7.984335"],["112.1915866","-7.9842964"],["112.1915359","-7.9843132"],["112.1915742","-7.9844384"]]}},{"type":"Feature","properties":[{"highway":"track"},{"surface":"unpaved"}],"geometry":{"type":"LineString","coordinates":[["112.2308801","-7.8599299"],["112.2311512","-7.8600886"],["112.2315148","-7.8602534"],["112.2318044","-7.8603755"],["112.2320632","-7.8604976"],["112.2324083","-7.8606563"],["112.2326486","-7.8606868"]]}},{"type":"Feature","properties":[{"highway":"track"},{"surface":"unpaved"}],"geometry":{"type":"LineString","coordinates":[["112.2322604","-7.8579704"],["112.2324268","-7.8586724"],["112.2324946","-7.8595209"],["112.232587","-7.8601741"],["112.2326856","-7.8608455"],["112.2328027","-7.8615902"]]}},{"type":"Feature","properties":[{"highway":"track"},{"surface":"unpaved"}],"geometry":{"type":"LineString","coordinates":[["112.2328027","-7.8615902"],["112.2328774","-7.8620251"],["112.2332977","-7.8624599"],["112.2343531","-7.8633667"]]}}]}