{"type":"FeatureCollection","features":[{"type":"Feature","properties":[{"natural":"scrub"}],"geometry":{"type":"LineString","coordinates":[["-46.4925346","-23.5532189"],["-46.4918387","-23.5534328"],["-46.4922499","-23.5525592"],["-46.4923033","-23.5525157"],["-46.4923745","-23.552503"],["-46.4924654","-23.552523"],["-46.4925168","-23.5525628"],["-46.4925504","-23.5526063"],["-46.4925781","-23.5527006"],["-46.4925346","-23.5532189"]]}},{"type":"Feature","properties":[{"natural":"scrub"}],"geometry":{"type":"LineString","coordinates":[["-46.4931139","-23.5530014"],["-46.4930131","-23.5530594"],["-46.4927936","-23.5531537"],["-46.4926513","-23.5531954"],["-46.4926908","-23.5525211"],["-46.4927521","-23.5526136"],["-46.4927976","-23.5527006"],["-46.4928688","-23.5528166"],["-46.4929202","-23.55288"],["-46.4929874","-23.5529416"],["-46.4930447","-23.5529743"],["-46.4931139","-23.5530014"]]}},{"type":"Feature","properties":[{"natural":"scrub"}],"geometry":{"type":"LineString","coordinates":[["-46.4930032","-23.5533277"],["-46.4926552","-23.5534545"],["-46.4925742","-23.5537989"],["-46.4926473","-23.5537608"],["-46.4927976","-23.553634"],["-46.492932","-23.5534799"],["-46.4929874","-23.5533839"],["-46.4930032","-23.5533277"]]}},{"type":"Feature","properties":[{"name":"Endereço"}],"geometry":{"type":"LineString","coordinates":[["-46.5722764","-23.5635377"],["-46.5720155","-23.5637488"],["-46.5713541","-23.5642841"],["-46.5711329","-23.5644631"],["-46.5708769","-23.5646703"],["-46.5707559","-23.5647682"],["-46.5705866","-23.5649056"]]}},{"type":"Feature","properties":[{"highway":"residential"},{"name":"Largo Doutor Borges Macedo"}],"geometry":{"type":"LineString","coordinates":[["-46.5747625","-23.5658769"],["-46.5746986","-23.565812"],["-46.5746334","-23.5657284"],["-46.5746269","-23.5656777"],["-46.57464","-23.5656239"],["-46.5746986","-23.5655941"],["-46.5747735","-23.5655642"],["-46.5748223","-23.5655165"],["-46.5748549","-23.5654329"],["-46.5748679","-23.5653254"],["-46.5748549","-23.5652448"],["-46.5748454","-23.5651317"]]}},{"type":"Feature","properties":[{"highway":"residential"},{"name":"Rua Belchior Pires"},{"surface":"asphalt"}],"geometry":{"type":"LineString","coordinates":[["-46.5738168","-23.5635638"],["-46.5732668","-23.5639996"],["-46.5732293","-23.5640143"],["-46.5730638","-23.5640725"],["-46.5722090","-23.5642389"],["-46.5717247","-23.5645526"],["-46.5714914","-23.5647247"],["-46.5712918","-23.5648915"],["-46.5707794","-23.5653038"]]}},{"type":"Feature","properties":[{"highway":"residential"},{"name":"rua Coronel José Teofilo Ramos"}],"geometry":{"type":"LineString","coordinates":[["-46.5732668","-23.5639996"],["-46.5734023","-23.5643299"],["-46.5736467","-23.5643552"],["-46.5738505","-23.5644393"],["-46.5742405","-23.5647298"],["-46.5748454","-23.5651317"],["-46.5750165","-23.5652454"],["-46.5752667","-23.5653569"]]}},{"type":"Feature","properties":[{"highway":"residential"},{"name":"Rua Pirajá"},{"oneway":"yes"},{"surface":"asphalt"}],"geometry":{"type":"LineString","coordinates":[["-46.5731529","-23.5678178"],["-46.5735728","-23.5674291"],["-46.5737658","-23.5671913"],["-46.5739436","-23.5669721"],["-46.5742809","-23.5665440"],["-46.5745491","-23.5661703"],["-46.5747625","-23.5658769"],["-46.5748066","-23.5658163"],["-46.5749568","-23.5655213"],["-46.5750165","-23.5652454"],["-46.5751406","-23.5648133"],["-46.5752962","-23.5643907"],["-46.5754934","-23.5639124"],["-46.5756766","-23.5635706"]]}},{"type":"Feature","properties":[{"addr:city":"São Paulo"},{"addr:housenumber":"1087"},{"addr:postcode":"03345-001"},{"addr:street":"Avenida Sapopemba"},{"addr:suburb":"Vila Regente Feijó"},{"amenity":"fuel"},{"building":"yes"},{"name":"Posto Shell"}],"geometry":null},{"type":"Feature","properties":[{"addr:city":"São Paulo"},{"addr:housenumber":"1088"},{"addr:postcode":"03345-000"},{"addr:street":"Avenida Sapopemba"},{"addr:suburb":"Vila Regente Feijó"},{"amenity":"fuel"},{"building":"roof"},{"name":"Posto BR"}],"geometry":null},{"type":"Feature","properties":[{"highway":"footway"},{"name":"Rua do Açal"},{"surface":"asphalt"}],"geometry":{"type":"LineString","coordinates":[["-46.5676025","-23.5639269"],["-46.5672138","-23.5642079"]]}},{"type":"Feature","properties":[{"highway":"residential"},{"name":"Rua do Açal"},{"surface":"asphalt"}],"geometry":{"type":"LineString","coordinates":[["-46.5672138","-23.5642079"],["-46.5670306","-23.5643404"],["-46.5667928","-23.5645075"],["-46.5666886","-23.5645702"],["-46.5658937","-23.5649747"]]}},{"type":"Feature","properties":[{"highway":"residential"},{"name":"Rotatoria"},{"oneway":"yes"},{"surface":"asphalt"}],"geometry":{"type":"LineString","coordinates":[["-46.5608083","-23.5740154"],["-46.5607969","-23.5740569"],["-46.5607717","-23.5740929"],["-46.5607352","-23.5741197"],["-46.5606914","-23.5741344"],["-46.5606424","-23.5741353"],["-46.5605958","-23.5741212"],["-46.5605571","-23.5740936"],["-46.5605306","-23.5740557"],["-46.5605268","-23.5740408"],["-46.5605195","-23.5740119"],["-46.5605249","-23.5739672"],["-46.5605463","-23.5739267"],["-46.5605812","-23.5738952"],["-46.5606233","-23.5738767"],["-46.5606696","-23.5738714"],["-46.5607154","-23.5738799"],["-46.5607558","-23.5739013"],["-46.5607866","-23.5739334"],["-46.5608048","-23.5739728"],["-46.5608083","-23.5740154"]]}},{"type":"Feature","properties":[{"access":"permissive"},{"highway":"residential"},{"horse":"no"},{"name":"Travessa André Gelly"},{"surface":"asphalt"}],"geometry":{"type":"LineString","coordinates":[["-46.5686967","-23.5647774"],["-46.5677606","-23.5638126"]]}},{"type":"Feature","properties":[{"highway":"residential"},{"name":"Rua Araim"},{"surface":"asphalt"}],"geometry":{"type":"LineString","coordinates":[["-46.5672138","-23.5642079"],["-46.5663506","-23.5633299"],["-46.5663168","-23.5632356"]]}},{"type":"Feature","properties":[{"highway":"residential"},{"name":"Rua Barraquinha"},{"surface":"asphalt"}],"geometry":{"type":"LineString","coordinates":[["-46.5676025","-23.5639269"],["-46.5667853","-23.5631385"]]}},{"type":"Feature","properties":[{"highway":"residential"},{"name":"Rua Girolamo Carli"},{"surface":"asphalt"}],"geometry":{"type":"LineString","coordinates":[["-46.5677536","-23.5641195"],["-46.5676266","-23.5642239"],["-46.5673449","-23.5644487"],["-46.5672250","-23.5645345"],["-46.5671706","-23.5645672"],["-46.5660575","-23.5651213"]]}},{"type":"Feature","properties":[{"highway":"residential"},{"name":"Rua Barra do Morro"},{"surface":"asphalt"}],"geometry":{"type":"LineString","coordinates":[["-46.5683863","-23.5649945"],["-46.5676266","-23.5642239"]]}},{"type":"Feature","properties":[{"highway":"residential"},{"name":"Travessa Suspiro Branco"},{"surface":"asphalt"}],"geometry":{"type":"LineString","coordinates":[["-46.5680902","-23.5652015"],["-46.5673449","-23.5644487"]]}},{"type":"Feature","properties":[{"highway":"residential"},{"name":"Rua José Coelho"},{"surface":"asphalt"}],"geometry":{"type":"LineString","coordinates":[["-46.5688869","-23.5646213"],["-46.5676323","-23.5633417"],["-46.5672607","-23.5629464"],["-46.5668809","-23.5626617"],["-46.5665047","-23.5623951"],["-46.5660421","-23.5620706"]]}},{"type":"Feature","properties":[{"highway":"residential"},{"name":"Rua Oscár Ferreira do Amaral"},{"surface":"asphalt"}],"geometry":{"type":"LineString","coordinates":[["-46.5692079","-23.5643584"],["-46.5684266","-23.5635623"],["-46.5679519","-23.5630771"]]}},{"type":"Feature","properties":[{"highway":"service"},{"surface":"asphalt"}],"geometry":{"type":"LineString","coordinates":[["-46.5655075","-23.5635296"],["-46.5648512","-23.5638656"]]}},{"type":"Feature","properties":[{"highway":"residential"},{"name":"Rua Professor Giulianni"},{"oneway":"yes"},{"surface":"asphalt"}],"geometry":{"type":"LineString","coordinates":[["-46.5626628","-23.5637021"],["-46.5628961","-23.5641102"],["-46.5629820","-23.5642627"],["-46.5631402","-23.5645233"],["-46.5634237","-23.5650840"],["-46.5638418","-23.5660049"],["-46.5642521","-23.5669107"],["-46.5646857","-23.5678251"]]}},{"type":"Feature","properties":[{"highway":"residential"},{"name":"Rua Piranji"},{"oneway":"yes"},{"surface":"asphalt"}],"geometry":{"type":"LineString","coordinates":[["-46.5646857","-23.5678251"],["-46.5648908","-23.5682772"],["-46.5649044","-23.5683897"],["-46.5649027","-23.5684750"],["-46.5648491","-23.5686127"],["-46.5645701","-23.5690257"],["-46.5645165","-23.5691339"],["-46.5644628","-23.5693404"],["-46.5644628","-23.5694682"],["-46.5644879","-23.5696596"]]}},{"type":"Feature","properties":[{"highway":"residential"},{"name":"Rua Tenente Chantré"},{"surface":"asphalt"}],"geometry":{"type":"LineString","coordinates":[["-46.5641508","-23.5697303"],["-46.5635167","-23.5683533"]]}},{"type":"Feature","properties":[{"highway":"residential"},{"name":"Rua Doutor Carlos Signorelli"},{"surface":"asphalt"}],"geometry":{"type":"LineString","coordinates":[["-46.5636582","-23.5712973"],["-46.5632934","-23.5713465"],["-46.5628642","-23.5714350"],["-46.5623493","-23.5716513"]]}},{"type":"Feature","properties":[{"highway":"residential"},{"name":"Rua Doutor Carvalho Parreiras"},{"noexit":"yes"},{"surface":"asphalt"}],"geometry":{"type":"LineString","coordinates":[["-46.5645763","-23.5721911"],["-46.5646655","-23.5725833"]]}},{"type":"Feature","properties":[{"highway":"residential"},{"name":"Rua Doutor Carvalho Parreiras"},{"surface":"asphalt"}],"geometry":{"type":"LineString","coordinates":[["-46.5646655","-23.5725833"],["-46.5648342","-23.5733134"]]}},{"type":"Feature","properties":[{"highway":"residential"},{"name":"Rua Luis Geraldo da Silva"},{"surface":"asphalt"}],"geometry":{"type":"LineString","coordinates":[["-46.5628220","-23.5734902"],["-46.5613185","-23.5738542"],["-46.5608048","-23.5739728"]]}},{"type":"Feature","properties":[{"highway":"residential"},{"name":"Rua Luis Geraldo da Silva"},{"surface":"asphalt"}],"geometry":{"type":"LineString","coordinates":[["-46.5605268","-23.5740408"],["-46.5600310","-23.5741654"],["-46.5594871","-23.5743045"],["-46.5570975","-23.5749122"]]}},{"type":"Feature","properties":[{"natural":"scrub"}],"geometry":{"type":"LineString","coordinates":[["-46.5607649","-23.5740296"],["-46.5607697","-23.5739994"],["-46.5607639","-23.5739693"],["-46.5607465","-23.5739406"],["-46.5607195","-23.573919"],["-46.5606861","-23.573907"],["-46.5606503","-23.5739061"],["-46.5606162","-23.5739163"],["-46.560588","-23.5739364"],["-46.5605688","-23.5739642"],["-46.5605609","-23.5739962"],["-46.5605647","-23.5740266"],["-46.5605786","-23.5740543"],["-46.5606014","-23.5740766"],["-46.5606307","-23.5740912"],["-46.5606635","-23.5740965"],["-46.5606965","-23.5740922"],["-46.5607263","-23.5740785"],["-46.5607499","-23.5740569"],["-46.5607649","-23.5740296"]]}},{"type":"Feature","properties":[{"highway":"residential"},{"name":"Rua Antônio Gomes Castilho"},{"surface":"asphalt"}],"geometry":{"type":"LineString","coordinates":[["-46.5603803","-23.5730509"],["-46.5606233","-23.5738767"]]}},{"type":"Feature","properties":[{"highway":"residential"},{"name":"Rua João Camevalli"},{"surface":"asphalt"}],"geometry":{"type":"LineString","coordinates":[["-46.5597629","-23.5732691"],["-46.5600310","-23.5741654"]]}},{"type":"Feature","properties":[{"highway":"residential"},{"name":"Rua Antônio Gomes"},{"oneway":"yes"},{"surface":"asphalt"}],"geometry":{"type":"LineString","coordinates":[["-46.5569973","-23.5741401"],["-46.5570975","-23.5749122"],["-46.5571324","-23.5752227"],["-46.5571444","-23.5753293"],["-46.5571512","-23.5753894"],["-46.5571596","-23.5754612"],["-46.5573471","-23.5770706"],["-46.5574226","-23.5776978"],["-46.5574611","-23.5780171"],["-46.5575522","-23.5787733"],["-46.5576099","-23.5792524"],["-46.5576885","-23.5798922"],["-46.5578794","-23.5808640"]]}},{"type":"Feature","properties":[{"highway":"secondary"},{"name":"Avenida Sapopemba"},{"surface":"asphalt"}],"geometry":{"type":"LineString","coordinates":[["-46.5496934","-23.5766899"],["-46.5499309","-23.5765287"],["-46.5504459","-23.5762691"],["-46.5506932","-23.5761574"],["-46.5517621","-23.5757789"],["-46.5521411","-23.5756712"],["-46.5537042","-23.5751736"],["-46.5539428","-23.5750979"],["-46.5543960","-23.5749540"],["-46.5554412","-23.5746221"],["-46.5558570","-23.5744901"],["-46.5567029","-23.5742456"],["-46.5569973","-23.5741401"],["-46.5575457","-23.5739786"],["-46.5583783","-23.5737172"],["-46.5592057","-23.5734644"],["-46.5597629","-23.5732691"],["-46.5600601","-23.5731642"],["-46.5602366","-23.5731007"],["-46.5603803","-23.5730509"]]}},{"type":"Feature","properties":[{"highway":"residential"},{"name":"Rua Miranda Jordão"},{"oneway":"yes"},{"surface":"asphalt"}],"geometry":{"type":"LineString","coordinates":[["-46.5546103","-23.5696563"],["-46.5555009","-23.5716090"],["-46.5561127","-23.5729510"],["-46.5567029","-23.5742456"]]}},{"type":"Feature","properties":[{"highway":"residential"},{"name":"Rua Armando Dias"},{"oneway":"yes"},{"surface":"asphalt"}],"geometry":{"type":"LineString","coordinates":[["-46.5575457","-23.5739786"],["-46.5569247","-23.5726336"],["-46.5563065","-23.5712947"],["-46.5554884","-23.5695230"],["-46.5549795","-23.5684345"]]}},{"type":"Feature","properties":[{"highway":"residential"},{"name":"Travessa Itaju do Colônia"},{"source":"survey;Bing"},{"source:surface":"survey"},{"surface":"asphalt"}],"geometry":{"type":"LineString","coordinates":[["-46.5561417","-23.5754775"],["-46.5571324","-23.5752227"]]}},{"type":"Feature","properties":[{"highway":"footway"},{"source":"survey;Bing"},{"surface":"paved"}],"geometry":{"type":"LineString","coordinates":[["-46.5561417","-23.5754775"],["-46.5543178","-23.5758963"],["-46.5542611","-23.5758170"]]}},{"type":"Feature","properties":[{"highway":"residential"},{"name":"Rua Princesa Maria Pia"},{"surface":"asphalt"}],"geometry":{"type":"LineString","coordinates":[["-46.5544172","-23.5760498"],["-46.5545451","-23.5763195"],["-46.5548734","-23.5769926"],["-46.5551515","-23.5776357"],["-46.5555134","-23.5783859"],["-46.5557193","-23.5791575"],["-46.5559637","-23.5800733"],["-46.5562245","-23.5810607"]]}},{"type":"Feature","properties":[{"highway":"residential"},{"name":"Rua Trimonte"},{"source:name":"IBGE"},{"surface":"asphalt"}],"geometry":{"type":"LineString","coordinates":[["-46.5563500","-23.5771291"],["-46.5563170","-23.5768554"],["-46.5562100","-23.5759685"],["-46.5561688","-23.5756267"]]}},{"type":"Feature","properties":[{"highway":"residential"},{"name":"Rua José Dipold"},{"surface":"asphalt"}],"geometry":{"type":"LineString","coordinates":[["-46.5537308","-23.5762348"],["-46.5542193","-23.5772620"],["-46.5548784","-23.5786459"]]}},{"type":"Feature","properties":[{"highway":"residential"},{"name":"Rua Valdomiro Pedroso"},{"surface":"asphalt"}],"geometry":{"type":"LineString","coordinates":[["-46.5532339","-23.5763566"],["-46.5537581","-23.5774520"],["-46.5544193","-23.5788338"]]}},{"type":"Feature","properties":[{"highway":"residential"},{"name":"Rua Lélio Landucci"},{"surface":"asphalt"}],"geometry":{"type":"LineString","coordinates":[["-46.5527136","-23.5764841"],["-46.5532923","-23.5776438"],["-46.5539121","-23.5790415"]]}},{"type":"Feature","properties":[{"highway":"residential"},{"name":"Rua Waldemar Celeghim"},{"surface":"asphalt"}],"geometry":{"type":"LineString","coordinates":[["-46.5522389","-23.5766117"],["-46.5528156","-23.5778888"],["-46.5534548","-23.5792288"]]}},{"type":"Feature","properties":[{"addr:city":"São Paulo"},{"addr:housenumber":"1088"},{"addr:postcode":"03345-000"},{"addr:street":"Avenida Sapopemba"},{"addr:suburb":"Vila Regente Feijó"},{"bench":"yes"},{"covered":"yes"},{"highway":"bus_stop"},{"shelter":"yes"}],"geometry":{"type":"Point","coordinates":["-46.5705866","-23.5649056"]}},{"type":"Feature","properties":[{"addr:city":"São Paulo"},{"addr:housenumber":"1058"},{"addr:postcode":"03345-000"},{"addr:street":"Avenida Sapopemba"},{"addr:suburb":"Vila Regente Feijó"},{"shop":"yes"}],"geometry":{"type":"Point","coordinates":["-46.5707559","-23.5647682"]}},{"type":"Feature","properties":[{"addr:city":"São Paulo"},{"addr:housenumber":"1050"},{"addr:postcode":"03345-000"},{"addr:street":"Avenida Sapopemba"},{"addr:suburb":"Vila Regente Feijó"},{"building":"house"}],"geometry":{"type":"Point","coordinates":["-46.5708769","-23.5646703"]}},{"type":"Feature","properties":[{"addr:city":"São Paulo"},{"addr:housenumber":"872"},{"addr:postcode":"03345-000"},{"addr:street":"Avenida Sapopemba"},{"addr:suburb":"Vila Regente Feijó"},{"shop":"yes"}],"geometry":{"type":"Point","coordinates":["-46.5722764","-23.5635377"]}},{"type":"Feature","properties":[{"addr:city":"São Paulo"},{"addr:housenumber":"890"},{"addr:postcode":"03345-000"},{"addr:street":"Avenida Sapopemba"},{"addr:suburb":"Vila Regente Feijó"},{"building":"house"}],"geometry":{"type":"Point","coordinates":["-46.5720155","-23.5637488"]}},{"type":"Feature","properties":[{"addr:city":"São Paulo"},{"addr:housenumber":"990"},{"addr:postcode":"03345-000"},{"addr:street":"Avenida Sapopemba"},{"addr:suburb":"Vila Regente Feijó"},{"shop":"yes"}],"geometry":{"type":"Point","coordinates":["-46.5713541","-23.5642841"]}},{"type":"Feature","properties":[{"addr:city":"São Paulo"},{"addr:housenumber":"101"},{"addr:postcode":"03345-000"},{"addr:street":"Avenida Sapopemba"},{"addr:suburb":"Vila Regente Feijó"},{"building":"house"}],"geometry":{"type":"Point","coordinates":["-46.5711329","-23.5644631"]}}]}