{"type":"FeatureCollection","features":[{"type":"Feature","properties":[{"building":"house"},{"building:levels":"2"}],"geometry":{"type":"LineString","coordinates":[["-71.9493683","-13.5384855"],["-71.9493254","-13.5384973"],["-71.9493147","-13.5384347"],["-71.9493535","-13.5384125"],["-71.9493589","-13.5384412"],["-71.9493683","-13.5384855"]]}},{"type":"Feature","properties":[{"highway":"unclassified"},{"maxspeed":"40"}],"geometry":{"type":"LineString","coordinates":[["-71.9473942","-13.5388991"],["-71.9472846","-13.5389315"],["-71.9472014","-13.5389484"],["-71.9470941","-13.5389693"],["-71.9469171","-13.5390058"],["-71.9468232","-13.5390332"],["-71.9467857","-13.5390358"]]}},{"type":"Feature","properties":[{"highway":"unclassified"},{"maxspeed":"30"},{"surface":"tierra"}],"geometry":{"type":"LineString","coordinates":[["-71.9486556","-13.5386724"],["-71.9485537","-13.5386531"],["-71.9484274","-13.5386575"],["-71.9483072","-13.5386725"],["-71.9481701","-13.5387055"],["-71.9479729","-13.5387519"],["-71.9477757","-13.5387879"],["-71.9477018","-13.5388013"],["-71.9475986","-13.5388283"],["-71.9475323","-13.5388582"],["-71.9474599","-13.5388717"],["-71.9473942","-13.5388991"]]}},{"type":"Feature","properties":[{"highway":"unclassified"},{"maxspeed":"40"}],"geometry":{"type":"LineString","coordinates":[["-71.9473942","-13.5388991"],["-71.9467857","-13.5390358"]]}},{"type":"Feature","properties":[{"building":"house"},{"building:levels":"1"}],"geometry":{"type":"LineString","coordinates":[["-71.9493683","-13.5384855"],["-71.9493254","-13.5384973"],["-71.9493147","-13.5384347"],["-71.9493535","-13.5384125"],["-71.9493589","-13.5384412"],["-71.9493683","-13.5384855"]]}},{"type":"Feature","properties":[{"addr:city":"Cusco"},{"addr:street":"Avenida Gast√≥n Zapata"},{"building":"house"},{"building:levels":"2"}],"geometry":{"type":"LineString","coordinates":[["-71.9468052","-13.5301986"],["-71.9467556","-13.5302038"],["-71.946769","-13.5303565"],["-71.9468367","-13.5303437"],["-71.9468052","-13.5301986"]]}},{"type":"Feature","properties":[{"amenity":"parking"},{"parking":"surface"}],"geometry":{"type":"LineString","coordinates":[["-71.9463436","-13.5304364"],["-71.9463494","-13.5304803"],["-71.9468892","-13.5304061"],["-71.9468693","-13.5303376"],["-71.9468367","-13.5303437"],["-71.946769","-13.5303565"],["-71.9463436","-13.5304364"]]}},{"type":"Feature","properties":[{"addr:city":"Cusco"},{"building":"house"},{"building:levels":"4"}],"geometry":{"type":"LineString","coordinates":[["-71.9468012","-13.5301764"],["-71.9467449","-13.5301816"],["-71.9467033","-13.5300043"],["-71.946773","-13.5299952"],["-71.9468012","-13.5301764"]]}},{"type":"Feature","properties":[{"amenity":"school"},{"name":"Augusto Salazar Bondy"}],"geometry":{"type":"LineString","coordinates":[["-71.9467592","-13.5296042"],["-71.9465263","-13.5296443"],["-71.9465724","-13.5299945"],["-71.9468213","-13.5299560"],["-71.9467592","-13.5296042"]]}},{"type":"Feature","properties":[{"building":"house"}],"geometry":{"type":"LineString","coordinates":[["-71.9467612","-13.5299928"],["-71.9466911","-13.5300033"],["-71.9467127","-13.5301688"],["-71.9467935","-13.5301605"],["-71.9467612","-13.5299928"]]}},{"type":"Feature","properties":[{"building":"house"}],"geometry":{"type":"LineString","coordinates":[["-71.9467935","-13.5301605"],["-71.9467127","-13.5301688"],["-71.9467658","-13.5303507"],["-71.9468205","-13.5303403"],["-71.9467935","-13.5301605"]]}},{"type":"Feature","properties":[{"highway":"footway"}],"geometry":{"type":"LineString","coordinates":[["-71.9461585","-13.5300631"],["-71.9466958","-13.5299922"],["-71.9467673","-13.529983"],["-71.9468284","-13.5299746"]]}},{"type":"Feature","properties":[{"amenity":"parking"},{"parking":"surface"}],"geometry":{"type":"LineString","coordinates":[["-71.9463436","-13.5304364"],["-71.9463494","-13.5304803"],["-71.9468202","-13.5304202"],["-71.9468172","-13.530356"],["-71.9467674","-13.5303629"],["-71.9463436","-13.5304364"]]}},{"type":"Feature","properties":[{"leisure":"yes"},{"name":"Speedy Internet"}],"geometry":{"type":"Point","coordinates":[-71.9493423,-13.5384825]}},{"type":"Feature","properties":[{"leisure":"yes"},{"name":"Gato Net"}],"geometry":{"type":"Point","coordinates":[-71.9489171,-13.5385516]}},{"type":"Feature","properties":[{"name":"Sra. Juliana"},{"opening_hours":"15"},{"shop":"convenience"}],"geometry":{"type":"Point","coordinates":[-71.9464082,-13.5300656]}},{"type":"Feature","properties":[{"building":"cabin"}],"geometry":{"type":"Point","coordinates":[-71.9463519,-13.5301021]}},{"type":"Feature","properties":[{"shop":"supermarket"}],"geometry":{"type":"Point","coordinates":[-71.9639298,-13.5332382]}}]}