{"type":"FeatureCollection","features":[{"type":"Feature","properties":[{"highway":"residential"},{"maxspeed":"20"},{"motor_vehicle":"yes"},{"name":"calle s/n"},{"oneway":"no"}],"geometry":{"type":"LineString","coordinates":[["-71.9016378","-13.5357501"],["-71.901749","-13.5359769"],["-71.9019265","-13.5363446"],["-71.9021903","-13.5369439"],["-71.9018929","-13.5370839"]]}},{"type":"Feature","properties":[{"highway":"residential"},{"name":"Avenida 4 Los Saucos"}],"geometry":{"type":"LineString","coordinates":[["-71.9065238","-13.5336643"],["-71.9064589","-13.5336601"],["-71.9051865","-13.5342031"],["-71.9051588","-13.5342149"],["-71.9037940","-13.5347756"],["-71.9024553","-13.5353571"],["-71.9021409","-13.5354745"],["-71.9018248","-13.5355926"],["-71.9017499","-13.5356557"],["-71.9016378","-13.5357501"],["-71.9015673","-13.5358096"],["-71.9013012","-13.5358847"]]}},{"type":"Feature","properties":[{"highway":"residential"},{"name":"Avenida Villa de Carmen"},{"oneway":"no"},{"surface":"paved"}],"geometry":{"type":"LineString","coordinates":[["-71.9004515","-13.5339320"],["-71.9008721","-13.5348833"],["-71.9013012","-13.5358847"],["-71.9018929","-13.5370839"],["-71.9019106","-13.5371197"],["-71.9024300","-13.5381689"],["-71.9026452","-13.5386696"],["-71.9029055","-13.5391969"],["-71.9030391","-13.5393920"]]}},{"type":"Feature","properties":[{"building":"yes"},{"shop":"hairdresser"}],"geometry":{"type":"LineString","coordinates":[["-71.9487834","-13.5382370"],["-71.9487681","-13.5381602"],["-71.9487159","-13.5381700"],["-71.9487311","-13.5382468"],["-71.9487834","-13.5382370"]]}},{"type":"Feature","properties":[{"building":"yes"}],"geometry":{"type":"LineString","coordinates":[["-71.9500784","-13.5378362"],["-71.9500359","-13.5378478"],["-71.9499659","-13.5378669"],["-71.9499814","-13.5379208"],["-71.9499921","-13.5379179"],["-71.9500940","-13.5378900"],["-71.9500784","-13.5378362"]]}},{"type":"Feature","properties":[{"building":"yes"}],"geometry":{"type":"LineString","coordinates":[["-71.9500784","-13.5378362"],["-71.9499659","-13.5378669"],["-71.9499814","-13.5379208"],["-71.9499921","-13.5379179"],["-71.9500940","-13.5378900"],["-71.9500784","-13.5378362"]]}},{"type":"Feature","properties":[{"addr:street":"Velasco Astete"},{"amenity":"bus_station"},{"building":"no"},{"name":"Paradero reloj"},{"operator":"Municipio"}],"geometry":{"type":"LineString","coordinates":[["-71.9511304","-13.5375202"],["-71.9511342","-13.5375304"],["-71.9511024","-13.53754"],["-71.951099","-13.5375291"],["-71.9511304","-13.5375202"]]}},{"type":"Feature","properties":[{"addr:street":"Velasco Astete"},{"name":"samuel"},{"shop":"hairdresser"}],"geometry":{"type":"Point","coordinates":[-71.948744,-13.5381801]}},{"type":"Feature","properties":[{"addr:street":"Velasco Astete"},{"amenity":"restaurant"},{"capacity":"50"},{"cuisine":"chinese"},{"name":"Wanton"},{"opening_hours":"9am-10pm"},{"smoking":"no"}],"geometry":{"type":"Point","coordinates":[-71.9500359,-13.5378478]}},{"type":"Feature","properties":[{"addr:street":"velas astete"},{"amenity":"restaurant"},{"capacity":"50"},{"cuisine":"chinese"},{"name":"wanton"},{"opening_hours":"9.00 am   - 10.00pm"}],"geometry":{"type":"Point","coordinates":[-71.9500398,-13.5378738]}},{"type":"Feature","properties":[{"addr:street":"Velasco Astete"},{"building":"church"},{"building:levels":"1"},{"name":"Se√±or del calvario"}],"geometry":{"type":"Point","coordinates":[-71.9508617,-13.5376682]}},{"type":"Feature","properties":[{"addr:street":"Velasco Astete"},{"amenity":"pharmacy"},{"name":"El Milagro"}],"geometry":{"type":"Point","coordinates":[-71.9507675,-13.5373763]}},{"type":"Feature","properties":[{"addr:street":"Velasco Astete"},{"building":"school"},{"building:levels":"4"},{"name":"El Pacifico"}],"geometry":{"type":"Point","coordinates":[-71.9500021,-13.5375468]}}]}