{"type":"FeatureCollection","features":[{"type":"Feature","properties":[{"addr:city":"Wanchaq"},{"addr:housenumber":"F-4"},{"addr:street":"Avenida Velasco Astete"},{"building":"house"}],"geometry":{"type":"LineString","coordinates":[["-71.9481243","-13.5382958"],["-71.9481961","-13.5382794"],["-71.9482187","-13.5383723"],["-71.9481487","-13.5383895"],["-71.9481243","-13.5382958"]]}},{"type":"Feature","properties":[{"addr:city":"Wanchaq"},{"addr:housenumber":"F-1"},{"addr:postcode":"084"},{"addr:street":"Avenida Velasco Astete"},{"building":"house"},{"building:levels":"1"}],"geometry":{"type":"LineString","coordinates":[["-71.9484144","-13.5382991"],["-71.9485243","-13.5382720"],["-71.9485063","-13.5382031"],["-71.9483965","-13.5382301"],["-71.9484144","-13.5382991"]]}},{"type":"Feature","properties":[{"addr:city":"Wanchaq"},{"addr:housenumber":"f-2"},{"addr:postcode":"084"},{"addr:street":"Avenida Velasco Astete"},{"building":"house"},{"building:levels":"1"}],"geometry":{"type":"LineString","coordinates":[["-71.9484144","-13.5382991"],["-71.9483965","-13.5382301"],["-71.9483102","-13.5382513"],["-71.9483281","-13.5383203"],["-71.9484144","-13.5382991"]]}},{"type":"Feature","properties":[{"addr:city":"Wanchaq"},{"addr:housenumber":"f-3"},{"addr:postcode":"084"},{"addr:street":"Avenida Velasco Astete"},{"building":"house"},{"building:levels":"1"}],"geometry":{"type":"LineString","coordinates":[["-71.9483102","-13.5382513"],["-71.9481961","-13.5382794"],["-71.9482141","-13.5383484"],["-71.9483281","-13.5383203"],["-71.9483102","-13.5382513"]]}},{"type":"Feature","properties":[{"building":"residential"},{"building:levels":"4"}],"geometry":{"type":"LineString","coordinates":[["-71.9481243","-13.5382958"],["-71.9479265","-13.5383445"],["-71.9479509","-13.5384382"],["-71.9481487","-13.5383895"],["-71.9481243","-13.5382958"]]}},{"type":"Feature","properties":[{"building":"yes"}],"geometry":{"type":"LineString","coordinates":[["-71.9478027","-13.5384760"],["-71.9477987","-13.5384606"],["-71.947785","-13.5384081"],["-71.9477821","-13.5383968"],["-71.9476804","-13.5384218"],["-71.9477010","-13.5385010"],["-71.9478027","-13.5384760"]]}},{"type":"Feature","properties":[{"area":"yes"}],"geometry":{"type":"LineString","coordinates":[["-71.9476804","-13.5384218"],["-71.9475975","-13.5384388"],["-71.9476191","-13.5385182"],["-71.9477010","-13.5385010"],["-71.9476804","-13.5384218"]]}},{"type":"Feature","properties":[{"leisure":"park"}],"geometry":{"type":"LineString","coordinates":[["-71.9484287","-13.5380846"],["-71.9475997","-13.5382936"],["-71.9476023","-13.5383281"],["-71.9484367","-13.5381078"],["-71.9484287","-13.5380846"]]}},{"type":"Feature","properties":[{"leisure":"park"}],"geometry":{"type":"LineString","coordinates":[["-71.9463533","-13.5386308"],["-71.9468254","-13.5385154"],["-71.9471209","-13.5384427"],["-71.9472819","-13.5384052"],["-71.9474652","-13.538361"],["-71.9474698","-13.5383408"],["-71.9474691","-13.5383281"],["-71.9474606","-13.5383236"],["-71.9470763","-13.5384273"],["-71.9466645","-13.5385314"],["-71.9463442","-13.5386088"],["-71.9463533","-13.5386308"]]}},{"type":"Feature","properties":[{"leisure":"park"}],"geometry":{"type":"LineString","coordinates":[["-71.9463091","-13.538619"],["-71.9457162","-13.5387601"],["-71.9457145","-13.5387738"],["-71.9457286","-13.5387842"],["-71.9463073","-13.5386396"],["-71.9463115","-13.538636"],["-71.9463128","-13.5386295"],["-71.9463091","-13.538619"]]}},{"type":"Feature","properties":[{"bridge":"yes"},{"highway":"service"},{"layer":"1"},{"motor_vehicle":"no"},{"name":"Tankarpata"}],"geometry":{"type":"LineString","coordinates":[["-71.9455530","-13.5399424"],["-71.9455426","-13.5398614"],["-71.9454967","-13.5396165"]]}},{"type":"Feature","properties":[{"leisure":"pitch"}],"geometry":{"type":"LineString","coordinates":[["-71.9461704","-13.5392029"],["-71.9459059","-13.5392674"],["-71.9459421","-13.5394171"],["-71.9462279","-13.5393397"],["-71.9461704","-13.5392029"]]}},{"type":"Feature","properties":[{"addr:city":"Wanchaq"},{"addr:housenumber":"s/n"},{"addr:postcode":"084"},{"addr:street":"Pasadiso Tancarpata"},{"building":"yes"},{"craft":"gardener"},{"name":"Vivero Municipal de Wanchaq"}],"geometry":{"type":"LineString","coordinates":[["-71.9462501","-13.5393337"],["-71.9462793","-13.5394274"],["-71.9457873","-13.5395479"],["-71.9457563","-13.5393457"],["-71.9458873","-13.5393156"],["-71.9459245","-13.5394223"],["-71.9462501","-13.5393337"]]}},{"type":"Feature","properties":[{"addr:city":"Wanchaq"},{"addr:housenumber":"S/N"},{"addr:postcode":"084"},{"addr:street":"Parque Tancarpata"},{"leisure":"park"},{"name":"parque de descanso Tancarpata"}],"geometry":{"type":"LineString","coordinates":[["-71.945656","-13.5394787"],["-71.945661","-13.5395143"],["-71.945625","-13.5395202"],["-71.9456194","-13.5395108"],["-71.9455691","-13.5395212"],["-71.9455747","-13.5395336"],["-71.9455376","-13.539541"],["-71.9455304","-13.5395311"],["-71.945504","-13.539538"],["-71.9455147","-13.5395889"],["-71.945505","-13.5395909"],["-71.9455076","-13.53962"],["-71.9454857","-13.5396265"],["-71.9454827","-13.5395934"],["-71.9454649","-13.5395958"],["-71.9454664","-13.539579"],["-71.945472","-13.539578"],["-71.9454735","-13.5395716"],["-71.9454649","-13.5395746"],["-71.9454644","-13.5395548"],["-71.945473","-13.5395528"],["-71.9454725","-13.5395435"],["-71.9454796","-13.5395217"],["-71.9454989","-13.5395074"],["-71.9455259","-13.539502"],["-71.9455254","-13.5394896"],["-71.9455609","-13.5394817"],["-71.9455645","-13.5394926"],["-71.945565","-13.5394975"],["-71.945656","-13.5394787"]]}},{"type":"Feature","properties":[{"addr:city":"Wanchaq"},{"addr:housenumber":"s/n"},{"addr:street":"Avenida Velasco Astete"},{"amenity":"fuel"},{"building":"yes"},{"name":"estacion de servicios pecsa"}],"geometry":{"type":"LineString","coordinates":[["-71.9450224","-13.5390350"],["-71.9450739","-13.5393948"],["-71.9445973","-13.5394654"],["-71.9445525","-13.539086"],["-71.9450224","-13.5390350"]]}},{"type":"Feature","properties":[{"addr:city":"Wanchaq"},{"addr:housenumber":"S/n"},{"addr:postcode":"084"},{"addr:street":"Avenida Velasco Astete"},{"building":"garage"},{"capacity":"30"},{"name":"Garaje del Ministerio de Cultura-Cusco"},{"note":"garaje de Mantenimiento de Unidades Vehiculares del Ministerio de Cultura-Cusco"}],"geometry":{"type":"LineString","coordinates":[["-71.9455625","-13.5389582"],["-71.9450224","-13.5390350"],["-71.9450967","-13.5395538"],["-71.9454464","-13.5395064"],["-71.9454427","-13.5394806"],["-71.9456329","-13.5394500"],["-71.9455625","-13.5389582"]]}},{"type":"Feature","properties":[{"building":"yes"}],"geometry":{"type":"LineString","coordinates":[["-71.9450533","-13.5392509"],["-71.9450739","-13.5393948"],["-71.9450967","-13.5395538"],["-71.9454464","-13.5395064"],["-71.9454427","-13.5394806"],["-71.9454312","-13.5393999"],["-71.9452570","-13.5394235"],["-71.9451979","-13.5390112"],["-71.9450224","-13.5390350"],["-71.9450533","-13.5392509"]]}},{"type":"Feature","properties":[{"area":"yes"}],"geometry":{"type":"LineString","coordinates":[["-71.9458439","-13.5388833"],["-71.9456918","-13.5389164"],["-71.9457152","-13.5389911"],["-71.9458589","-13.5389603"],["-71.9458439","-13.5388833"]]}},{"type":"Feature","properties":[{"building":"yes"}],"geometry":{"type":"LineString","coordinates":[["-71.9459146","-13.5388703"],["-71.9458439","-13.5388833"],["-71.9458589","-13.5389603"],["-71.9458625","-13.5389790"],["-71.9459332","-13.5389660"],["-71.9459146","-13.5388703"]]}},{"type":"Feature","properties":[{"addr:city":"Wanchaq"},{"addr:housenumber":"f-36"},{"addr:postcode":"084"},{"addr:street":"Avenida Velasco Astete"},{"building":"house"},{"name":"Taller de Mecanica Frenosa"},{"shop":"car_repair"}],"geometry":{"type":"LineString","coordinates":[["-71.9458439","-13.5388833"],["-71.9456918","-13.5389164"],["-71.9457152","-13.5389911"],["-71.9458589","-13.5389603"],["-71.9458439","-13.5388833"]]}},{"type":"Feature","properties":[{"leisure":"park"}],"geometry":{"type":"LineString","coordinates":[["-71.9463533","-13.5386308"],["-71.9471209","-13.5384427"],["-71.9472819","-13.5384052"],["-71.9474652","-13.5383610"],["-71.9474698","-13.5383408"],["-71.9474691","-13.5383281"],["-71.9474606","-13.5383236"],["-71.9470763","-13.5384273"],["-71.9468183","-13.5384925"],["-71.9466645","-13.5385314"],["-71.9463442","-13.5386088"],["-71.9463533","-13.5386308"]]}},{"type":"Feature","properties":[{"addr:city":"Wanchaq"},{"addr:housenumber":"F-1"},{"addr:postcode":"084"},{"addr:street":"Avenida Velasco Astete"},{"opening_hours":"07h- 21h"},{"shop":"yes"}],"geometry":{"type":"Point","coordinates":[-71.9484961,-13.5382198]}},{"type":"Feature","properties":[{"addr:city":"Wanchaq"},{"addr:housenumber":"F-1"},{"addr:postcode":"084"},{"addr:street":"Avenida Velasco Astete"},{"building":"cabin"},{"name":"Cabina de internet"}],"geometry":{"type":"Point","coordinates":[-71.9484616,-13.5382246]}},{"type":"Feature","properties":[{"addr:city":"Wanchaq"},{"addr:housenumber":"F-2"},{"addr:postcode":"084"},{"addr:street":"Avenida Velasco Astete"},{"opening_hours":"07 h - 20 h"},{"shop":"convenience"}],"geometry":{"type":"Point","coordinates":[-71.9483748,-13.5382449]}},{"type":"Feature","properties":[{"addr:city":"Wanchaq"},{"addr:housenumber":"F-4"},{"addr:postcode":"084"},{"addr:street":"Avenida Velasco Astete"},{"shop":"convenience"}],"geometry":{"type":"Point","coordinates":[-71.9481808,-13.5382919]}},{"type":"Feature","properties":[{"addr:city":"Wanchaq"},{"addr:housenumber":"F-4"},{"addr:postcode":"084"},{"addr:street":"Avenida Velasco Astete"},{"building":"cabin"},{"building:levels":"1"},{"name":"Cabina de Internet"}],"geometry":{"type":"Point","coordinates":[-71.9481638,-13.5382957]}},{"type":"Feature","properties":[{"natural":"tree"}],"geometry":{"type":"Point","coordinates":[-71.9478477,-13.5382387]}},{"type":"Feature","properties":[{"addr:city":"Wanchaq"},{"addr:housenumber":"F-5"},{"addr:postcode":"084"},{"addr:street":"Avenida Velasco Astete"},{"shop":"convenience"}],"geometry":{"type":"Point","coordinates":[-71.9480817,-13.5383191]}},{"type":"Feature","properties":[{"addr:city":"Wanchaq"},{"addr:housenumber":"F-5"},{"addr:postcode":"084"},{"addr:street":"Avenida Velasco Astete"},{"building":"cabin"},{"building:levels":"4"},{"name":"Cabina Internet"}],"geometry":{"type":"Point","coordinates":[-71.9480313,-13.5383309]}},{"type":"Feature","properties":[{"addr:city":"Wanchaq"},{"addr:housenumber":"F-6"},{"addr:postcode":"084"},{"addr:street":"Avenida Velasco Astete"},{"amenity":"restaurant"},{"capacity":"25"},{"cuisine":"regional"},{"delivery":"yes"},{"name":"Polleria Velasco"},{"opening_hours":"11h - 22h"},{"takeaway":"yes"}],"geometry":{"type":"Point","coordinates":[-71.9479141,-13.5383545]}},{"type":"Feature","properties":[{"addr:city":"Wanchaq"},{"addr:housenumber":"F-7"},{"addr:street":"Avenida Velasco Astete"},{"building":"church"},{"building:levels":"2"},{"name":"Cristiana La Union"}],"geometry":{"type":"Point","coordinates":[-71.9478372,-13.5384039]}},{"type":"Feature","properties":[{"addr:city":"Wanchaq"},{"addr:housenumber":"F-8"},{"addr:postcode":"084"},{"addr:street":"Avenida Velasco Astete"},{"name":"La Casita"},{"opening_hours":"09 h - 22 h"},{"shop":"wine"}],"geometry":{"type":"Point","coordinates":[-71.947759,-13.5384122]}},{"type":"Feature","properties":[{"addr:city":"Wanchaq"},{"addr:housenumber":"F-3"},{"addr:postcode":"084"},{"addr:street":"Avenida Velasco Astete"},{"craft":"metal_construction"},{"name":"La Torneria"},{"opening_hours":"08h - 18h"}],"geometry":{"type":"Point","coordinates":[-71.9482657,-13.5382623]}},{"type":"Feature","properties":[{"addr:city":"Wanchaq"},{"addr:housenumber":"F-8"},{"addr:postcode":"084"},{"addr:street":"Avenida Velasco Astete"},{"name":"Regalos"},{"opening_hours":"08 h - 20 h"},{"shop":"gift"}],"geometry":{"type":"Point","coordinates":[-71.9477335,-13.5384088]}},{"type":"Feature","properties":[{"addr:city":"Wanchaq"},{"addr:housenumber":"F-8"},{"addr:postcode":"084"},{"addr:street":"Avenida Velasco Astete"},{"amenity":"bank"},{"atm":"yes"},{"name":"Agente  BCP"},{"opening_hours":"09h - 20 h"}],"geometry":{"type":"Point","coordinates":[-71.9477187,-13.5384124]}},{"type":"Feature","properties":[{"leisure":"park"}],"geometry":{"type":"Point","coordinates":[-71.9479536,-13.5382197]}},{"type":"Feature","properties":[{"leisure":"park"}],"geometry":{"type":"Point","coordinates":[-71.9483933,-13.538107]}},{"type":"Feature","properties":[{"leisure":"park"}],"geometry":{"type":"Point","coordinates":[-71.9483323,-13.5381207]}},{"type":"Feature","properties":[{"leisure":"park"}],"geometry":{"type":"Point","coordinates":[-71.948258,-13.5381397]}},{"type":"Feature","properties":[{"leisure":"park"}],"geometry":{"type":"Point","coordinates":[-71.9481907,-13.538156]}},{"type":"Feature","properties":[{"leisure":"park"}],"geometry":{"type":"Point","coordinates":[-71.9481199,-13.5381706]}},{"type":"Feature","properties":[{"leisure":"park"}],"geometry":{"type":"Point","coordinates":[-71.9480359,-13.538193]}},{"type":"Feature","properties":[{"leisure":"park"}],"geometry":{"type":"Point","coordinates":[-71.9477474,-13.5382696]}},{"type":"Feature","properties":[{"leisure":"park"}],"geometry":{"type":"Point","coordinates":[-71.9476536,-13.5382919]}},{"type":"Feature","properties":[{"addr:city":"Wanchaq"},{"addr:housenumber":"F-8"},{"addr:postcode":"084"},{"addr:street":"Avenida Velasco Astete"},{"amenity":"bank"},{"atm":"yes"},{"name":"Agente  BCP"},{"opening_hours":"09h - 20 h"}],"geometry":{"type":"Point","coordinates":[-71.9477182,-13.5384287]}},{"type":"Feature","properties":[{"addr:city":"Wanchaq"},{"addr:housenumber":"F-8"},{"addr:postcode":"084"},{"addr:street":"Avenida Velasco Astete"},{"name":"Regalos"},{"opening_hours":"08 h - 20 h"},{"shop":"gift"}],"geometry":{"type":"Point","coordinates":[-71.9477404,-13.5384227]}},{"type":"Feature","properties":[{"addr:city":"Wanchaq"},{"addr:housenumber":"F-8"},{"addr:postcode":"084"},{"addr:street":"Avenida Velasco Astete"},{"name":"La Casita"},{"opening_hours":"09 h - 22 h"},{"shop":"wine"}],"geometry":{"type":"Point","coordinates":[-71.9477634,-13.5384192]}},{"type":"Feature","properties":[{"addr:city":"Wanchaq"},{"addr:housenumber":"F-7"},{"addr:street":"Avenida Velasco Astete"},{"building":"church"},{"building:levels":"2"},{"name":"Cristiana La Union"}],"geometry":{"type":"Point","coordinates":[-71.9478386,-13.5384106]}},{"type":"Feature","properties":[{"addr:city":"Wanchaq"},{"addr:housenumber":"F-6"},{"addr:postcode":"084"},{"addr:street":"Avenida Velasco Astete"},{"amenity":"restaurant"},{"capacity":"25"},{"cuisine":"regional"},{"delivery":"yes"},{"name":"Polleria Velasco"},{"opening_hours":"11h - 22h"},{"takeaway":"yes"}],"geometry":{"type":"Point","coordinates":[-71.9479058,-13.5383659]}},{"type":"Feature","properties":[{"natural":"tree"}],"geometry":{"type":"Point","coordinates":[-71.9478483,-13.5382506]}},{"type":"Feature","properties":[{"amenity":"bench"}],"geometry":{"type":"Point","coordinates":[-71.9456443,-13.5395128]}},{"type":"Feature","properties":[{"amenity":"bench"}],"geometry":{"type":"Point","coordinates":[-71.9455442,-13.5394901]}},{"type":"Feature","properties":[{"amenity":"bench"}],"geometry":{"type":"Point","coordinates":[-71.9455609,-13.5395316]}},{"type":"Feature","properties":[{"amenity":"bench"}],"geometry":{"type":"Point","coordinates":[-71.945471,-13.5395627]}},{"type":"Feature","properties":[{"amenity":"bench"}],"geometry":{"type":"Point","coordinates":[-71.9454695,-13.5395879]}},{"type":"Feature","properties":[{"amenity":"bench"}],"geometry":{"type":"Point","coordinates":[-71.9455081,-13.5395825]}},{"type":"Feature","properties":[{"amenity":"bench"}],"geometry":{"type":"Point","coordinates":[-71.9455296,-13.5394887]}},{"type":"Feature","properties":[{"amenity":"bench"}],"geometry":{"type":"Point","coordinates":[-71.9455431,-13.5395326]}},{"type":"Feature","properties":[{"addr:city":"Wanchaq"},{"addr:housenumber":"s/n"},{"addr:postcode":"084"},{"addr:street":"Avenida Velasco Astete"},{"amenity":"fuel"},{"name":"Grifo Pecsa"},{"opening_hours":"24 h"}],"geometry":{"type":"Point","coordinates":[-71.9448087,-13.5391195]}},{"type":"Feature","properties":[{"addr:city":"Wanchaq"},{"addr:housenumber":"F-36"},{"addr:postcode":"084"},{"addr:street":"Avenida Velasco Astete"},{"name":"frenosa"},{"shop":"car_repair"}],"geometry":{"type":"Point","coordinates":[-71.9457547,-13.5389027]}},{"type":"Feature","properties":[{"natural":"tree"}],"geometry":{"type":"Point","coordinates":[-71.947433,-13.5383454]}},{"type":"Feature","properties":[{"natural":"tree"}],"geometry":{"type":"Point","coordinates":[-71.9472832,-13.5383715]}},{"type":"Feature","properties":[{"natural":"tree"}],"geometry":{"type":"Point","coordinates":[-71.9471966,-13.5383948]}},{"type":"Feature","properties":[{"natural":"tree"}],"geometry":{"type":"Point","coordinates":[-71.9471408,-13.5384099]}},{"type":"Feature","properties":[{"natural":"tree"}],"geometry":{"type":"Point","coordinates":[-71.9470763,-13.5384273]}},{"type":"Feature","properties":[{"natural":"tree"}],"geometry":{"type":"Point","coordinates":[-71.9470085,-13.5384444]}},{"type":"Feature","properties":[{"natural":"tree"}],"geometry":{"type":"Point","coordinates":[-71.9468919,-13.5384739]}},{"type":"Feature","properties":[{"natural":"tree"}],"geometry":{"type":"Point","coordinates":[-71.9473686,-13.5383611]}},{"type":"Feature","properties":[{"natural":"tree"}],"geometry":{"type":"Point","coordinates":[-71.9468183,-13.5384925]}},{"type":"Feature","properties":[{"natural":"tree"}],"geometry":{"type":"Point","coordinates":[-71.9467599,-13.5385312]}},{"type":"Feature","properties":[{"natural":"tree"}],"geometry":{"type":"Point","coordinates":[-71.946698,-13.5385229]}},{"type":"Feature","properties":[{"natural":"tree"}],"geometry":{"type":"Point","coordinates":[-71.9466287,-13.53854]}},{"type":"Feature","properties":[{"natural":"tree"}],"geometry":{"type":"Point","coordinates":[-71.9465707,-13.5385541]}},{"type":"Feature","properties":[{"natural":"tree"}],"geometry":{"type":"Point","coordinates":[-71.9465025,-13.5385706]}},{"type":"Feature","properties":[{"natural":"tree"}],"geometry":{"type":"Point","coordinates":[-71.9464254,-13.5385892]}},{"type":"Feature","properties":[{"natural":"tree"}],"geometry":{"type":"Point","coordinates":[-71.9468183,-13.5384925]}}]}